{"type": "FeatureCollection", "years": [2026, 2027, 2028, 2029, 2030, 2031, 2032, 2033, 2034, 2035], "features": [{"type": "Feature", "geometry": {"type": "Point", "coordinates": [149.08881, -35.35056]}, "properties": {"rank": 1, "id": "WASTACT61", "name": "Philip Recycling Drop Off Centre", "owner": "Act Government", "type": "TRANSFER STATION", "state": "ACT", "suburb": "Phillip", "in_capital": true, "tonnes": [561.1, 666.1, 773.1, 876.7, 972.9, 1057.9, 1128.5, 1182.3, 1217.4, 1232.8], "panels": [30299, 35369, 40460, 45326, 49769, 53624, 56750, 59037, 60411, 60833], "poas": ["2601", "2603", "2605", "2606", "2607", "2611", "2614", "2615", "2617", "2618", "2620", "2900", "2902", "2903", "2904", "2905", "2906"]}}, {"type": "Feature", "geometry": {"type": "Point", "coordinates": [149.1799, -35.33068]}, "properties": {"rank": 2, "id": "WASTACT18", "name": "Domayne Fyshwick", "owner": "Domayne", "type": "E-WASTE DROP-OFF FACILITY", "state": "ACT", "suburb": "Fyshwick", "in_capital": true, "tonnes": [264.3, 318.7, 374.5, 428.9, 479.7, 525.0, 563.1, 592.5, 612.4, 622.1], "panels": [14113, 16748, 19418, 21991, 24365, 26449, 28166, 29455, 30274, 30601], "poas": ["2600", "2602", "2604", "2609", "2612", "2619", "2621", "2911", "2912", "2913", "2914"]}}, {"type": "Feature", "geometry": {"type": "Point", "coordinates": [150.98444, -33.86979]}, "properties": {"rank": 3, "id": "WASTNSW1146", "name": "Officeworks", "owner": "Officeworks", "type": "E-WASTE DROP-OFF FACILITY", "state": "NSW", "suburb": "Old Guildford", "in_capital": true, "tonnes": [3505.8, 4191.4, 4895.0, 5581.3, 6221.9, 6792.3, 7271.3, 7641.8, 7891.3, 8012.4], "panels": [188932, 222140, 255748, 288090, 317852, 343903, 365294, 381272, 391310, 395127], "poas": ["2000", "2007", "2008", "2009", "2010", "2011", "2015", "2016", "2017", "2018", "2019", "2020", "2021", "2022", "2023", "2024", "2025", "2026", "2027", "2028", "2029", "2030", "2031", "2032", "2033", "2034", "2035", "2036", "2037", "2038", "2039", "2040", "2041", "2042", "2043", "2044", "2045", "2046", "2047", "2048", "2049", "2050", "2060", "2061", "2062", "2063", "2064", "2065", "2066", "2067", "2068", "2069", "2070", "2071", "2072", "2073", "2074", "2075", "2076", "2077", "2086", "2087", "2088", "2089", "2090", "2092", "2093", "2094", "2095", "2096", "2100", "2110", "2111", "2112", "2113", "2114", "2115", "2116", "2117", "2118", "2119", "2120", "2121", "2122", "2125", "2126", "2127", "2128", "2130", "2131", "2132", "2133", "2134", "2135", "2136", "2137", "2138", "2140", "2141", "2142", "2143", "2144", "2145", "2146", "2147", "2148", "2150", "2151", "2152", "2153", "2154", "2155", "2156", "2158", "2160", "2161", "2162", "2163", "2164", "2165", "2166", "2167", "2168", "2170", "2171", "2172", "2173", "2174", "2175", "2176", "2177", "2179", "2190", "2191", "2192", "2193", "2194", "2195", "2196", "2197", "2198", "2199", "2200", "2203", "2204", "2205", "2206", "2207", "2208", "2209", "2210", "2211", "2212", "2213", "2214", "2216", "2217", "2218", "2219", "2220", "2221", "2222", "2223", "2224", "2225", "2226", "2227", "2228", "2229", "2230", "2231", "2232", "2233", "2234", "2558", "2559", "2564", "2565", "2566", "2762", "2763", "2766", "2767", "2768", "2769"]}}, {"type": "Feature", "geometry": {"type": "Point", "coordinates": [153.48421, -28.24641]}, "properties": {"rank": 4, "id": "WASTNSW1480", "name": "Walls Quarry", "owner": "Walls Quarry", "type": "TRANSFER STATION", "state": "NSW", "suburb": "Bungalora", "in_capital": false, "tonnes": [833.2, 942.8, 1048.4, 1144.8, 1228.3, 1296.1, 1345.7, 1375.7, 1385.3, 1374.5], "panels": [46165, 51535, 56588, 61088, 64866, 67791, 69771, 70749, 70710, 69673], "poas": ["2484", "2485", "2486", "2487", "2488", "2489", "2490", "4213", "4218", "4220", "4221", "4223", "4224", "4225", "4226", "4227", "4228"]}}, {"type": "Feature", "geometry": {"type": "Point", "coordinates": [131.0151, -12.49683]}, "properties": {"rank": 5, "id": "WASTNT87", "name": "Howard Springs Transfer Station", "owner": "Litchfield Council", "type": "TRANSFER STATION", "state": "NT", "suburb": "Howard Springs", "in_capital": true, "tonnes": [262.7, 304.4, 344.1, 380.1, 411.0, 435.5, 453.1, 463.0, 465.3, 459.9], "panels": [14061, 16173, 18162, 19940, 21438, 22604, 23399, 23803, 23812, 23438], "poas": ["0800", "0810", "0812", "0820", "0828", "0829", "0830", "0832", "0834", "0835", "0836", "0838", "0839"]}}, {"type": "Feature", "geometry": {"type": "Point", "coordinates": [133.87852, -23.69809]}, "properties": {"rank": 6, "id": "WASTNT13", "name": "Igear", "owner": "Igear", "type": "E-WASTE DROP-OFF FACILITY", "state": "NT", "suburb": "Alice Springs", "in_capital": false, "tonnes": [58.8, 65.0, 70.6, 75.2, 78.7, 81.0, 82.1, 81.9, 80.5, 78.0], "panels": [3246, 3560, 3834, 4055, 4216, 4312, 4342, 4307, 4209, 4054], "poas": ["0870", "0873", "0874", "0875"]}}, {"type": "Feature", "geometry": {"type": "Point", "coordinates": [153.02631, -27.54612]}, "properties": {"rank": 7, "id": "WASTQLD1159", "name": "Kartaway Salisbury", "owner": "Kartaway Mini Skips", "type": "TRANSFER STATION", "state": "QLD", "suburb": "Salisbury", "in_capital": true, "tonnes": [4397.7, 4982.0, 5549.3, 6071.6, 6528.6, 6903.8, 7184.6, 7362.2, 7431.8, 7392.9], "panels": [243865, 272402, 299450, 323718, 344281, 360427, 371642, 377605, 378196, 373486], "poas": ["4000", "4005", "4006", "4007", "4008", "4009", "4010", "4011", "4012", "4013", "4014", "4018", "4030", "4031", "4032", "4034", "4035", "4037", "4051", "4053", "4054", "4055", "4059", "4060", "4061", "4064", "4065", "4066", "4067", "4068", "4069", "4070", "4073", "4074", "4075", "4076", "4077", "4078", "4101", "4102", "4103", "4104", "4105", "4106", "4107", "4108", "4109", "4110", "4111", "4112", "4113", "4114", "4115", "4116", "4117", "4118", "4119", "4120", "4121", "4122", "4123", "4124", "4125", "4127", "4128", "4129", "4130", "4131", "4132", "4133", "4151", "4152", "4153", "4154", "4155", "4156", "4157", "4158", "4159", "4160", "4161", "4163", "4164", "4165", "4169", "4170", "4171", "4172", "4173", "4174", "4178", "4179", "4205", "4300", "4301", "4303", "4304", "4305", "4306"]}}, {"type": "Feature", "geometry": {"type": "Point", "coordinates": [153.03705, -27.03107]}, "properties": {"rank": 8, "id": "WASTQLD1297", "name": "Toorbul Transfer Station", "owner": "Moreton Bay Regional Council", "type": "TRANSFER STATION", "state": "QLD", "suburb": "Toorbul", "in_capital": true, "tonnes": [428.7, 485.5, 540.5, 591.0, 635.1, 671.0, 697.7, 714.3, 720.3, 715.8], "panels": [23799, 26574, 29195, 31541, 33521, 35068, 36132, 36682, 36707, 36215], "poas": ["4507", "4511", "4516", "4517", "4518", "4519", "4550", "4551"]}}, {"type": "Feature", "geometry": {"type": "Point", "coordinates": [138.66036, -34.93922]}, "properties": {"rank": 9, "id": "WASTSA83", "name": "Burnside Council Depot", "owner": "Burnside City Council", "type": "E-WASTE DROP-OFF FACILITY", "state": "SA", "suburb": "Burnside", "in_capital": true, "tonnes": [2951.5, 3316.1, 3664.5, 3980.3, 4251.2, 4467.6, 4622.5, 4711.3, 4731.7, 4684.3], "panels": [164515, 182353, 198968, 213594, 225685, 234833, 240756, 243298, 242428, 238238], "poas": ["5000", "5006", "5007", "5008", "5009", "5010", "5011", "5012", "5013", "5014", "5015", "5016", "5017", "5018", "5019", "5020", "5021", "5022", "5023", "5024", "5025", "5031", "5032", "5033", "5034", "5035", "5037", "5038", "5039", "5040", "5041", "5042", "5043", "5044", "5045", "5046", "5047", "5048", "5049", "5050", "5051", "5052", "5061", "5062", "5063", "5064", "5065", "5066", "5067", "5068", "5069", "5070", "5072", "5073", "5074", "5075", "5076", "5081", "5082", "5083", "5084", "5085", "5086", "5087", "5088", "5089", "5090", "5091", "5092", "5093", "5094", "5095", "5096", "5097", "5098", "5106", "5107", "5108", "5109", "5110", "5126", "5127", "5131", "5132", "5133", "5134", "5136", "5137", "5138", "5139", "5140", "5141", "5142", "5144", "5150", "5151", "5152", "5154", "5155", "5156", "5158", "5159", "5160", "5161", "5166", "5232", "5240", "5241", "5242", "5243", "5244", "5950"]}}, {"type": "Feature", "geometry": {"type": "Point", "coordinates": [138.79969, -34.62177]}, "properties": {"rank": 10, "id": "WASTSA287", "name": "Rocla Limited Waste Facility", "owner": "Rocla Limited", "type": "LANDFILL \u2013 PUTRESCIBLE", "state": "SA", "suburb": "Kalbeeba", "in_capital": true, "tonnes": [604.1, 684.9, 763.8, 836.7, 900.9, 954.0, 994.2, 1020.2, 1031.3, 1027.3], "panels": [33552, 37495, 41248, 44632, 47517, 49804, 51416, 52308, 52458, 51872], "poas": ["5111", "5112", "5113", "5114", "5115", "5116", "5117", "5118", "5120", "5121", "5125", "5231", "5233", "5234", "5235", "5350", "5351", "5352", "5355", "5360", "5371", "5372", "5400"]}}, {"type": "Feature", "geometry": {"type": "Point", "coordinates": [147.40085, -42.86079]}, "properties": {"rank": 11, "id": NaN, "name": "Mornington Park Waste Transfer Station", "owner": "Clarence City Council", "type": "TRANSFER STATION", "state": "TAS", "suburb": "Mornington", "in_capital": true, "tonnes": [244.5, 277.4, 310.4, 341.6, 369.8, 393.9, 413.2, 427.0, 434.9, 436.6], "panels": [13571, 15160, 16709, 18136, 19386, 20415, 21190, 21686, 21890, 21799], "poas": ["7000", "7004", "7005", "7007", "7008", "7009", "7010", "7011", "7012", "7015", "7016", "7017", "7018", "7019", "7020", "7021", "7022", "7023", "7024", "7025", "7026", "7050", "7052", "7053", "7054", "7055", "7170", "7171", "7172", "7173", "7186"]}}, {"type": "Feature", "geometry": {"type": "Point", "coordinates": [146.94885, -41.30208]}, "properties": {"rank": 12, "id": "WASTTAS47", "name": "Exeter Transfer Station", "owner": "West Tamar Council", "type": "TRANSFER STATION; E-WASTE DROP-OFF FACILITY", "state": "TAS", "suburb": "Exeter", "in_capital": false, "tonnes": [157.7, 177.9, 197.5, 215.3, 230.9, 243.6, 252.9, 258.7, 260.8, 259.2], "panels": [8734, 9725, 10658, 11489, 12187, 12727, 13095, 13279, 13278, 13095], "poas": ["7248", "7249", "7250", "7252", "7253", "7267", "7268", "7270", "7275", "7276", "7277", "7290", "7291", "7292", "7303"]}}, {"type": "Feature", "geometry": {"type": "Point", "coordinates": [145.01093, -37.81999]}, "properties": {"rank": 13, "id": "WASTVIC988", "name": "Officeworks", "owner": "Officeworks", "type": "E-WASTE DROP-OFF FACILITY", "state": "VIC", "suburb": "Richmond", "in_capital": true, "tonnes": [2584.5, 3010.3, 3433.8, 3834.6, 4196.7, 4506.5, 4753.2, 4928.4, 5026.9, 5046.3], "panels": [140523, 161335, 181686, 200614, 217375, 231356, 242076, 249186, 252488, 251932], "poas": ["3000", "3002", "3003", "3004", "3006", "3008", "3011", "3012", "3013", "3015", "3016", "3018", "3019", "3020", "3022", "3025", "3026", "3028", "3031", "3032", "3033", "3034", "3039", "3040", "3041", "3042", "3043", "3044", "3046", "3047", "3048", "3049", "3051", "3052", "3053", "3054", "3055", "3056", "3057", "3058", "3059", "3060", "3061", "3062", "3064", "3065", "3066", "3067", "3068", "3070", "3071", "3072", "3073", "3074", "3075", "3076", "3078", "3079", "3081", "3082", "3083", "3084", "3085", "3087", "3088", "3089", "3090", "3091", "3093", "3094", "3095", "3101", "3102", "3103", "3104", "3105", "3106", "3107", "3108", "3109", "3111", "3121", "3122", "3123", "3124", "3125", "3126", "3127", "3128", "3129", "3130", "3131", "3132", "3133", "3141", "3142", "3143", "3144", "3145", "3146", "3147", "3148", "3149", "3150", "3151", "3152", "3161", "3162", "3163", "3165", "3166", "3167", "3168", "3169", "3170", "3171", "3178", "3179", "3181", "3182", "3183", "3184", "3185", "3186", "3187", "3188", "3189", "3190", "3191", "3192", "3193", "3194", "3202", "3204", "3205", "3206", "3207", "3750", "3752", "3754"]}}, {"type": "Feature", "geometry": {"type": "Point", "coordinates": [145.1987, -38.14064]}, "properties": {"rank": 14, "id": "WASTVIC669", "name": "Glen Landfill Pty Ltd", "owner": "Glen Landfill Pty Ltd", "type": "LANDFILL \u2013 PUTRESCIBLE", "state": "VIC", "suburb": "Langwarrin", "in_capital": true, "tonnes": [1321.2, 1534.9, 1745.5, 1942.9, 2119.4, 2268.5, 2384.9, 2464.8, 2505.9, 2507.5], "panels": [71782, 82297, 92483, 101871, 110093, 116852, 121918, 125133, 126413, 125753], "poas": ["3172", "3173", "3174", "3175", "3177", "3195", "3196", "3197", "3198", "3199", "3200", "3201", "3802", "3803", "3804", "3805", "3806", "3807", "3808", "3809", "3810", "3910", "3911", "3912", "3913", "3921", "3930", "3933", "3975", "3976", "3977", "3978", "3980"]}}, {"type": "Feature", "geometry": {"type": "Point", "coordinates": [115.93502, -32.0198]}, "properties": {"rank": 15, "id": "WASTWA224", "name": "Harvey Norman", "owner": "Harvey Norman", "type": "E-WASTE DROP-OFF FACILITY", "state": "WA", "suburb": "Cannington", "in_capital": true, "tonnes": [2813.2, 3204.8, 3583.2, 3929.9, 4231.2, 4476.4, 4657.1, 4767.8, 4806.0, 4771.6], "panels": [154411, 173740, 192036, 208436, 222306, 233160, 240649, 244564, 244836, 241537], "poas": ["6000", "6003", "6004", "6005", "6006", "6007", "6008", "6009", "6010", "6011", "6012", "6014", "6015", "6016", "6017", "6018", "6019", "6021", "6050", "6051", "6052", "6053", "6054", "6055", "6056", "6057", "6058", "6059", "6060", "6061", "6062", "6063", "6070", "6071", "6072", "6073", "6076", "6081", "6090", "6100", "6101", "6102", "6103", "6104", "6105", "6106", "6107", "6108", "6109", "6110", "6111", "6112", "6121", "6122", "6123", "6147", "6148", "6149", "6150", "6151", "6152", "6153", "6154", "6155", "6156", "6157", "6158", "6159", "6160", "6162", "6163", "6164", "6165", "6166", "6167"]}}, {"type": "Feature", "geometry": {"type": "Point", "coordinates": [115.76058, -32.50438]}, "properties": {"rank": 16, "id": "WASTWA915", "name": "Gordon Road Transfer Station", "owner": "Cleanaway", "type": "TRANSFER STATION; LANDFILL \u2013 PUTRESCIBLE", "state": "WA", "suburb": "Parklands", "in_capital": true, "tonnes": [724.7, 817.9, 906.9, 987.4, 1056.3, 1111.0, 1150.0, 1171.9, 1176.3, 1163.6], "panels": [40025, 44620, 48908, 52687, 55816, 58187, 59728, 60398, 60192, 59137], "poas": ["6125", "6126", "6168", "6169", "6170", "6171", "6172", "6173", "6174", "6175", "6176", "6180", "6181", "6182", "6207", "6208", "6209", "6210", "6211", "6214"]}}, {"type": "Feature", "geometry": {"type": "Point", "coordinates": [151.55094, -33.02332]}, "properties": {"rank": 17, "id": "WASTNSW69", "name": "Awaba Waste Management Facility", "owner": "Lake Macquarie City Council/Civilake", "type": "TRANSFER STATION; LANDFILL \u2013 PUTRESCIBLE; E-WASTE DROP-OFF FACILITY", "state": "NSW", "suburb": "Awaba", "in_capital": false, "tonnes": [718.8, 844.2, 970.1, 1090.5, 1200.5, 1295.9, 1373.3, 1430.0, 1464.1, 1474.9], "panels": [39043, 45146, 51182, 56863, 61962, 66290, 69691, 72053, 73302, 73411], "poas": ["2259", "2262", "2263", "2264", "2265", "2267", "2278", "2280", "2281", "2282", "2283", "2284", "2285", "2286", "2287", "2289", "2290", "2291", "2292", "2299", "2303", "2305", "2306"]}}, {"type": "Feature", "geometry": {"type": "Point", "coordinates": [152.94155, -26.54831]}, "properties": {"rank": 18, "id": "WASTQLD1435", "name": "Yandina Transfer Station", "owner": "Sunshine Coast Regoinal Council", "type": "TRANSFER STATION", "state": "QLD", "suburb": "Bridges", "in_capital": false, "tonnes": [970.4, 1098.7, 1222.8, 1336.7, 1435.9, 1516.8, 1576.7, 1613.8, 1627.1, 1616.5], "panels": [53825, 60105, 66037, 71342, 75818, 79309, 81704, 82935, 82978, 81853], "poas": ["4552", "4553", "4554", "4555", "4556", "4557", "4558", "4559", "4560", "4561", "4562", "4563", "4564", "4565", "4566", "4567", "4568", "4569", "4572", "4573", "4574", "4575"]}}, {"type": "Feature", "geometry": {"type": "Point", "coordinates": [153.18086, -27.9087]}, "properties": {"rank": 19, "id": "WASTQLD1264", "name": "Tamborine Mountain Transfer Station", "owner": "Scenic Rim Regional Council", "type": "TRANSFER STATION", "state": "QLD", "suburb": "Tamborine Mountain", "in_capital": false, "tonnes": [1386.3, 1586.3, 1781.2, 1961.8, 2120.9, 2252.8, 2352.8, 2418.0, 2446.3, 2437.7], "panels": [76179, 85988, 95359, 103851, 111139, 116966, 121140, 123537, 124102, 122851], "poas": ["4207", "4208", "4209", "4210", "4211", "4212", "4214", "4215", "4216", "4217", "4270", "4272", "4275", "4280", "4285"]}}, {"type": "Feature", "geometry": {"type": "Point", "coordinates": [150.79828, -34.46363]}, "properties": {"rank": 20, "id": "WASTNSW785", "name": "Whytes Gully Waste Disposal Facility", "owner": "Wollongong City Council", "type": "TRANSFER STATION; LANDFILL \u2013 PUTRESCIBLE; E-WASTE DROP-OFF FACILITY", "state": "NSW", "suburb": "Kembla Grange", "in_capital": false, "tonnes": [429.3, 506.5, 584.1, 658.2, 725.9, 784.6, 832.1, 866.8, 887.7, 894.1], "panels": [23222, 26997, 30733, 34251, 37410, 40094, 42205, 43674, 44455, 44531], "poas": ["2500", "2502", "2505", "2506", "2515", "2516", "2517", "2518", "2519", "2525", "2526", "2527", "2528", "2529", "2530", "2533"]}}, {"type": "Feature", "geometry": {"type": "Point", "coordinates": [144.38607, -38.0517]}, "properties": {"rank": 21, "id": "WASTVIC298", "name": "Suez Corio", "owner": "Suez Australia Pty Ltd", "type": "TRANSFER STATION", "state": "VIC", "suburb": "Corio", "in_capital": false, "tonnes": [426.4, 489.0, 550.3, 607.3, 657.7, 699.8, 732.0, 753.5, 763.4, 761.8], "panels": [23413, 26482, 29423, 32100, 34409, 36270, 37620, 38419, 38649, 38312], "poas": ["3211", "3212", "3213", "3214", "3215", "3216", "3217", "3218", "3219", "3220", "3222", "3223", "3224", "3226", "3227", "3331", "3332"]}}, {"type": "Feature", "geometry": {"type": "Point", "coordinates": [146.6983, -19.2762]}, "properties": {"rank": 22, "id": "WASTQLD1168", "name": "E-Waste Recycling Australia", "owner": "E-Waste Recycling Australia", "type": "E-WASTE DROP-OFF FACILITY", "state": "QLD", "suburb": "Shaw", "in_capital": false, "tonnes": [581.0, 654.9, 726.3, 791.8, 848.8, 895.3, 929.8, 951.1, 958.8, 952.9], "panels": [32347, 35960, 39362, 42391, 44935, 46906, 48244, 48914, 48904, 48227], "poas": ["4810", "4811", "4812", "4814", "4815", "4817", "4818", "4819"]}}, {"type": "Feature", "geometry": {"type": "Point", "coordinates": [151.29178, -33.50396]}, "properties": {"rank": 23, "id": "WASTNSW1723", "name": "Woy Woy Landfill", "owner": "Central Coast Council", "type": "LANDFILL \u2013 PUTRESCIBLE", "state": "NSW", "suburb": "Woy Woy", "in_capital": true, "tonnes": [537.3, 636.3, 737.1, 834.6, 924.9, 1004.6, 1070.6, 1120.7, 1153.1, 1167.0], "panels": [29105, 33901, 38713, 43304, 47486, 51104, 54026, 56150, 57408, 57766], "poas": ["2079", "2080", "2081", "2082", "2083", "2084", "2085", "2097", "2099", "2101", "2102", "2103", "2104", "2105", "2106", "2107", "2108", "2157", "2159", "2250", "2251", "2256", "2257", "2258", "2260", "2261"]}}, {"type": "Feature", "geometry": {"type": "Point", "coordinates": [115.7989, -31.68263]}, "properties": {"rank": 24, "id": "WASTWA820", "name": "Alkina Holdings", "owner": "Alkina Holdings Pty Ltd", "type": "TRANSFER STATION", "state": "WA", "suburb": "Neerabup", "in_capital": true, "tonnes": [1178.5, 1336.2, 1487.1, 1623.9, 1741.3, 1835.1, 1902.3, 1940.9, 1950.0, 1930.0], "panels": [64829, 72632, 79939, 86412, 91805, 95931, 98662, 99926, 99711, 98057], "poas": ["6020", "6022", "6023", "6024", "6025", "6026", "6027", "6028", "6029", "6030", "6031", "6032", "6033", "6034", "6035", "6036", "6037", "6038", "6064", "6065", "6066", "6067", "6068", "6069", "6077", "6078", "6079", "6084", "6501"]}}, {"type": "Feature", "geometry": {"type": "Point", "coordinates": [145.58408, -16.86977]}, "properties": {"rank": 25, "id": "WASTQLD726", "name": "Kuranda Transfer Station", "owner": "Mareeba Shire Council", "type": "TRANSFER STATION", "state": "QLD", "suburb": "Koah", "in_capital": false, "tonnes": [461.5, 535.4, 609.1, 678.8, 741.8, 795.8, 838.8, 869.4, 886.8, 890.4], "panels": [25205, 28828, 32372, 35664, 38575, 40999, 42853, 44079, 44643, 44537], "poas": ["4868", "4869", "4870", "4878", "4879", "4880", "4881"]}}, {"type": "Feature", "geometry": {"type": "Point", "coordinates": [150.6603, -33.80743]}, "properties": {"rank": 26, "id": "WASTNSW1040", "name": "Penrith Waste Services Pty Ltd", "owner": "Penrith Waste Services Pty Ltd", "type": "LANDFILL \u2013 PUTRESCIBLE", "state": "NSW", "suburb": "Mulgoa", "in_capital": true, "tonnes": [898.7, 1084.4, 1275.0, 1461.0, 1634.8, 1789.7, 1920.0, 2021.0, 2089.3, 2122.9], "panels": [48029, 57052, 66193, 75008, 83141, 90281, 96167, 100592, 103411, 104545], "poas": ["2178", "2555", "2556", "2557", "2567", "2745", "2747", "2748", "2749", "2750", "2752", "2753", "2754", "2757", "2759", "2760", "2761", "2765", "2770", "2773", "2774", "2776", "2777", "2778", "2779", "2782", "2783", "2784"]}}, {"type": "Feature", "geometry": {"type": "Point", "coordinates": [144.60331, -37.70008]}, "properties": {"rank": 27, "id": "WASTVIC746", "name": "Melton Recycling Centre", "owner": "Melton Shire Council", "type": "TRANSFER STATION", "state": "VIC", "suburb": "Cobblebank", "in_capital": true, "tonnes": [1074.7, 1262.5, 1451.3, 1631.8, 1796.8, 1940.0, 2056.4, 2141.9, 2193.8, 2210.8], "panels": [58273, 67439, 76505, 85036, 92693, 99194, 104309, 107868, 109766, 109963], "poas": ["3021", "3023", "3024", "3027", "3029", "3030", "3036", "3037", "3038", "3045", "3063", "3335", "3336", "3337", "3338", "3340", "3341", "3427", "3428", "3429", "3430", "3431", "3437", "3438"]}}, {"type": "Feature", "geometry": {"type": "Point", "coordinates": [151.92681, -27.76413]}, "properties": {"rank": 28, "id": "WASTQLD558", "name": "Greenmount Waste Management Facility", "owner": "Toowoomba Regional Council", "type": "TRANSFER STATION; LANDFILL \u2013 PUTRESCIBLE", "state": "QLD", "suburb": "East Greenmount", "in_capital": false, "tonnes": [361.8, 411.2, 459.4, 504.0, 543.3, 575.9, 600.5, 616.6, 623.6, 621.4], "panels": [20076, 22495, 24799, 26878, 28655, 30066, 31066, 31625, 31733, 31391], "poas": ["4350", "4352", "4358", "4359", "4360", "4361", "4363"]}}, {"type": "Feature", "geometry": {"type": "Point", "coordinates": [152.61997, -25.53289]}, "properties": {"rank": 29, "id": "WASTQLD1455", "name": "Yengarie Transfer Station", "owner": "Fraser Coast Regional Council", "type": "TRANSFER STATION", "state": "QLD", "suburb": "Oakhurst", "in_capital": false, "tonnes": [359.8, 408.1, 455.6, 499.7, 538.9, 571.6, 596.7, 613.5, 621.4, 620.2], "panels": [20021, 22373, 24625, 26668, 28422, 29825, 30834, 31416, 31558, 31261], "poas": ["4650", "4655", "4659", "4662"]}}, {"type": "Feature", "geometry": {"type": "Point", "coordinates": [153.26188, -28.82292]}, "properties": {"rank": 30, "id": "WASTNSW877", "name": "Cleanaway Lismore", "owner": "Cleanaway", "type": "TRANSFER STATION", "state": "NSW", "suburb": "South Lismore", "in_capital": false, "tonnes": [333.7, 378.9, 422.4, 462.0, 496.3, 524.1, 544.3, 556.3, 560.0, 555.2], "panels": [18457, 20679, 22771, 24636, 26204, 27419, 28243, 28651, 28635, 28206], "poas": ["2470", "2471", "2477", "2478", "2480"]}}, {"type": "Feature", "geometry": {"type": "Point", "coordinates": [148.96509, -21.35801]}, "properties": {"rank": 31, "id": "WASTQLD468", "name": "Hogans Pocket Landfill", "owner": "Mackay Regional Council", "type": "LANDFILL \u2013 PUTRESCIBLE", "state": "QLD", "suburb": "Eton", "in_capital": false, "tonnes": [292.4, 337.4, 382.0, 424.1, 462.0, 494.3, 519.8, 537.8, 547.7, 549.2], "panels": [16047, 18248, 20388, 22365, 24101, 25535, 26618, 27317, 27613, 27504], "poas": ["4737", "4740", "4751", "4753", "4754"]}}, {"type": "Feature", "geometry": {"type": "Point", "coordinates": [152.20627, -24.98703]}, "properties": {"rank": 32, "id": "WASTQLD1180", "name": "Bundaberg Regional Landfill", "owner": "Bundaberg Regional Council", "type": "LANDFILL \u2013 PUTRESCIBLE", "state": "QLD", "suburb": "South Bingera", "in_capital": false, "tonnes": [305.5, 343.7, 380.5, 414.0, 443.1, 466.6, 483.9, 494.3, 497.6, 493.8], "panels": [17069, 18932, 20678, 22225, 23516, 24506, 25165, 25477, 25435, 25047], "poas": ["4660", "4670"]}}, {"type": "Feature", "geometry": {"type": "Point", "coordinates": [151.74589, -32.73106]}, "properties": {"rank": 33, "id": "WASTNSW1244", "name": "Suez Raymond Terrace Landfill", "owner": "Suez Australia Pty Ltd", "type": "LANDFILL \u2013 PUTRESCIBLE", "state": "NSW", "suburb": "Raymond Terrace", "in_capital": false, "tonnes": [315.2, 371.9, 429.0, 483.5, 533.4, 576.7, 611.9, 637.8, 653.4, 658.5], "panels": [17024, 19795, 22542, 25131, 27460, 29441, 31005, 32098, 32687, 32760], "poas": ["2293", "2294", "2295", "2296", "2297", "2298", "2300", "2302", "2304", "2307", "2308", "2316", "2318", "2319", "2321", "2322", "2324", "2421"]}}, {"type": "Feature", "geometry": {"type": "Point", "coordinates": [146.90611, -36.11802]}, "properties": {"rank": 34, "id": "WASTVIC1272", "name": "Wodonga Transfer Station", "owner": "Wodonga Council", "type": "TRANSFER STATION; E-WASTE DROP-OFF FACILITY", "state": "VIC", "suburb": "Wodonga", "in_capital": false, "tonnes": [265.6, 307.3, 348.4, 387.0, 421.6, 450.8, 473.7, 489.4, 497.6, 498.1], "panels": [14496, 16537, 18516, 20340, 21936, 23248, 24232, 24855, 25101, 24970], "poas": ["2640", "2641", "3683", "3688", "3690", "3691", "3695", "3749"]}}, {"type": "Feature", "geometry": {"type": "Point", "coordinates": [150.50289, -34.72519]}, "properties": {"rank": 35, "id": "WASTNSW769", "name": "Kangaroo Valley Transfer Station", "owner": "Shoalhaven City Council", "type": "TRANSFER STATION", "state": "NSW", "suburb": "Kangaroo Valley", "in_capital": false, "tonnes": [276.6, 324.8, 373.0, 418.8, 460.5, 496.4, 525.3, 546.1, 558.2, 561.3], "panels": [14984, 17339, 19657, 21829, 23768, 25403, 26676, 27544, 27982, 27981], "poas": ["2534", "2535", "2540", "2541", "2576", "2577", "2578"]}}, {"type": "Feature", "geometry": {"type": "Point", "coordinates": [144.24664, -36.72781]}, "properties": {"rank": 36, "id": "WASTVIC432", "name": "Eaglehawk Transfer Station", "owner": "Greater Bendigo City Council", "type": "TRANSFER STATION; LANDFILL \u2013 PUTRESCIBLE", "state": "VIC", "suburb": "Eaglehawk", "in_capital": false, "tonnes": [246.2, 279.8, 312.0, 341.4, 366.9, 387.5, 402.5, 411.5, 414.3, 410.9], "panels": [13578, 15231, 16785, 18168, 19331, 20231, 20842, 21146, 21138, 20826], "poas": ["3453", "3515", "3516", "3550", "3551", "3555", "3556", "3557", "3570"]}}, {"type": "Feature", "geometry": {"type": "Point", "coordinates": [138.76119, -35.18183]}, "properties": {"rank": 37, "id": "WASTSA406", "name": "Meadows Waste Depot", "owner": "Mount Barker District Council", "type": "TRANSFER STATION", "state": "SA", "suburb": "Meadows", "in_capital": true, "tonnes": [600.8, 672.4, 740.7, 802.5, 855.5, 897.8, 927.9, 945.0, 948.7, 939.0], "panels": [33635, 37118, 40353, 43189, 45523, 47275, 48392, 48845, 48628, 47761], "poas": ["5153", "5157", "5162", "5163", "5164", "5165", "5167", "5168", "5169", "5170", "5171", "5172", "5173", "5201", "5245", "5250", "5251", "5252", "5255"]}}, {"type": "Feature", "geometry": {"type": "Point", "coordinates": [143.88606, -37.41473]}, "properties": {"rank": 38, "id": "WASTVIC325", "name": "Creswick Transfer Station", "owner": "Hepburn Shire Council", "type": "TRANSFER STATION", "state": "VIC", "suburb": "Creswick", "in_capital": false, "tonnes": [214.3, 248.2, 281.5, 312.7, 340.5, 363.9, 382.1, 394.5, 400.7, 400.7], "panels": [11693, 13357, 14962, 16436, 17723, 18775, 19558, 20047, 20229, 20105], "poas": ["3345", "3350", "3352", "3355", "3356", "3357", "3358", "3363", "3364", "3370", "3460"]}}, {"type": "Feature", "geometry": {"type": "Point", "coordinates": [150.70424, -23.15472]}, "properties": {"rank": 39, "id": "WASTQLD80", "name": "Yeppoon Landfill", "owner": "Livingstone Shire Council", "type": "TRANSFER STATION; LANDFILL \u2013 PUTRESCIBLE", "state": "QLD", "suburb": "Barmaryee", "in_capital": false, "tonnes": [232.4, 264.1, 294.9, 323.3, 348.1, 368.6, 384.0, 393.8, 397.8, 395.9], "panels": [12891, 14442, 15911, 17232, 18355, 19241, 19861, 20197, 20243, 20001], "poas": ["4700", "4701", "4703", "4710", "4711"]}}, {"type": "Feature", "geometry": {"type": "Point", "coordinates": [115.7895, -33.42634]}, "properties": {"rank": 40, "id": "WASTWA310", "name": "Dardanup Waste Transfer Station", "owner": "Dardanup Shire Council", "type": "TRANSFER STATION", "state": "WA", "suburb": "Crooked Brook", "in_capital": false, "tonnes": [222.7, 252.0, 280.0, 305.4, 327.3, 344.8, 357.4, 364.7, 366.5, 362.9], "panels": [12303, 13740, 15085, 16276, 17267, 18026, 18528, 18760, 18718, 18411], "poas": ["6223", "6224", "6226", "6227", "6228", "6229", "6230", "6232", "6233", "6236", "6237", "6239", "6240", "6271"]}}, {"type": "Feature", "geometry": {"type": "Point", "coordinates": [145.38834, -36.34767]}, "properties": {"rank": 41, "id": "WASTVIC1042", "name": "Shepparton Resource Recovery Centre", "owner": "Greater Shepparton City Council", "type": "TRANSFER STATION", "state": "VIC", "suburb": "Shepparton", "in_capital": false, "tonnes": [195.0, 221.8, 247.4, 270.6, 290.4, 306.3, 317.6, 324.1, 325.5, 322.1], "panels": [10700, 12029, 13272, 14372, 15290, 15993, 16459, 16677, 16643, 16365], "poas": ["3614", "3616", "3617", "3618", "3620", "3629", "3630", "3631", "3633", "3634", "3635", "3647"]}}, {"type": "Feature", "geometry": {"type": "Point", "coordinates": [145.86402, -38.22054]}, "properties": {"rank": 42, "id": "WASTVIC673", "name": "Lardner Transfer Station", "owner": "Baw Baw Shire Council", "type": "TRANSFER STATION", "state": "VIC", "suburb": "Lardner", "in_capital": false, "tonnes": [159.1, 182.2, 204.7, 225.5, 243.8, 258.9, 270.3, 277.7, 280.9, 279.8], "panels": [8730, 9865, 10947, 11926, 12765, 13435, 13914, 14186, 14248, 14100], "poas": ["3813", "3814", "3815", "3816", "3818", "3820", "3821", "3822", "3823", "3831", "3945", "3981", "3984", "3987", "3988"]}}, {"type": "Feature", "geometry": {"type": "Point", "coordinates": [152.72457, -31.6191]}, "properties": {"rank": 43, "id": "WASTNSW803", "name": "Kew Transfer Station", "owner": "Port Macquarie Hastings Council", "type": "TRANSFER STATION", "state": "NSW", "suburb": "Kew", "in_capital": false, "tonnes": [187.9, 215.9, 243.4, 269.1, 291.9, 311.0, 325.8, 335.7, 340.5, 340.0], "panels": [10346, 11715, 13033, 14238, 15283, 16132, 16755, 17131, 17253, 17118], "poas": ["2427", "2439", "2443", "2444", "2445"]}}, {"type": "Feature", "geometry": {"type": "Point", "coordinates": [153.07985, -30.3224]}, "properties": {"rank": 44, "id": "WASTNSW372", "name": "Coffs Coast Resource Recovery Facility", "owner": "Coffs Harbour City Council", "type": "TRANSFER STATION; LANDFILL \u2013 PUTRESCIBLE", "state": "NSW", "suburb": "North Boambee Valley", "in_capital": false, "tonnes": [185.2, 214.0, 242.2, 268.4, 291.7, 311.1, 326.0, 335.9, 340.6, 339.9], "panels": [10112, 11528, 12889, 14133, 15213, 16090, 16733, 17122, 17248, 17111], "poas": ["2450", "2452", "2455", "2456"]}}, {"type": "Feature", "geometry": {"type": "Point", "coordinates": [152.36315, -27.62807]}, "properties": {"rank": 45, "id": "WASTQLD744", "name": "Laidley Transfer Station", "owner": "Lockyer Valley Regional Council", "type": "TRANSFER STATION", "state": "QLD", "suburb": "Laidley Heights", "in_capital": true, "tonnes": [207.1, 234.8, 261.8, 286.6, 308.5, 326.5, 340.2, 348.9, 352.6, 351.1], "panels": [11503, 12854, 14137, 15291, 16272, 17048, 17592, 17889, 17933, 17726], "poas": ["4311", "4340", "4341", "4342", "4343", "4344", "4346", "4347"]}}, {"type": "Feature", "geometry": {"type": "Point", "coordinates": [152.43592, -26.19801]}, "properties": {"rank": 46, "id": "WASTQLD1387", "name": "Widgee Transfer Station", "owner": "Gympie Regional Council", "type": "TRANSFER STATION", "state": "QLD", "suburb": "Widgee", "in_capital": false, "tonnes": [174.8, 198.4, 221.3, 242.4, 261.0, 276.3, 287.9, 295.3, 298.4, 297.1], "panels": [9710, 10859, 11950, 12932, 13768, 14429, 14893, 15147, 15185, 15009], "poas": ["4570", "4600"]}}, {"type": "Feature", "geometry": {"type": "Point", "coordinates": [145.39501, -37.73826]}, "properties": {"rank": 47, "id": "WASTVIC288", "name": "Coldstream Recovery And Waste Transfer Station", "owner": "Yarra Ranges Shire Council", "type": "TRANSFER STATION", "state": "VIC", "suburb": "Lilydale", "in_capital": true, "tonnes": [563.2, 645.2, 725.3, 799.6, 865.3, 919.8, 961.4, 988.7, 1001.0, 998.1], "panels": [30925, 34945, 38790, 42281, 45285, 47696, 49433, 50446, 50710, 50230], "poas": ["3096", "3097", "3099", "3113", "3114", "3115", "3116", "3134", "3135", "3136", "3137", "3138", "3139", "3140", "3153", "3154", "3155", "3156", "3158", "3159", "3160", "3180", "3759", "3760", "3761", "3763", "3765", "3766", "3767", "3770", "3775", "3777", "3778", "3781", "3782", "3785", "3786", "3787", "3788", "3789", "3791", "3792", "3793", "3795", "3796", "3797"]}}, {"type": "Feature", "geometry": {"type": "Point", "coordinates": [151.35578, -24.02228]}, "properties": {"rank": 48, "id": "WASTQLD97", "name": "Benaraby Landfill", "owner": "Gladstone Regional Council", "type": "TRANSFER STATION; LANDFILL \u2013 PUTRESCIBLE", "state": "QLD", "suburb": "Benaraby", "in_capital": false, "tonnes": [160.9, 181.4, 201.4, 219.8, 236.1, 249.5, 259.7, 266.3, 269.1, 268.1], "panels": [9029, 10025, 10968, 11815, 12532, 13096, 13488, 13698, 13721, 13559], "poas": ["4678", "4680"]}}, {"type": "Feature", "geometry": {"type": "Point", "coordinates": [138.64799, -35.52291]}, "properties": {"rank": 49, "id": "WASTSA275", "name": "Mr Nottle And Ne Deluca-Cardillo", "owner": "Mr Nottle And Ne Deluca-Cardillo", "type": "TRANSFER STATION", "state": "SA", "suburb": "Hindmarsh Valley", "in_capital": false, "tonnes": [173.3, 191.7, 209.0, 224.4, 237.2, 247.1, 253.7, 256.9, 256.5, 252.7], "panels": [9776, 10669, 11481, 12176, 12726, 13115, 13332, 13371, 13235, 12930], "poas": ["5174", "5202", "5203", "5210", "5211", "5212", "5213", "5214"]}}, {"type": "Feature", "geometry": {"type": "Point", "coordinates": [148.84485, -32.38884]}, "properties": {"rank": 50, "id": "WASTNSW588", "name": "Geurie Transfer Station", "owner": "Dubbo Regional Council", "type": "TRANSFER STATION", "state": "NSW", "suburb": "Geurie", "in_capital": false, "tonnes": [151.6, 172.7, 193.1, 211.8, 228.2, 241.5, 251.4, 257.6, 259.8, 258.2], "panels": [8361, 9397, 10376, 11256, 12002, 12589, 12997, 13214, 13236, 13065], "poas": ["2818", "2820", "2830"]}}, {"type": "Feature", "geometry": {"type": "Point", "coordinates": [152.49355, -32.12861]}, "properties": {"rank": 51, "id": "WASTNSW1543", "name": "Tuncurry Waste Management Centre", "owner": "Mid-Coast Council", "type": "LANDFILL \u2013 PUTRESCIBLE", "state": "NSW", "suburb": "Darawank", "in_capital": false, "tonnes": [149.3, 171.2, 192.6, 212.5, 230.2, 244.8, 256.1, 263.5, 267.0, 266.3], "panels": [8215, 9283, 10308, 11240, 12045, 12694, 13165, 13443, 13521, 13400], "poas": ["2312", "2428", "2430"]}}, {"type": "Feature", "geometry": {"type": "Point", "coordinates": [115.08929, -33.86565]}, "properties": {"rank": 52, "id": "WASTWA289", "name": "Cowaramup Transfer Station", "owner": "Augusta Margaret River Shire Council", "type": "TRANSFER STATION", "state": "WA", "suburb": "Cowaramup", "in_capital": false, "tonnes": [143.0, 164.8, 186.2, 206.3, 224.1, 239.1, 250.8, 258.6, 262.5, 262.4], "panels": [7826, 8895, 9928, 10876, 11701, 12374, 12871, 13177, 13284, 13193], "poas": ["6280", "6281", "6282", "6284", "6285", "6286"]}}, {"type": "Feature", "geometry": {"type": "Point", "coordinates": [147.26058, -35.1897]}, "properties": {"rank": 53, "id": "WASTNSW1579", "name": "Uranquinty Rural Transfer Station", "owner": "Wagga Wagga City Council", "type": "TRANSFER STATION", "state": "NSW", "suburb": "Uranquinty", "in_capital": false, "tonnes": [129.7, 149.9, 169.7, 188.2, 204.7, 218.7, 229.5, 236.9, 240.6, 240.6], "panels": [7082, 8067, 9019, 9893, 10655, 11279, 11743, 12033, 12140, 12065], "poas": ["2650", "2651", "2655", "2661", "2678"]}}, {"type": "Feature", "geometry": {"type": "Point", "coordinates": [145.16298, -37.27395]}, "properties": {"rank": 54, "id": "WASTVIC641", "name": "Kinglake Resource Recovery Centre", "owner": "Murrindindi Shire Council", "type": "TRANSFER STATION", "state": "VIC", "suburb": "Reedy Creek", "in_capital": false, "tonnes": [130.0, 149.5, 168.6, 186.6, 202.6, 216.1, 226.6, 233.7, 237.4, 237.4], "panels": [7135, 8088, 9008, 9851, 10585, 11182, 11625, 11898, 11995, 11915], "poas": ["3658", "3659", "3660", "3717", "3753", "3756", "3757", "3758", "3762", "3764"]}}, {"type": "Feature", "geometry": {"type": "Point", "coordinates": [144.9782, -38.3438]}, "properties": {"rank": 55, "id": "WASTVIC412", "name": "Dromana Hopper", "owner": "Mornington Peninsula Shire Council", "type": "TRANSFER STATION", "state": "VIC", "suburb": "Dromana", "in_capital": true, "tonnes": [274.0, 315.8, 356.6, 394.7, 428.4, 456.5, 478.2, 492.6, 499.3, 498.4], "panels": [14968, 17018, 18986, 20783, 22339, 23599, 24521, 25076, 25251, 25047], "poas": ["3915", "3916", "3918", "3919", "3920", "3922", "3926", "3927", "3928", "3929", "3931", "3934", "3936", "3937", "3938", "3939", "3940", "3941", "3942", "3943", "3944"]}}, {"type": "Feature", "geometry": {"type": "Point", "coordinates": [150.92679, -31.06325]}, "properties": {"rank": 56, "id": "WASTNSW1442", "name": "Tamworth Landfill", "owner": "Tamworth Regional Council", "type": "TRANSFER STATION; LANDFILL \u2013 PUTRESCIBLE", "state": "NSW", "suburb": "North Tamworth", "in_capital": false, "tonnes": [128.2, 148.0, 167.4, 185.4, 201.3, 214.5, 224.7, 231.4, 234.4, 233.9], "panels": [6983, 7960, 8897, 9752, 10492, 11090, 11526, 11788, 11868, 11769], "poas": ["2340", "2344", "2345", "2352", "2353"]}}, {"type": "Feature", "geometry": {"type": "Point", "coordinates": [140.60506, -34.2572]}, "properties": {"rank": 57, "id": "WASTSA432", "name": "Riverland Resource Recovery Facility", "owner": "Berri Barmera Council", "type": "TRANSFER STATION; LANDFILL \u2013 PUTRESCIBLE", "state": "SA", "suburb": "Monash", "in_capital": false, "tonnes": [143.1, 156.1, 167.7, 177.2, 184.5, 189.2, 191.3, 190.7, 187.6, 182.0], "panels": [8075, 8720, 9271, 9705, 10008, 10172, 10195, 10080, 9835, 9472], "poas": ["5331", "5332", "5333", "5340", "5341", "5342", "5343", "5344", "5345", "5346"]}}, {"type": "Feature", "geometry": {"type": "Point", "coordinates": [148.79979, -33.42864]}, "properties": {"rank": 58, "id": "WASTNSW306", "name": "Cargo Waste Management Facility", "owner": "Cabonne Shire Council", "type": "TRANSFER STATION; LANDFILL \u2013 PUTRESCIBLE", "state": "NSW", "suburb": "Cargo", "in_capital": false, "tonnes": [120.7, 140.4, 159.9, 178.2, 194.6, 208.5, 219.4, 226.9, 230.8, 231.1], "panels": [6533, 7504, 8448, 9319, 10086, 10718, 11194, 11500, 11627, 11575], "poas": ["2800", "2804", "2864"]}}, {"type": "Feature", "geometry": {"type": "Point", "coordinates": [142.07795, -34.09023]}, "properties": {"rank": 59, "id": "WASTNSW399", "name": "Dareton Transfer Station", "owner": "Wentworth Shire Council", "type": "TRANSFER STATION", "state": "NSW", "suburb": "Coomealla", "in_capital": false, "tonnes": [124.2, 142.3, 159.5, 175.0, 188.2, 198.7, 206.1, 210.2, 210.9, 208.3], "panels": [6743, 7650, 8495, 9243, 9867, 10345, 10662, 10809, 10787, 10599], "poas": ["2717", "2739", "3498", "3500", "3505"]}}, {"type": "Feature", "geometry": {"type": "Point", "coordinates": [146.4264, -38.25421]}, "properties": {"rank": 60, "id": "WASTVIC564", "name": "Morwell Transfer Station", "owner": "Latrobe City Council", "type": "TRANSFER STATION", "state": "VIC", "suburb": "Hazelwood North", "in_capital": false, "tonnes": [136.9, 154.7, 171.6, 186.9, 200.1, 210.6, 218.1, 222.5, 223.5, 221.3], "panels": [7588, 8458, 9269, 9985, 10579, 11032, 11328, 11461, 11429, 11237], "poas": ["3824", "3835", "3840", "3842", "3844", "3854", "3856", "3869", "3870", "3871", "3873"]}}, {"type": "Feature", "geometry": {"type": "Point", "coordinates": [144.45793, -37.2254]}, "properties": {"rank": 61, "id": "WASTVIC651", "name": "Kyneton Transfer Station", "owner": "Macedon Ranges Shire Council", "type": "TRANSFER STATION", "state": "VIC", "suburb": "Kyneton", "in_capital": false, "tonnes": [134.0, 152.6, 170.5, 187.0, 201.3, 213.0, 221.6, 227.0, 228.9, 227.4], "panels": [7371, 8284, 9146, 9919, 10573, 11085, 11439, 11626, 11641, 11488], "poas": ["3434", "3435", "3440", "3441", "3442", "3444", "3446", "3447", "3448", "3450", "3451", "3458", "3461"]}}, {"type": "Feature", "geometry": {"type": "Point", "coordinates": [149.246, -33.55675]}, "properties": {"rank": 62, "id": "WASTNSW188", "name": "Blayney Waste Disposal Facility", "owner": "Blayney Shire Council", "type": "LANDFILL \u2013 PUTRESCIBLE", "state": "NSW", "suburb": "Blayney", "in_capital": false, "tonnes": [116.6, 135.1, 153.3, 170.3, 185.5, 198.2, 208.2, 215.0, 218.4, 218.4], "panels": [6338, 7243, 8118, 8923, 9626, 10202, 10632, 10901, 11003, 10937], "poas": ["2791", "2792", "2795", "2797", "2798", "2799"]}}, {"type": "Feature", "geometry": {"type": "Point", "coordinates": [146.20825, -36.46571]}, "properties": {"rank": 63, "id": "WASTVIC527", "name": "Glenrowan Transfer Station", "owner": "Wangaratta Rural City Council", "type": "TRANSFER STATION", "state": "VIC", "suburb": "Glenrowan", "in_capital": false, "tonnes": [113.8, 129.4, 144.5, 158.4, 170.5, 180.6, 188.1, 192.9, 194.8, 193.9], "panels": [6309, 7071, 7793, 8442, 8994, 9430, 9734, 9900, 9923, 9805], "poas": ["3672", "3673", "3675", "3677", "3678", "3725", "3726", "3732"]}}, {"type": "Feature", "geometry": {"type": "Point", "coordinates": [150.59547, -34.27635]}, "properties": {"rank": 64, "id": "WASTNSW98", "name": "Bargo Waste Management Centre", "owner": "Wollondilly Shire Council", "type": "TRANSFER STATION; E-WASTE DROP-OFF FACILITY", "state": "NSW", "suburb": "Bargo", "in_capital": true, "tonnes": [351.2, 421.3, 492.9, 562.4, 626.9, 684.0, 731.6, 767.9, 791.8, 802.6], "panels": [18814, 22230, 25670, 28967, 31988, 34618, 36761, 38343, 39313, 39646], "poas": ["2560", "2563", "2568", "2569", "2570", "2571", "2572", "2573", "2574", "2575"]}}, {"type": "Feature", "geometry": {"type": "Point", "coordinates": [139.29499, -34.92695]}, "properties": {"rank": 65, "id": "WASTSA387", "name": "Mannum Transfer Station", "owner": "Mid Murray Council", "type": "TRANSFER STATION", "state": "SA", "suburb": "Mannum", "in_capital": false, "tonnes": [117.1, 129.9, 141.9, 152.5, 161.3, 168.1, 172.7, 174.8, 174.5, 171.9], "panels": [6582, 7205, 7772, 8256, 8641, 8913, 9065, 9095, 9003, 8796], "poas": ["5236", "5237", "5238", "5253", "5254"]}}, {"type": "Feature", "geometry": {"type": "Point", "coordinates": [140.55661, -37.68104]}, "properties": {"rank": 66, "id": "WASTSA231", "name": "Glencoe Transfer Station\u00a0", "owner": "Wattle Range Council", "type": "TRANSFER STATION", "state": "SA", "suburb": "Tantanoola", "in_capital": false, "tonnes": [112.4, 125.7, 138.2, 149.3, 158.6, 165.7, 170.5, 172.9, 172.7, 170.1], "panels": [6248, 6905, 7505, 8023, 8438, 8739, 8916, 8966, 8890, 8694], "poas": ["5278", "5279", "5280", "5290", "5291"]}}, {"type": "Feature", "geometry": {"type": "Point", "coordinates": [150.38261, -35.5372]}, "properties": {"rank": 67, "id": "WASTNSW126", "name": "Kioloa Transfer Station", "owner": "Shoalhaven City Council", "type": "TRANSFER STATION", "state": "NSW", "suburb": "Bawley Point", "in_capital": false, "tonnes": [98.5, 115.6, 132.8, 149.2, 164.1, 177.0, 187.4, 194.9, 199.3, 200.6], "panels": [5342, 6177, 7000, 7773, 8464, 9049, 9505, 9819, 9980, 9985], "poas": ["2536", "2538", "2539"]}}, {"type": "Feature", "geometry": {"type": "Point", "coordinates": [144.37574, -35.96159]}, "properties": {"rank": 68, "id": "WASTVIC539", "name": "Gunbower Resource Recovery Centre", "owner": "Campaspe Shire Council", "type": "TRANSFER STATION", "state": "VIC", "suburb": "Gunbower", "in_capital": false, "tonnes": [103.5, 117.3, 130.5, 142.3, 152.4, 160.4, 166.1, 169.3, 169.8, 167.9], "panels": [5680, 6366, 7004, 7566, 8031, 8384, 8614, 8714, 8685, 8531], "poas": ["2731", "3562", "3564", "3565", "3566", "3567", "3568", "3573", "3575"]}}, {"type": "Feature", "geometry": {"type": "Point", "coordinates": [151.38565, -32.81998]}, "properties": {"rank": 69, "id": "WASTNSW341", "name": "Cessnock Waste And Reuse Centre", "owner": "Cessnock City Council", "type": "TRANSFER STATION; LANDFILL \u2013 PUTRESCIBLE", "state": "NSW", "suburb": "Cessnock", "in_capital": false, "tonnes": [268.5, 316.6, 364.9, 410.8, 452.6, 488.8, 517.9, 539.0, 551.5, 555.1], "panels": [14479, 16841, 19173, 21362, 23322, 24981, 26279, 27174, 27639, 27666], "poas": ["2320", "2323", "2325", "2326", "2327", "2331", "2334", "2335"]}}, {"type": "Feature", "geometry": {"type": "Point", "coordinates": [147.83629, -37.69604]}, "properties": {"rank": 70, "id": "WASTVIC174", "name": "Bruthen Transfer Station", "owner": "East Gippsland Shire Council", "type": "TRANSFER STATION", "state": "VIC", "suburb": "Bruthen", "in_capital": false, "tonnes": [100.4, 113.1, 125.0, 135.8, 144.9, 152.1, 157.1, 159.8, 160.1, 158.1], "panels": [5575, 6197, 6771, 7273, 7684, 7990, 8183, 8258, 8214, 8055], "poas": ["3875", "3878", "3880", "3882", "3887", "3893", "3902", "3903", "3904", "3909"]}}, {"type": "Feature", "geometry": {"type": "Point", "coordinates": [152.92238, -29.76722]}, "properties": {"rank": 71, "id": "WASTNSW1351", "name": "Grafton Resource Recovery Facility", "owner": "Clarence Valley Council", "type": "TRANSFER STATION; LANDFILL \u2013 PUTRESCIBLE", "state": "NSW", "suburb": "Elland", "in_capital": false, "tonnes": [95.9, 108.6, 120.8, 131.8, 141.3, 148.9, 154.4, 157.6, 158.4, 156.9], "panels": [5296, 5922, 6508, 7028, 7461, 7794, 8014, 8118, 8102, 7970], "poas": ["2460", "2462"]}}, {"type": "Feature", "geometry": {"type": "Point", "coordinates": [152.95546, -27.11798]}, "properties": {"rank": 72, "id": "WASTQLD878", "name": "Officeworks", "owner": "Officeworks", "type": "E-WASTE DROP-OFF FACILITY", "state": "QLD", "suburb": "Morayfield", "in_capital": true, "tonnes": [1260.2, 1420.0, 1573.1, 1712.3, 1832.2, 1928.7, 1998.5, 2039.6, 2051.0, 2032.8], "panels": [69994, 77817, 85129, 91592, 96966, 101069, 103776, 105017, 104774, 103086], "poas": ["4017", "4019", "4020", "4021", "4022", "4036", "4500", "4501", "4502", "4503", "4504", "4505", "4506", "4508", "4509", "4510", "4512", "4514", "4520", "4521"]}}, {"type": "Feature", "geometry": {"type": "Point", "coordinates": [152.23822, -28.08029]}, "properties": {"rank": 73, "id": "WASTQLD822", "name": "Maryvale Transfer Station", "owner": "Southern Downs Regional Council", "type": "TRANSFER STATION", "state": "QLD", "suburb": "Maryvale", "in_capital": false, "tonnes": [94.9, 105.7, 115.9, 125.0, 132.7, 138.7, 142.9, 145.1, 145.3, 143.5], "panels": [5344, 5867, 6347, 6761, 7096, 7339, 7485, 7530, 7474, 7321], "poas": ["4309", "4362", "4370", "4371", "4372", "4373"]}}, {"type": "Feature", "geometry": {"type": "Point", "coordinates": [145.97864, -34.59301]}, "properties": {"rank": 74, "id": "WASTNSW443", "name": "Darlington Point Waste Depot", "owner": "Murrumbidgee Council", "type": "LANDFILL \u2013 PUTRESCIBLE", "state": "NSW", "suburb": "Darlington Point", "in_capital": false, "tonnes": [87.3, 99.4, 111.0, 121.6, 130.8, 138.2, 143.7, 146.9, 148.0, 146.8], "panels": [4789, 5385, 5947, 6449, 6871, 7201, 7426, 7540, 7543, 7436], "poas": ["2680", "2706", "2707"]}}, {"type": "Feature", "geometry": {"type": "Point", "coordinates": [146.10109, -41.15558]}, "properties": {"rank": 75, "id": "WASTTAS162", "name": "Lobster Creek Resource Recovery Centre", "owner": "Central Coast Council", "type": "TRANSFER STATION; LANDFILL \u2013 PUTRESCIBLE", "state": "TAS", "suburb": "West Ulverstone", "in_capital": false, "tonnes": [86.6, 97.6, 108.3, 118.0, 126.5, 133.4, 138.5, 141.7, 142.9, 142.1], "panels": [4793, 5331, 5837, 6287, 6666, 6960, 7160, 7261, 7262, 7165], "poas": ["7310", "7315", "7316", "7320", "7322"]}}, {"type": "Feature", "geometry": {"type": "Point", "coordinates": [145.69608, -35.95531]}, "properties": {"rank": 76, "id": "WASTVIC267", "name": "Cobram Transfer Station", "owner": "Moira Shire Council", "type": "TRANSFER STATION; LANDFILL \u2013 PUTRESCIBLE", "state": "VIC", "suburb": "Cobram East", "in_capital": false, "tonnes": [105.9, 118.6, 130.4, 140.9, 149.5, 156.0, 160.3, 162.2, 161.7, 158.8], "panels": [5868, 6497, 7069, 7559, 7948, 8226, 8384, 8419, 8333, 8132], "poas": ["3636", "3640", "3641", "3644", "3649", "3730"]}}, {"type": "Feature", "geometry": {"type": "Point", "coordinates": [143.97413, -38.23905]}, "properties": {"rank": 77, "id": "WASTVIC1267", "name": "Winchelsea Transfer Station", "owner": "Surf Coast Shire Council", "type": "TRANSFER STATION", "state": "VIC", "suburb": "Winchelsea", "in_capital": false, "tonnes": [91.7, 105.1, 118.2, 130.5, 141.3, 150.4, 157.4, 162.0, 164.2, 163.9], "panels": [5046, 5702, 6331, 6904, 7399, 7799, 8090, 8264, 8315, 8245], "poas": ["3221", "3228", "3230", "3231", "3235", "3240", "3241", "3242", "3243", "3251", "3321", "3328", "3329"]}}, {"type": "Feature", "geometry": {"type": "Point", "coordinates": [150.05199, -33.63712]}, "properties": {"rank": 78, "id": "WASTNSW689", "name": "Hampton Transfer Station", "owner": "Lithgow City Council", "type": "TRANSFER STATION", "state": "NSW", "suburb": "Hampton", "in_capital": false, "tonnes": [77.3, 90.0, 102.6, 114.8, 125.8, 135.3, 143.0, 148.6, 151.9, 152.9], "panels": [4227, 4840, 5445, 6012, 6518, 6944, 7277, 7503, 7618, 7617], "poas": ["2780", "2785", "2786", "2787", "2790", "2845"]}}, {"type": "Feature", "geometry": {"type": "Point", "coordinates": [148.67401, -20.28391]}, "properties": {"rank": 79, "id": "WASTQLD262", "name": "Cannonvale Transfer Station", "owner": "Whitsunday Regional Council", "type": "TRANSFER STATION; E-WASTE DROP-OFF FACILITY", "state": "QLD", "suburb": "Cannonvale", "in_capital": false, "tonnes": [76.1, 88.9, 101.7, 114.0, 125.3, 135.0, 142.9, 148.7, 152.2, 153.3], "panels": [4134, 4761, 5380, 5962, 6482, 6922, 7267, 7504, 7629, 7637], "poas": ["4800", "4802"]}}, {"type": "Feature", "geometry": {"type": "Point", "coordinates": [145.57955, -17.26069]}, "properties": {"rank": 80, "id": "WASTQLD1465", "name": "Yungaburra Transfer Station", "owner": "Tablelands Regional Council", "type": "TRANSFER STATION", "state": "QLD", "suburb": "Yungaburra", "in_capital": false, "tonnes": [77.1, 88.9, 100.6, 111.7, 121.8, 130.4, 137.3, 142.2, 145.0, 145.6], "panels": [4253, 4828, 5390, 5911, 6371, 6753, 7043, 7233, 7318, 7297], "poas": ["4865", "4882", "4883", "4884", "4885", "4886"]}}, {"type": "Feature", "geometry": {"type": "Point", "coordinates": [149.99571, -34.71603]}, "properties": {"rank": 81, "id": "WASTNSW933", "name": "Marulan Waste Management Centre", "owner": "Goulburn Mulwaree Shire Council", "type": "TRANSFER STATION; LANDFILL \u2013 PUTRESCIBLE", "state": "NSW", "suburb": "Marulan", "in_capital": false, "tonnes": [74.7, 87.0, 99.3, 110.9, 121.5, 130.6, 137.8, 143.0, 146.0, 146.7], "panels": [4061, 4662, 5252, 5802, 6290, 6699, 7014, 7225, 7326, 7315], "poas": ["2579", "2580"]}}, {"type": "Feature", "geometry": {"type": "Point", "coordinates": [147.23641, -19.7828]}, "properties": {"rank": 82, "id": "WASTQLD320", "name": "Clare Transfer Station", "owner": "Burdekin Shire Council", "type": "TRANSFER STATION", "state": "QLD", "suburb": "Clare", "in_capital": false, "tonnes": [75.7, 86.9, 97.7, 107.8, 116.6, 123.9, 129.5, 133.1, 134.6, 134.2], "panels": [4148, 4696, 5218, 5691, 6097, 6422, 6655, 6789, 6821, 6753], "poas": ["4806", "4807", "4809"]}}, {"type": "Feature", "geometry": {"type": "Point", "coordinates": [152.50245, -30.81306]}, "properties": {"rank": 83, "id": "WASTNSW135", "name": "Bellbrook Waste Transfer Station", "owner": "Kempsey Shire Council", "type": "TRANSFER STATION", "state": "NSW", "suburb": "Bellbrook", "in_capital": false, "tonnes": [75.0, 85.7, 96.0, 105.5, 113.8, 120.6, 125.6, 128.7, 129.8, 129.0], "panels": [4119, 4647, 5147, 5596, 5977, 6278, 6487, 6600, 6613, 6529], "poas": ["2440", "2447"]}}, {"type": "Feature", "geometry": {"type": "Point", "coordinates": [153.5121, -28.59013]}, "properties": {"rank": 84, "id": "WASTNSW1066", "name": "Myocum Resource Recovery Centre", "owner": "Byron Shire Council", "type": "TRANSFER STATION; LANDFILL \u2013 PUTRESCIBLE", "state": "NSW", "suburb": "Myocum", "in_capital": false, "tonnes": [129.1, 148.0, 166.4, 183.5, 198.6, 211.2, 220.8, 227.2, 230.0, 229.3], "panels": [7097, 8020, 8907, 9713, 10409, 10969, 11375, 11612, 11677, 11569], "poas": ["2479", "2481", "2482", "2483"]}}, {"type": "Feature", "geometry": {"type": "Point", "coordinates": [145.92222, -38.55833]}, "properties": {"rank": 85, "id": "WASTVIC644", "name": "Koonwarra Landfill", "owner": "South Gippsland Shire Council", "type": "LANDFILL \u2013 PUTRESCIBLE", "state": "VIC", "suburb": "Koonwarra", "in_capital": false, "tonnes": [109.9, 124.5, 138.6, 151.4, 162.4, 171.4, 177.9, 181.8, 182.9, 181.4], "panels": [6074, 6794, 7469, 8069, 8571, 8958, 9219, 9346, 9337, 9195], "poas": ["3946", "3950", "3951", "3953", "3954", "3956", "3957", "3958", "3959", "3979", "3992", "3995", "3996"]}}, {"type": "Feature", "geometry": {"type": "Point", "coordinates": [142.64384, -38.30621]}, "properties": {"rank": 86, "id": "WASTVIC500", "name": "Framlingham Transfer Station", "owner": "Framlingham Aboriginal Trust", "type": "TRANSFER STATION", "state": "VIC", "suburb": "Framlingham", "in_capital": false, "tonnes": [71.6, 82.1, 92.3, 101.7, 109.9, 116.6, 121.6, 124.8, 126.0, 125.3], "panels": [3925, 4446, 4940, 5386, 5765, 6066, 6278, 6394, 6414, 6338], "poas": ["3264", "3265", "3275", "3276", "3277", "3278", "3279", "3280", "3281", "3282"]}}, {"type": "Feature", "geometry": {"type": "Point", "coordinates": [137.76135, -32.9827]}, "properties": {"rank": 87, "id": "WASTSA578", "name": "Santos Landfill", "owner": "Santos Limited", "type": "LANDFILL \u2013 PUTRESCIBLE", "state": "SA", "suburb": "Port Bonython", "in_capital": false, "tonnes": [80.0, 86.2, 91.4, 95.5, 98.3, 99.8, 100.0, 98.8, 96.4, 92.9], "panels": [4562, 4862, 5105, 5281, 5385, 5416, 5375, 5265, 5093, 4865], "poas": ["5495", "5600", "5601", "5608", "5609"]}}, {"type": "Feature", "geometry": {"type": "Point", "coordinates": [149.93041, -36.76202]}, "properties": {"rank": 88, "id": "WASTNSW1615", "name": "Wallagoot Waste Transfer Depot", "owner": "Bega Valley Shire Council", "type": "TRANSFER STATION", "state": "NSW", "suburb": "Wallagoot", "in_capital": false, "tonnes": [71.2, 81.0, 90.6, 99.5, 107.4, 113.9, 118.9, 122.2, 123.7, 123.3], "panels": [3938, 4413, 4868, 5280, 5635, 5919, 6122, 6240, 6267, 6206], "poas": ["2548", "2549", "2550"]}}, {"type": "Feature", "geometry": {"type": "Point", "coordinates": [137.59914, -34.06352]}, "properties": {"rank": 89, "id": "WASTSA438", "name": "Copper Coast Recycling", "owner": "Copper Coast Recycling Pty Ltd", "type": "TRANSFER STATION", "state": "SA", "suburb": "North Moonta", "in_capital": false, "tonnes": [75.2, 83.1, 90.6, 97.2, 102.7, 107.0, 109.9, 111.2, 111.1, 109.4], "panels": [4244, 4630, 4981, 5279, 5515, 5682, 5773, 5789, 5730, 5598], "poas": ["5552", "5554", "5556", "5558", "5572"]}}, {"type": "Feature", "geometry": {"type": "Point", "coordinates": [114.66946, -28.80378]}, "properties": {"rank": 90, "id": "WASTWA791", "name": "Veolia Transfer Station Meru", "owner": "Veolia", "type": "TRANSFER STATION", "state": "WA", "suburb": "Narngulu", "in_capital": false, "tonnes": [74.2, 82.7, 90.5, 97.3, 102.8, 106.9, 109.5, 110.4, 109.6, 107.4], "panels": [4132, 4551, 4929, 5247, 5496, 5666, 5754, 5758, 5681, 5525], "poas": ["6528", "6530"]}}, {"type": "Feature", "geometry": {"type": "Point", "coordinates": [138.5043, -34.27815]}, "properties": {"rank": 91, "id": "WASTSA529", "name": "Owen Transfer Station", "owner": "Wakefield Regional Council", "type": "TRANSFER STATION", "state": "SA", "suburb": "Owen", "in_capital": false, "tonnes": [78.4, 88.7, 98.6, 107.8, 115.8, 122.3, 127.2, 130.3, 131.4, 130.7], "panels": [4361, 4863, 5338, 5764, 6123, 6405, 6599, 6701, 6707, 6620], "poas": ["5401", "5410", "5411", "5412", "5460", "5461", "5501", "5502"]}}, {"type": "Feature", "geometry": {"type": "Point", "coordinates": [152.44468, -31.62863]}, "properties": {"rank": 92, "id": "WASTNSW382", "name": "Comboyne Transfer Station", "owner": "Port Macquarie Hastings Council", "type": "TRANSFER STATION", "state": "NSW", "suburb": "Comboyne", "in_capital": false, "tonnes": [71.9, 82.1, 92.1, 101.3, 109.4, 116.1, 121.1, 124.3, 125.6, 125.0], "panels": [3962, 4464, 4942, 5374, 5743, 6037, 6246, 6363, 6385, 6314], "poas": ["2426", "2429", "2446"]}}, {"type": "Feature", "geometry": {"type": "Point", "coordinates": [151.81992, -26.44569]}, "properties": {"rank": 93, "id": "WASTQLD830", "name": "Memerambi Transfer Station", "owner": "South Burnett Regional Council", "type": "TRANSFER STATION", "state": "QLD", "suburb": "Memerambi", "in_capital": false, "tonnes": [71.0, 79.9, 88.5, 96.5, 103.4, 109.1, 113.3, 116.0, 117.1, 116.4], "panels": [3972, 4403, 4809, 5173, 5479, 5717, 5880, 5964, 5966, 5887], "poas": ["4606", "4608", "4610", "4615"]}}, {"type": "Feature", "geometry": {"type": "Point", "coordinates": [147.0909, -37.95992]}, "properties": {"rank": 94, "id": "WASTVIC1103", "name": "Stratford Transfer Station", "owner": "Wellington Shire Council", "type": "TRANSFER STATION", "state": "VIC", "suburb": "Stratford", "in_capital": false, "tonnes": [72.1, 80.6, 88.5, 95.6, 101.5, 106.1, 109.1, 110.6, 110.5, 108.8], "panels": [4016, 4434, 4815, 5144, 5408, 5598, 5710, 5740, 5689, 5562], "poas": ["3850", "3851", "3852", "3859", "3860", "3864"]}}, {"type": "Feature", "geometry": {"type": "Point", "coordinates": [138.24213, -33.33319]}, "properties": {"rank": 95, "id": "WASTSA144", "name": "Crystal Brooke Transfer Station", "owner": "Port Pirie Regional Council", "type": "TRANSFER STATION", "state": "SA", "suburb": "Crystal Brook", "in_capital": false, "tonnes": [75.2, 81.2, 86.5, 90.7, 93.7, 95.5, 96.0, 95.2, 93.1, 90.0], "panels": [4292, 4588, 4833, 5015, 5131, 5177, 5154, 5065, 4915, 4710], "poas": ["5471", "5472", "5473", "5480", "5490", "5521", "5523", "5540"]}}, {"type": "Feature", "geometry": {"type": "Point", "coordinates": [149.63127, -32.4176]}, "properties": {"rank": 96, "id": "WASTNSW712", "name": "Home Rule Transfer Station", "owner": "Mid-Western Regional Council", "type": "TRANSFER STATION", "state": "NSW", "suburb": "Home Rule", "in_capital": false, "tonnes": [60.2, 69.5, 78.7, 87.1, 94.6, 100.9, 105.7, 108.8, 110.3, 110.0], "panels": [3272, 3733, 4175, 4579, 4929, 5212, 5419, 5543, 5582, 5535], "poas": ["2850", "2852"]}}, {"type": "Feature", "geometry": {"type": "Point", "coordinates": [153.35758, -29.38721]}, "properties": {"rank": 97, "id": "WASTNSW730", "name": "Iluka Waste Transfer Station", "owner": "Clarence Valley Council", "type": "TRANSFER STATION", "state": "NSW", "suburb": "Iluka", "in_capital": false, "tonnes": [60.3, 69.2, 78.1, 86.3, 93.6, 99.8, 104.6, 107.8, 109.3, 109.2], "panels": [3318, 3758, 4182, 4570, 4908, 5182, 5384, 5507, 5548, 5507], "poas": ["2463", "2464", "2465", "2466", "2472"]}}, {"type": "Feature", "geometry": {"type": "Point", "coordinates": [151.78437, -30.55431]}, "properties": {"rank": 98, "id": "WASTNSW968", "name": "Armidale Regional Landfill", "owner": "Armidale Regional Council", "type": "LANDFILL \u2013 PUTRESCIBLE", "state": "NSW", "suburb": "Metz", "in_capital": false, "tonnes": [56.8, 65.2, 73.4, 81.1, 87.8, 93.4, 97.6, 100.4, 101.7, 101.4], "panels": [3108, 3521, 3916, 4276, 4587, 4837, 5018, 5124, 5153, 5105], "poas": ["2350"]}}, {"type": "Feature", "geometry": {"type": "Point", "coordinates": [146.429, -35.95044]}, "properties": {"rank": 99, "id": "WASTNSW417", "name": "Corowa Waste Management Centre", "owner": "Federation Council", "type": "TRANSFER STATION; LANDFILL \u2013 PUTRESCIBLE", "state": "NSW", "suburb": "Hopefield", "in_capital": false, "tonnes": [59.4, 65.5, 71.1, 76.0, 79.9, 82.8, 84.6, 85.2, 84.7, 83.0], "panels": [3343, 3640, 3903, 4122, 4290, 4400, 4452, 4443, 4376, 4255], "poas": ["2643", "2646", "3682", "3685", "3687"]}}, {"type": "Feature", "geometry": {"type": "Point", "coordinates": [143.79175, -37.06472]}, "properties": {"rank": 100, "id": "WASTVIC213", "name": "Carisbrook Transfer Station And Resource Recovery Ce", "owner": "Central Goldfields Shire Council", "type": "TRANSFER STATION", "state": "VIC", "suburb": "Carisbrook", "in_capital": false, "tonnes": [55.6, 61.7, 67.2, 72.0, 75.8, 78.5, 80.1, 80.5, 79.7, 77.8], "panels": [3104, 3405, 3671, 3892, 4060, 4169, 4218, 4206, 4135, 4009], "poas": ["3371", "3462", "3463", "3464", "3465", "3467", "3472"]}}]}
