{"type": "FeatureCollection", "years": [2026, 2027, 2028, 2029, 2030, 2031, 2032, 2033, 2034, 2035], "features": [{"type": "Feature", "geometry": {"type": "Point", "coordinates": [149.08881, -35.35056]}, "properties": {"rank": 1, "id": "WASTACT61", "name": "Philip Recycling Drop Off Centre", "owner": "Act Government", "type": "TRANSFER STATION", "state": "ACT", "suburb": "Phillip", "in_capital": true, "tonnes": [26.4, 36.1, 48.7, 64.6, 84.7, 109.5, 139.8, 176.1, 219.0, 268.9], "panels": [1607, 2185, 2923, 3853, 5008, 6420, 8121, 10137, 12489, 15186], "poas": ["2601", "2603", "2605", "2606", "2607", "2611", "2614", "2615", "2617", "2618", "2620", "2900", "2902", "2903", "2904", "2905", "2906"]}}, {"type": "Feature", "geometry": {"type": "Point", "coordinates": [149.1799, -35.33068]}, "properties": {"rank": 2, "id": "WASTACT18", "name": "Domayne Fyshwick", "owner": "Domayne", "type": "E-WASTE DROP-OFF FACILITY", "state": "ACT", "suburb": "Fyshwick", "in_capital": true, "tonnes": [10.4, 14.4, 19.6, 26.4, 35.1, 46.0, 59.5, 75.9, 95.6, 119.0], "panels": [627, 862, 1167, 1557, 2049, 2660, 3407, 4307, 5374, 6619], "poas": ["2600", "2602", "2604", "2609", "2612", "2619", "2621", "2911", "2912", "2913", "2914"]}}, {"type": "Feature", "geometry": {"type": "Point", "coordinates": [150.98444, -33.86979]}, "properties": {"rank": 3, "id": "WASTNSW1146", "name": "Officeworks", "owner": "Officeworks", "type": "E-WASTE DROP-OFF FACILITY", "state": "NSW", "suburb": "Old Guildford", "in_capital": true, "tonnes": [151.9, 209.1, 283.6, 379.2, 500.1, 650.7, 835.7, 1059.4, 1325.6, 1637.3], "panels": [9254, 12648, 17018, 22562, 29495, 38035, 48393, 60761, 75294, 92098], "poas": ["2000", "2007", "2008", "2009", "2010", "2011", "2015", "2016", "2017", "2018", "2019", "2020", "2021", "2022", "2023", "2024", "2025", "2026", "2027", "2028", "2029", "2030", "2031", "2032", "2033", "2034", "2035", "2036", "2037", "2038", "2039", "2040", "2041", "2042", "2043", "2044", "2045", "2046", "2047", "2048", "2049", "2050", "2060", "2061", "2062", "2063", "2064", "2065", "2066", "2067", "2068", "2069", "2070", "2071", "2072", "2073", "2074", "2075", "2076", "2077", "2086", "2087", "2088", "2089", "2090", "2092", "2093", "2094", "2095", "2096", "2100", "2110", "2111", "2112", "2113", "2114", "2115", "2116", "2117", "2118", "2119", "2120", "2121", "2122", "2125", "2126", "2127", "2128", "2130", "2131", "2132", "2133", "2134", "2135", "2136", "2137", "2138", "2140", "2141", "2142", "2143", "2144", "2145", "2146", "2147", "2148", "2150", "2151", "2152", "2153", "2154", "2155", "2156", "2158", "2160", "2161", "2162", "2163", "2164", "2165", "2166", "2167", "2168", "2170", "2171", "2172", "2173", "2174", "2175", "2176", "2177", "2179", "2190", "2191", "2192", "2193", "2194", "2195", "2196", "2197", "2198", "2199", "2200", "2203", "2204", "2205", "2206", "2207", "2208", "2209", "2210", "2211", "2212", "2213", "2214", "2216", "2217", "2218", "2219", "2220", "2221", "2222", "2223", "2224", "2225", "2226", "2227", "2228", "2229", "2230", "2231", "2232", "2233", "2234", "2558", "2559", "2564", "2565", "2566", "2762", "2763", "2766", "2767", "2768", "2769"]}}, {"type": "Feature", "geometry": {"type": "Point", "coordinates": [153.48421, -28.24641]}, "properties": {"rank": 4, "id": "WASTNSW1480", "name": "Walls Quarry", "owner": "Walls Quarry", "type": "TRANSFER STATION", "state": "NSW", "suburb": "Bungalora", "in_capital": false, "tonnes": [45.5, 62.3, 83.8, 110.7, 144.0, 184.5, 232.9, 289.7, 355.3, 429.5], "panels": [2767, 3767, 5036, 6618, 8558, 10896, 13667, 16891, 20575, 24704], "poas": ["2484", "2485", "2486", "2487", "2488", "2489", "2490", "4213", "4218", "4220", "4221", "4223", "4224", "4225", "4226", "4227", "4228"]}}, {"type": "Feature", "geometry": {"type": "Point", "coordinates": [131.0151, -12.49683]}, "properties": {"rank": 5, "id": "WASTNT87", "name": "Howard Springs Transfer Station", "owner": "Litchfield Council", "type": "TRANSFER STATION", "state": "NT", "suburb": "Howard Springs", "in_capital": true, "tonnes": [7.0, 10.3, 14.8, 20.8, 28.6, 38.5, 51.0, 66.4, 85.0, 107.0], "panels": [402, 586, 836, 1166, 1595, 2139, 2819, 3651, 4650, 5830], "poas": ["0800", "0810", "0812", "0820", "0828", "0829", "0830", "0832", "0834", "0835", "0836", "0838", "0839"]}}, {"type": "Feature", "geometry": {"type": "Point", "coordinates": [133.87852, -23.69809]}, "properties": {"rank": 6, "id": "WASTNT13", "name": "Igear", "owner": "Igear", "type": "E-WASTE DROP-OFF FACILITY", "state": "NT", "suburb": "Alice Springs", "in_capital": false, "tonnes": [2.9, 4.0, 5.5, 7.3, 9.6, 12.4, 15.7, 19.6, 24.1, 29.2], "panels": [172, 238, 322, 427, 558, 716, 904, 1123, 1376, 1659], "poas": ["0870", "0873", "0874", "0875"]}}, {"type": "Feature", "geometry": {"type": "Point", "coordinates": [153.02631, -27.54612]}, "properties": {"rank": 7, "id": "WASTQLD1159", "name": "Kartaway Salisbury", "owner": "Kartaway Mini Skips", "type": "TRANSFER STATION", "state": "QLD", "suburb": "Salisbury", "in_capital": true, "tonnes": [237.3, 325.8, 439.0, 581.5, 757.8, 972.3, 1229.1, 1531.1, 1880.1, 2275.9], "panels": [14362, 19624, 26312, 34668, 44931, 57323, 72028, 89170, 108786, 130801], "poas": ["4000", "4005", "4006", "4007", "4008", "4009", "4010", "4011", "4012", "4013", "4014", "4018", "4030", "4031", "4032", "4034", "4035", "4037", "4051", "4053", "4054", "4055", "4059", "4060", "4061", "4064", "4065", "4066", "4067", "4068", "4069", "4070", "4073", "4074", "4075", "4076", "4077", "4078", "4101", "4102", "4103", "4104", "4105", "4106", "4107", "4108", "4109", "4110", "4111", "4112", "4113", "4114", "4115", "4116", "4117", "4118", "4119", "4120", "4121", "4122", "4123", "4124", "4125", "4127", "4128", "4129", "4130", "4131", "4132", "4133", "4151", "4152", "4153", "4154", "4155", "4156", "4157", "4158", "4159", "4160", "4161", "4163", "4164", "4165", "4169", "4170", "4171", "4172", "4173", "4174", "4178", "4179", "4205", "4300", "4301", "4303", "4304", "4305", "4306"]}}, {"type": "Feature", "geometry": {"type": "Point", "coordinates": [153.03705, -27.03107]}, "properties": {"rank": 8, "id": "WASTQLD1297", "name": "Toorbul Transfer Station", "owner": "Moreton Bay Regional Council", "type": "TRANSFER STATION", "state": "QLD", "suburb": "Toorbul", "in_capital": true, "tonnes": [24.1, 32.9, 44.2, 58.2, 75.6, 96.6, 121.7, 151.2, 185.1, 223.4], "panels": [1471, 1998, 2665, 3494, 4509, 5729, 7172, 8848, 10759, 12896], "poas": ["4507", "4511", "4516", "4517", "4518", "4519", "4550", "4551"]}}, {"type": "Feature", "geometry": {"type": "Point", "coordinates": [138.66036, -34.93922]}, "properties": {"rank": 9, "id": "WASTSA83", "name": "Burnside Council Depot", "owner": "Burnside City Council", "type": "E-WASTE DROP-OFF FACILITY", "state": "SA", "suburb": "Burnside", "in_capital": true, "tonnes": [174.5, 237.4, 317.1, 416.8, 539.1, 686.8, 862.3, 1067.2, 1302.0, 1566.2], "panels": [10617, 14372, 19109, 24980, 32139, 40717, 50821, 62510, 75780, 90553], "poas": ["5000", "5006", "5007", "5008", "5009", "5010", "5011", "5012", "5013", "5014", "5015", "5016", "5017", "5018", "5019", "5020", "5021", "5022", "5023", "5024", "5025", "5031", "5032", "5033", "5034", "5035", "5037", "5038", "5039", "5040", "5041", "5042", "5043", "5044", "5045", "5046", "5047", "5048", "5049", "5050", "5051", "5052", "5061", "5062", "5063", "5064", "5065", "5066", "5067", "5068", "5069", "5070", "5072", "5073", "5074", "5075", "5076", "5081", "5082", "5083", "5084", "5085", "5086", "5087", "5088", "5089", "5090", "5091", "5092", "5093", "5094", "5095", "5096", "5097", "5098", "5106", "5107", "5108", "5109", "5110", "5126", "5127", "5131", "5132", "5133", "5134", "5136", "5137", "5138", "5139", "5140", "5141", "5142", "5144", "5150", "5151", "5152", "5154", "5155", "5156", "5158", "5159", "5160", "5161", "5166", "5232", "5240", "5241", "5242", "5243", "5244", "5950"]}}, {"type": "Feature", "geometry": {"type": "Point", "coordinates": [138.79969, -34.62177]}, "properties": {"rank": 10, "id": "WASTSA287", "name": "Rocla Limited Waste Facility", "owner": "Rocla Limited", "type": "LANDFILL \u2013 PUTRESCIBLE", "state": "SA", "suburb": "Kalbeeba", "in_capital": true, "tonnes": [34.4, 46.9, 62.9, 82.8, 107.4, 137.2, 172.7, 214.4, 262.4, 316.7], "panels": [2093, 2840, 3785, 4959, 6395, 8121, 10163, 12533, 15237, 18261], "poas": ["5111", "5112", "5113", "5114", "5115", "5116", "5117", "5118", "5120", "5121", "5125", "5231", "5233", "5234", "5235", "5350", "5351", "5352", "5355", "5360", "5371", "5372", "5400"]}}, {"type": "Feature", "geometry": {"type": "Point", "coordinates": [147.40085, -42.86079]}, "properties": {"rank": 11, "id": "GA-OBJECTID-6248", "name": "Mornington Park Waste Transfer Station", "owner": "Clarence City Council", "type": "TRANSFER STATION", "state": "TAS", "suburb": "Mornington", "in_capital": true, "tonnes": [13.9, 19.0, 25.6, 33.9, 44.1, 56.5, 71.4, 88.8, 108.8, 131.6], "panels": [829, 1134, 1521, 2004, 2596, 3309, 4154, 5138, 6263, 7523], "poas": ["7000", "7004", "7005", "7007", "7008", "7009", "7010", "7011", "7012", "7015", "7016", "7017", "7018", "7019", "7020", "7021", "7022", "7023", "7024", "7025", "7026", "7050", "7052", "7053", "7054", "7055", "7170", "7171", "7172", "7173", "7186"]}}, {"type": "Feature", "geometry": {"type": "Point", "coordinates": [146.94885, -41.30208]}, "properties": {"rank": 12, "id": "WASTTAS47", "name": "Exeter Transfer Station", "owner": "West Tamar Council", "type": "TRANSFER STATION; E-WASTE DROP-OFF FACILITY", "state": "TAS", "suburb": "Exeter", "in_capital": false, "tonnes": [8.0, 11.2, 15.2, 20.2, 26.5, 34.2, 43.4, 54.2, 66.8, 81.2], "panels": [479, 662, 895, 1188, 1550, 1989, 2513, 3126, 3830, 4624], "poas": ["7248", "7249", "7250", "7252", "7253", "7267", "7268", "7270", "7275", "7276", "7277", "7290", "7291", "7292", "7303"]}}, {"type": "Feature", "geometry": {"type": "Point", "coordinates": [145.01093, -37.81999]}, "properties": {"rank": 13, "id": "WASTVIC988", "name": "Officeworks", "owner": "Officeworks", "type": "E-WASTE DROP-OFF FACILITY", "state": "VIC", "suburb": "Richmond", "in_capital": true, "tonnes": [114.6, 158.8, 216.2, 289.7, 382.1, 496.6, 636.2, 803.5, 1000.8, 1229.5], "panels": [6908, 9509, 12859, 17106, 22402, 28900, 36744, 46053, 56914, 69365], "poas": ["3000", "3002", "3003", "3004", "3006", "3008", "3011", "3012", "3013", "3015", "3016", "3018", "3019", "3020", "3022", "3025", "3026", "3028", "3031", "3032", "3033", "3034", "3039", "3040", "3041", "3042", "3043", "3044", "3046", "3047", "3048", "3049", "3051", "3052", "3053", "3054", "3055", "3056", "3057", "3058", "3059", "3060", "3061", "3062", "3064", "3065", "3066", "3067", "3068", "3070", "3071", "3072", "3073", "3074", "3075", "3076", "3078", "3079", "3081", "3082", "3083", "3084", "3085", "3087", "3088", "3089", "3090", "3091", "3093", "3094", "3095", "3101", "3102", "3103", "3104", "3105", "3106", "3107", "3108", "3109", "3111", "3121", "3122", "3123", "3124", "3125", "3126", "3127", "3128", "3129", "3130", "3131", "3132", "3133", "3141", "3142", "3143", "3144", "3145", "3146", "3147", "3148", "3149", "3150", "3151", "3152", "3161", "3162", "3163", "3165", "3166", "3167", "3168", "3169", "3170", "3171", "3178", "3179", "3181", "3182", "3183", "3184", "3185", "3186", "3187", "3188", "3189", "3190", "3191", "3192", "3193", "3194", "3202", "3204", "3205", "3206", "3207", "3750", "3752", "3754"]}}, {"type": "Feature", "geometry": {"type": "Point", "coordinates": [145.1987, -38.14064]}, "properties": {"rank": 14, "id": "WASTVIC669", "name": "Glen Landfill Pty Ltd", "owner": "Glen Landfill Pty Ltd", "type": "LANDFILL \u2013 PUTRESCIBLE", "state": "VIC", "suburb": "Langwarrin", "in_capital": true, "tonnes": [54.9, 76.7, 105.1, 141.6, 187.8, 245.3, 315.6, 400.1, 500.1, 616.2], "panels": [3292, 4565, 6215, 8319, 10955, 14205, 18144, 22837, 28332, 34652], "poas": ["3172", "3173", "3174", "3175", "3177", "3195", "3196", "3197", "3198", "3199", "3200", "3201", "3802", "3803", "3804", "3805", "3806", "3807", "3808", "3809", "3810", "3910", "3911", "3912", "3913", "3921", "3930", "3933", "3975", "3976", "3977", "3978", "3980"]}}, {"type": "Feature", "geometry": {"type": "Point", "coordinates": [115.93502, -32.0198]}, "properties": {"rank": 15, "id": "WASTWA224", "name": "Harvey Norman", "owner": "Harvey Norman", "type": "E-WASTE DROP-OFF FACILITY", "state": "WA", "suburb": "Cannington", "in_capital": true, "tonnes": [135.3, 186.9, 253.4, 337.9, 443.4, 572.8, 729.0, 914.4, 1130.4, 1377.9], "panels": [8162, 11204, 15102, 20009, 26085, 33479, 42325, 52726, 64737, 78354], "poas": ["6000", "6003", "6004", "6005", "6006", "6007", "6008", "6009", "6010", "6011", "6012", "6014", "6015", "6016", "6017", "6018", "6019", "6021", "6050", "6051", "6052", "6053", "6054", "6055", "6056", "6057", "6058", "6059", "6060", "6061", "6062", "6063", "6070", "6071", "6072", "6073", "6076", "6081", "6090", "6100", "6101", "6102", "6103", "6104", "6105", "6106", "6107", "6108", "6109", "6110", "6111", "6112", "6121", "6122", "6123", "6147", "6148", "6149", "6150", "6151", "6152", "6153", "6154", "6155", "6156", "6157", "6158", "6159", "6160", "6162", "6163", "6164", "6165", "6166", "6167"]}}, {"type": "Feature", "geometry": {"type": "Point", "coordinates": [115.76058, -32.50438]}, "properties": {"rank": 16, "id": "WASTWA915", "name": "Gordon Road Transfer Station", "owner": "Cleanaway", "type": "TRANSFER STATION; LANDFILL \u2013 PUTRESCIBLE", "state": "WA", "suburb": "Parklands", "in_capital": true, "tonnes": [37.5, 51.6, 69.7, 92.5, 120.9, 155.4, 196.8, 245.6, 302.0, 366.2], "panels": [2268, 3103, 4168, 5500, 7141, 9125, 11485, 14241, 17401, 20956], "poas": ["6125", "6126", "6168", "6169", "6170", "6171", "6172", "6173", "6174", "6175", "6176", "6180", "6181", "6182", "6207", "6208", "6209", "6210", "6211", "6214"]}}, {"type": "Feature", "geometry": {"type": "Point", "coordinates": [152.94155, -26.54831]}, "properties": {"rank": 17, "id": "WASTQLD1435", "name": "Yandina Transfer Station", "owner": "Sunshine Coast Regoinal Council", "type": "TRANSFER STATION", "state": "QLD", "suburb": "Bridges", "in_capital": false, "tonnes": [53.2, 72.7, 97.6, 128.9, 167.6, 214.6, 270.7, 336.6, 412.7, 498.8], "panels": [3232, 4397, 5874, 7714, 9969, 12687, 15905, 19649, 23927, 28720], "poas": ["4552", "4553", "4554", "4555", "4556", "4557", "4558", "4559", "4560", "4561", "4562", "4563", "4564", "4565", "4566", "4567", "4568", "4572", "4573", "4574", "4575"]}}, {"type": "Feature", "geometry": {"type": "Point", "coordinates": [151.55094, -33.02332]}, "properties": {"rank": 18, "id": "WASTNSW69", "name": "Awaba Waste Management Facility", "owner": "Lake Macquarie City Council/Civilake", "type": "TRANSFER STATION; LANDFILL \u2013 PUTRESCIBLE; E-WASTE DROP-OFF FACILITY", "state": "NSW", "suburb": "Awaba", "in_capital": false, "tonnes": [33.4, 45.8, 61.9, 82.4, 108.2, 140.0, 178.7, 225.1, 279.7, 343.1], "panels": [2039, 2779, 3728, 4923, 6408, 8223, 10407, 12993, 16003, 19450], "poas": ["2259", "2262", "2263", "2264", "2265", "2267", "2278", "2280", "2281", "2282", "2283", "2284", "2285", "2286", "2287", "2289", "2290", "2291", "2292", "2299", "2303", "2305", "2306"]}}, {"type": "Feature", "geometry": {"type": "Point", "coordinates": [153.18086, -27.9087]}, "properties": {"rank": 19, "id": "WASTQLD1264", "name": "Tamborine Mountain Transfer Station", "owner": "Scenic Rim Regional Council", "type": "TRANSFER STATION", "state": "QLD", "suburb": "Tamborine Mountain", "in_capital": false, "tonnes": [67.4, 93.1, 126.2, 168.3, 220.8, 285.2, 362.9, 455.2, 562.8, 686.0], "panels": [4066, 5585, 7529, 9977, 13008, 16695, 21108, 26296, 32287, 39077], "poas": ["4207", "4208", "4209", "4210", "4211", "4212", "4214", "4215", "4216", "4217", "4270", "4272", "4275", "4280", "4285"]}}, {"type": "Feature", "geometry": {"type": "Point", "coordinates": [146.6983, -19.2762]}, "properties": {"rank": 20, "id": "WASTQLD1168", "name": "E-Waste Recycling Australia", "owner": "E-Waste Recycling Australia", "type": "E-WASTE DROP-OFF FACILITY", "state": "QLD", "suburb": "Shaw", "in_capital": false, "tonnes": [31.6, 43.5, 58.7, 77.9, 101.6, 130.4, 164.8, 205.3, 251.9, 304.8], "panels": [1900, 2606, 3504, 4626, 6004, 7669, 9644, 11944, 14574, 17521], "poas": ["4810", "4811", "4812", "4814", "4815", "4817", "4818", "4819"]}}, {"type": "Feature", "geometry": {"type": "Point", "coordinates": [144.38607, -38.0517]}, "properties": {"rank": 21, "id": "WASTVIC298", "name": "Suez Corio", "owner": "Suez Australia Pty Ltd", "type": "TRANSFER STATION", "state": "VIC", "suburb": "Corio", "in_capital": false, "tonnes": [20.4, 28.3, 38.4, 51.2, 67.3, 87.0, 110.9, 139.2, 172.3, 210.3], "panels": [1231, 1694, 2286, 3033, 3959, 5087, 6439, 8031, 9873, 11964], "poas": ["3211", "3212", "3213", "3214", "3215", "3216", "3217", "3218", "3219", "3220", "3222", "3223", "3224", "3226", "3227", "3331", "3332"]}}, {"type": "Feature", "geometry": {"type": "Point", "coordinates": [150.79828, -34.46363]}, "properties": {"rank": 22, "id": "WASTNSW785", "name": "Whytes Gully Waste Disposal Facility", "owner": "Wollongong City Council", "type": "TRANSFER STATION; LANDFILL \u2013 PUTRESCIBLE; E-WASTE DROP-OFF FACILITY", "state": "NSW", "suburb": "Kembla Grange", "in_capital": false, "tonnes": [18.2, 25.2, 34.3, 46.0, 60.7, 79.1, 101.6, 128.8, 161.0, 198.6], "panels": [1109, 1522, 2054, 2731, 3579, 4622, 5886, 7393, 9160, 11198], "poas": ["2500", "2502", "2505", "2506", "2515", "2516", "2517", "2518", "2519", "2525", "2526", "2527", "2528", "2529", "2530", "2533"]}}, {"type": "Feature", "geometry": {"type": "Point", "coordinates": [151.29178, -33.50396]}, "properties": {"rank": 23, "id": "WASTNSW1723", "name": "Woy Woy Landfill", "owner": "Central Coast Council", "type": "LANDFILL \u2013 PUTRESCIBLE", "state": "NSW", "suburb": "Woy Woy", "in_capital": true, "tonnes": [25.3, 34.6, 46.6, 61.9, 81.1, 104.8, 133.7, 168.3, 209.3, 256.8], "panels": [1550, 2104, 2812, 3704, 4810, 6162, 7790, 9718, 11967, 14545], "poas": ["2079", "2080", "2081", "2082", "2083", "2084", "2085", "2097", "2099", "2101", "2102", "2103", "2104", "2105", "2106", "2107", "2108", "2157", "2159", "2250", "2251", "2256", "2257", "2258", "2260", "2261"]}}, {"type": "Feature", "geometry": {"type": "Point", "coordinates": [115.7989, -31.68263]}, "properties": {"rank": 24, "id": "WASTWA820", "name": "Alkina Holdings", "owner": "Alkina Holdings Pty Ltd", "type": "TRANSFER STATION", "state": "WA", "suburb": "Neerabup", "in_capital": true, "tonnes": [56.9, 78.7, 106.8, 142.5, 187.1, 241.7, 307.5, 385.5, 476.2, 579.9], "panels": [3426, 4712, 6359, 8433, 11001, 14123, 17856, 22241, 27298, 33020], "poas": ["6020", "6022", "6023", "6024", "6025", "6026", "6027", "6028", "6029", "6030", "6031", "6032", "6033", "6034", "6035", "6036", "6037", "6038", "6064", "6065", "6066", "6067", "6068", "6069", "6077", "6078", "6079", "6084", "6501"]}}, {"type": "Feature", "geometry": {"type": "Point", "coordinates": [145.58408, -16.86977]}, "properties": {"rank": 25, "id": "WASTQLD726", "name": "Kuranda Transfer Station", "owner": "Mareeba Shire Council", "type": "TRANSFER STATION", "state": "QLD", "suburb": "Koah", "in_capital": false, "tonnes": [20.2, 28.2, 38.5, 51.8, 68.4, 89.1, 114.3, 144.5, 180.1, 221.3], "panels": [1212, 1679, 2281, 3045, 4001, 5174, 6591, 8275, 10239, 12490], "poas": ["4868", "4869", "4870", "4878", "4879", "4880", "4881"]}}, {"type": "Feature", "geometry": {"type": "Point", "coordinates": [152.61997, -25.53289]}, "properties": {"rank": 26, "id": "WASTQLD1455", "name": "Yengarie Transfer Station", "owner": "Fraser Coast Regional Council", "type": "TRANSFER STATION", "state": "QLD", "suburb": "Oakhurst", "in_capital": false, "tonnes": [20.6, 28.1, 37.6, 49.6, 64.3, 82.2, 103.5, 128.5, 157.3, 189.9], "panels": [1253, 1702, 2269, 2974, 3837, 4874, 6099, 7523, 9146, 10961], "poas": ["4650", "4655", "4659", "4662"]}}, {"type": "Feature", "geometry": {"type": "Point", "coordinates": [151.92681, -27.76413]}, "properties": {"rank": 27, "id": "WASTQLD558", "name": "Greenmount Waste Management Facility", "owner": "Toowoomba Regional Council", "type": "TRANSFER STATION; LANDFILL \u2013 PUTRESCIBLE", "state": "QLD", "suburb": "East Greenmount", "in_capital": false, "tonnes": [19.2, 26.4, 35.6, 47.2, 61.6, 79.1, 100.2, 124.9, 153.5, 186.1], "panels": [1166, 1594, 2138, 2819, 3657, 4669, 5872, 7277, 8888, 10699], "poas": ["4350", "4352", "4358", "4359", "4360", "4361", "4363"]}}, {"type": "Feature", "geometry": {"type": "Point", "coordinates": [153.26188, -28.82292]}, "properties": {"rank": 28, "id": "WASTNSW877", "name": "Cleanaway Lismore", "owner": "Cleanaway", "type": "TRANSFER STATION", "state": "NSW", "suburb": "South Lismore", "in_capital": false, "tonnes": [18.4, 25.0, 33.5, 44.1, 57.3, 73.2, 92.3, 114.6, 140.5, 169.7], "panels": [1127, 1525, 2028, 2655, 3422, 4345, 5437, 6707, 8157, 9782], "poas": ["2470", "2471", "2477", "2478", "2480"]}}, {"type": "Feature", "geometry": {"type": "Point", "coordinates": [152.20627, -24.98703]}, "properties": {"rank": 29, "id": "WASTQLD1180", "name": "Bundaberg Regional Landfill", "owner": "Bundaberg Regional Council", "type": "LANDFILL \u2013 PUTRESCIBLE", "state": "QLD", "suburb": "South Bingera", "in_capital": false, "tonnes": [17.6, 24.0, 32.3, 42.6, 55.2, 70.6, 88.9, 110.2, 134.8, 162.4], "panels": [1068, 1454, 1943, 2551, 3294, 4186, 5240, 6462, 7851, 9400], "poas": ["4660", "4670"]}}, {"type": "Feature", "geometry": {"type": "Point", "coordinates": [150.6603, -33.80743]}, "properties": {"rank": 30, "id": "WASTNSW1040", "name": "Penrith Waste Services Pty Ltd", "owner": "Penrith Waste Services Pty Ltd", "type": "LANDFILL \u2013 PUTRESCIBLE", "state": "NSW", "suburb": "Mulgoa", "in_capital": true, "tonnes": [34.0, 47.2, 64.7, 87.5, 116.6, 153.3, 198.8, 254.5, 321.5, 400.7], "panels": [2056, 2837, 3853, 5159, 6811, 8869, 11393, 14441, 18063, 22298], "poas": ["2178", "2555", "2556", "2557", "2567", "2745", "2747", "2748", "2749", "2750", "2752", "2753", "2754", "2757", "2759", "2760", "2761", "2765", "2770", "2773", "2774", "2776", "2777", "2778", "2779", "2782", "2783", "2784"]}}, {"type": "Feature", "geometry": {"type": "Point", "coordinates": [144.60331, -37.70008]}, "properties": {"rank": 31, "id": "WASTVIC746", "name": "Melton Recycling Centre", "owner": "Melton Shire Council", "type": "TRANSFER STATION", "state": "VIC", "suburb": "Cobblebank", "in_capital": true, "tonnes": [45.1, 62.8, 85.9, 115.6, 153.2, 200.0, 257.3, 326.4, 408.3, 503.7], "panels": [2715, 3754, 5100, 6813, 8961, 11610, 14823, 18657, 23153, 28335], "poas": ["3021", "3023", "3024", "3027", "3029", "3030", "3036", "3037", "3038", "3045", "3063", "3335", "3336", "3337", "3338", "3340", "3341", "3427", "3428", "3429", "3430", "3431", "3437", "3438"]}}, {"type": "Feature", "geometry": {"type": "Point", "coordinates": [138.76119, -35.18183]}, "properties": {"rank": 32, "id": "WASTSA406", "name": "Meadows Waste Depot", "owner": "Mount Barker District Council", "type": "TRANSFER STATION", "state": "SA", "suburb": "Meadows", "in_capital": true, "tonnes": [37.8, 51.2, 68.1, 89.2, 114.9, 145.8, 182.3, 224.7, 273.0, 327.1], "panels": [2308, 3112, 4122, 5367, 6878, 8681, 10793, 13224, 15969, 19007], "poas": ["5153", "5157", "5162", "5163", "5164", "5165", "5167", "5168", "5169", "5170", "5171", "5172", "5173", "5201", "5245", "5250", "5251", "5252", "5255"]}}, {"type": "Feature", "geometry": {"type": "Point", "coordinates": [148.96509, -21.35801]}, "properties": {"rank": 33, "id": "WASTQLD468", "name": "Hogans Pocket Landfill", "owner": "Mackay Regional Council", "type": "LANDFILL \u2013 PUTRESCIBLE", "state": "QLD", "suburb": "Eton", "in_capital": false, "tonnes": [13.3, 18.5, 25.3, 34.0, 44.8, 58.2, 74.5, 94.0, 116.8, 143.1], "panels": [798, 1105, 1501, 2002, 2626, 3390, 4310, 5400, 6666, 8112], "poas": ["4737", "4740", "4751", "4753", "4754"]}}, {"type": "Feature", "geometry": {"type": "Point", "coordinates": [146.90611, -36.11802]}, "properties": {"rank": 34, "id": "WASTVIC1272", "name": "Wodonga Transfer Station", "owner": "Wodonga Council", "type": "TRANSFER STATION; E-WASTE DROP-OFF FACILITY", "state": "VIC", "suburb": "Wodonga", "in_capital": false, "tonnes": [12.2, 16.9, 23.0, 30.7, 40.4, 52.4, 66.9, 84.3, 104.7, 128.2], "panels": [737, 1013, 1367, 1816, 2373, 3055, 3875, 4845, 5972, 7258], "poas": ["2640", "2641", "3683", "3688", "3690", "3691", "3695", "3749"]}}, {"type": "Feature", "geometry": {"type": "Point", "coordinates": [144.24664, -36.72781]}, "properties": {"rank": 35, "id": "WASTVIC432", "name": "Eaglehawk Transfer Station", "owner": "Greater Bendigo City Council", "type": "TRANSFER STATION; LANDFILL \u2013 PUTRESCIBLE", "state": "VIC", "suburb": "Eaglehawk", "in_capital": false, "tonnes": [12.2, 16.8, 22.8, 30.4, 39.8, 51.4, 65.3, 81.7, 100.9, 122.7], "panels": [735, 1010, 1361, 1803, 2349, 3012, 3804, 4732, 5802, 7010], "poas": ["3453", "3515", "3516", "3550", "3551", "3555", "3556", "3557", "3570"]}}, {"type": "Feature", "geometry": {"type": "Point", "coordinates": [150.70424, -23.15472]}, "properties": {"rank": 36, "id": "WASTQLD80", "name": "Yeppoon Landfill", "owner": "Livingstone Shire Council", "type": "TRANSFER STATION; LANDFILL \u2013 PUTRESCIBLE", "state": "QLD", "suburb": "Barmaryee", "in_capital": false, "tonnes": [12.3, 16.9, 22.8, 30.2, 39.4, 50.6, 64.1, 80.0, 98.3, 119.2], "panels": [744, 1018, 1367, 1803, 2340, 2989, 3761, 4662, 5695, 6858], "poas": ["4700", "4701", "4703", "4710", "4711"]}}, {"type": "Feature", "geometry": {"type": "Point", "coordinates": [115.7895, -33.42634]}, "properties": {"rank": 37, "id": "WASTWA310", "name": "Dardanup Waste Transfer Station", "owner": "Dardanup Shire Council", "type": "TRANSFER STATION", "state": "WA", "suburb": "Crooked Brook", "in_capital": false, "tonnes": [11.8, 16.2, 21.9, 28.9, 37.7, 48.3, 61.1, 76.1, 93.5, 113.2], "panels": [719, 980, 1312, 1727, 2236, 2850, 3579, 4429, 5402, 6494], "poas": ["6223", "6224", "6226", "6227", "6228", "6229", "6230", "6232", "6233", "6236", "6237", "6239", "6240", "6271"]}}, {"type": "Feature", "geometry": {"type": "Point", "coordinates": [151.74589, -32.73106]}, "properties": {"rank": 38, "id": "WASTNSW1244", "name": "Suez Raymond Terrace Landfill", "owner": "Suez Australia Pty Ltd", "type": "LANDFILL \u2013 PUTRESCIBLE", "state": "NSW", "suburb": "Raymond Terrace", "in_capital": false, "tonnes": [13.2, 18.3, 25.0, 33.5, 44.3, 57.8, 74.3, 94.2, 117.9, 145.6], "panels": [802, 1103, 1490, 1984, 2601, 3363, 4287, 5389, 6684, 8178], "poas": ["2293", "2294", "2295", "2296", "2297", "2298", "2300", "2302", "2304", "2307", "2308", "2316", "2318", "2319", "2321", "2322", "2324", "2421"]}}, {"type": "Feature", "geometry": {"type": "Point", "coordinates": [150.50289, -34.72519]}, "properties": {"rank": 39, "id": "WASTNSW769", "name": "Kangaroo Valley Transfer Station", "owner": "Shoalhaven City Council", "type": "TRANSFER STATION", "state": "NSW", "suburb": "Kangaroo Valley", "in_capital": false, "tonnes": [12.3, 16.9, 22.9, 30.6, 40.3, 52.3, 67.0, 84.6, 105.5, 129.7], "panels": [745, 1020, 1372, 1819, 2376, 3060, 3885, 4865, 6010, 7325], "poas": ["2534", "2535", "2540", "2541", "2576", "2577", "2578"]}}, {"type": "Feature", "geometry": {"type": "Point", "coordinates": [138.64799, -35.52291]}, "properties": {"rank": 40, "id": "WASTSA275", "name": "Mr Nottle And Ne Deluca-Cardillo", "owner": "Mr Nottle And Ne Deluca-Cardillo", "type": "TRANSFER STATION", "state": "SA", "suburb": "Hindmarsh Valley", "in_capital": false, "tonnes": [12.2, 16.4, 21.7, 28.1, 36.0, 45.3, 56.2, 68.7, 82.8, 98.4], "panels": [752, 1006, 1321, 1707, 2170, 2718, 3353, 4077, 4884, 5767], "poas": ["5174", "5202", "5203", "5210", "5211", "5212", "5213", "5214"]}}, {"type": "Feature", "geometry": {"type": "Point", "coordinates": [143.88606, -37.41473]}, "properties": {"rank": 41, "id": "WASTVIC325", "name": "Creswick Transfer Station", "owner": "Hepburn Shire Council", "type": "TRANSFER STATION", "state": "VIC", "suburb": "Creswick", "in_capital": false, "tonnes": [9.4, 13.1, 17.8, 24.0, 31.6, 41.2, 52.8, 66.7, 83.1, 102.0], "panels": [564, 780, 1059, 1412, 1853, 2395, 3049, 3825, 4729, 5765], "poas": ["3345", "3350", "3352", "3355", "3356", "3357", "3358", "3363", "3364", "3370", "3460"]}}, {"type": "Feature", "geometry": {"type": "Point", "coordinates": [145.86402, -38.22054]}, "properties": {"rank": 42, "id": "WASTVIC673", "name": "Lardner Transfer Station", "owner": "Baw Baw Shire Council", "type": "TRANSFER STATION", "state": "VIC", "suburb": "Lardner", "in_capital": false, "tonnes": [7.6, 10.5, 14.2, 19.0, 24.9, 32.2, 41.1, 51.6, 63.9, 78.0], "panels": [455, 626, 845, 1122, 1464, 1882, 2383, 2973, 3656, 4431], "poas": ["3813", "3814", "3815", "3816", "3818", "3820", "3821", "3822", "3823", "3831", "3945", "3981", "3984", "3987", "3988"]}}, {"type": "Feature", "geometry": {"type": "Point", "coordinates": [152.36315, -27.62807]}, "properties": {"rank": 43, "id": "WASTQLD744", "name": "Laidley Transfer Station", "owner": "Lockyer Valley Regional Council", "type": "TRANSFER STATION", "state": "QLD", "suburb": "Laidley Heights", "in_capital": true, "tonnes": [11.3, 15.5, 20.9, 27.6, 36.0, 46.1, 58.3, 72.6, 89.1, 107.8], "panels": [685, 935, 1253, 1650, 2137, 2725, 3421, 4234, 5162, 6204], "poas": ["4311", "4340", "4341", "4342", "4343", "4344", "4346", "4347"]}}, {"type": "Feature", "geometry": {"type": "Point", "coordinates": [145.38834, -36.34767]}, "properties": {"rank": 44, "id": "WASTVIC1042", "name": "Shepparton Resource Recovery Centre", "owner": "Greater Shepparton City Council", "type": "TRANSFER STATION", "state": "VIC", "suburb": "Shepparton", "in_capital": false, "tonnes": [9.1, 12.6, 17.2, 22.9, 30.2, 39.1, 49.8, 62.6, 77.5, 94.6], "panels": [547, 754, 1019, 1355, 1771, 2278, 2886, 3603, 4431, 5372], "poas": ["3614", "3616", "3617", "3618", "3620", "3629", "3630", "3631", "3633", "3634", "3635", "3647"]}}, {"type": "Feature", "geometry": {"type": "Point", "coordinates": [152.72457, -31.6191]}, "properties": {"rank": 45, "id": "WASTNSW803", "name": "Kew Transfer Station", "owner": "Port Macquarie Hastings Council", "type": "TRANSFER STATION", "state": "NSW", "suburb": "Kew", "in_capital": false, "tonnes": [10.1, 13.8, 18.4, 24.3, 31.6, 40.5, 51.1, 63.6, 78.2, 94.8], "panels": [620, 839, 1116, 1462, 1887, 2400, 3008, 3718, 4532, 5449], "poas": ["2427", "2439", "2443", "2444", "2445"]}}, {"type": "Feature", "geometry": {"type": "Point", "coordinates": [152.65593, -26.16911]}, "properties": {"rank": 46, "id": "WASTQLD574", "name": "Gympie Waste Management Facility", "owner": "Gympie Regional Council", "type": "LANDFILL \u2013 PUTRESCIBLE; E-WASTE DROP-OFF FACILITY", "state": "QLD", "suburb": "Gympie", "in_capital": false, "tonnes": [10.3, 14.0, 18.8, 24.8, 32.1, 41.0, 51.7, 64.1, 78.5, 94.7], "panels": [628, 851, 1134, 1486, 1915, 2432, 3043, 3752, 4561, 5465], "poas": ["4569", "4570", "4571"]}}, {"type": "Feature", "geometry": {"type": "Point", "coordinates": [151.35578, -24.02228]}, "properties": {"rank": 47, "id": "WASTQLD97", "name": "Benaraby Landfill", "owner": "Gladstone Regional Council", "type": "TRANSFER STATION; LANDFILL \u2013 PUTRESCIBLE", "state": "QLD", "suburb": "Benaraby", "in_capital": false, "tonnes": [9.4, 12.9, 17.3, 22.8, 29.5, 37.7, 47.4, 58.8, 71.8, 86.5], "panels": [575, 782, 1044, 1369, 1766, 2243, 2806, 3458, 4201, 5028], "poas": ["4678", "4680"]}}, {"type": "Feature", "geometry": {"type": "Point", "coordinates": [153.07985, -30.3224]}, "properties": {"rank": 48, "id": "WASTNSW372", "name": "Coffs Coast Resource Recovery Facility", "owner": "Coffs Harbour City Council", "type": "TRANSFER STATION; LANDFILL \u2013 PUTRESCIBLE", "state": "NSW", "suburb": "North Boambee Valley", "in_capital": false, "tonnes": [8.3, 11.5, 15.5, 20.7, 27.1, 35.0, 44.6, 56.1, 69.5, 85.0], "panels": [506, 691, 929, 1228, 1599, 2052, 2596, 3237, 3981, 4828], "poas": ["2450", "2452", "2456"]}}, {"type": "Feature", "geometry": {"type": "Point", "coordinates": [140.60506, -34.2572]}, "properties": {"rank": 49, "id": "WASTSA432", "name": "Riverland Resource Recovery Facility", "owner": "Berri Barmera Council", "type": "TRANSFER STATION; LANDFILL \u2013 PUTRESCIBLE", "state": "SA", "suburb": "Monash", "in_capital": false, "tonnes": [8.9, 12.2, 16.3, 21.5, 27.8, 35.3, 44.2, 54.5, 66.1, 79.1], "panels": [538, 732, 977, 1281, 1649, 2089, 2604, 3196, 3862, 4595], "poas": ["5331", "5332", "5333", "5340", "5341", "5342", "5343", "5344", "5345", "5346"]}}, {"type": "Feature", "geometry": {"type": "Point", "coordinates": [145.39501, -37.73826]}, "properties": {"rank": 50, "id": "WASTVIC288", "name": "Coldstream Recovery And Waste Transfer Station", "owner": "Yarra Ranges Shire Council", "type": "TRANSFER STATION", "state": "VIC", "suburb": "Lilydale", "in_capital": true, "tonnes": [27.5, 37.9, 51.3, 68.3, 89.6, 115.7, 147.2, 184.6, 228.3, 278.3], "panels": [1659, 2275, 3063, 4055, 5283, 6776, 8564, 10665, 13092, 15845], "poas": ["3096", "3097", "3099", "3113", "3114", "3115", "3116", "3134", "3135", "3136", "3137", "3138", "3139", "3140", "3153", "3154", "3155", "3156", "3158", "3159", "3160", "3180", "3759", "3760", "3761", "3763", "3765", "3766", "3767", "3770", "3775", "3777", "3778", "3781", "3782", "3785", "3786", "3787", "3788", "3789", "3791", "3792", "3793", "3795", "3796", "3797"]}}, {"type": "Feature", "geometry": {"type": "Point", "coordinates": [148.84485, -32.38884]}, "properties": {"rank": 51, "id": "WASTNSW588", "name": "Geurie Transfer Station", "owner": "Dubbo Regional Council", "type": "TRANSFER STATION", "state": "NSW", "suburb": "Geurie", "in_capital": false, "tonnes": [8.0, 11.0, 14.8, 19.6, 25.5, 32.7, 41.3, 51.5, 63.3, 76.7], "panels": [490, 666, 890, 1170, 1514, 1930, 2423, 2999, 3658, 4400], "poas": ["2818", "2820", "2830"]}}, {"type": "Feature", "geometry": {"type": "Point", "coordinates": [152.49355, -32.12861]}, "properties": {"rank": 52, "id": "WASTNSW1543", "name": "Tuncurry Waste Management Centre", "owner": "Mid-Coast Council", "type": "LANDFILL \u2013 PUTRESCIBLE", "state": "NSW", "suburb": "Darawank", "in_capital": false, "tonnes": [7.9, 10.8, 14.5, 19.1, 24.9, 31.9, 40.4, 50.4, 61.9, 75.1], "panels": [483, 656, 875, 1149, 1485, 1890, 2373, 2936, 3583, 4312], "poas": ["2312", "2428", "2430"]}}, {"type": "Feature", "geometry": {"type": "Point", "coordinates": [139.29499, -34.92695]}, "properties": {"rank": 53, "id": "WASTSA387", "name": "Mannum Transfer Station", "owner": "Mid Murray Council", "type": "TRANSFER STATION", "state": "SA", "suburb": "Mannum", "in_capital": false, "tonnes": [7.4, 10.1, 13.4, 17.6, 22.6, 28.7, 35.9, 44.3, 53.8, 64.4], "panels": [450, 609, 808, 1054, 1352, 1707, 2124, 2603, 3143, 3739], "poas": ["5236", "5237", "5238", "5253", "5254"]}}, {"type": "Feature", "geometry": {"type": "Point", "coordinates": [115.08929, -33.86565]}, "properties": {"rank": 54, "id": "WASTWA289", "name": "Cowaramup Transfer Station", "owner": "Augusta Margaret River Shire Council", "type": "TRANSFER STATION", "state": "WA", "suburb": "Cowaramup", "in_capital": false, "tonnes": [6.9, 9.5, 12.9, 17.1, 22.4, 28.9, 36.8, 46.1, 57.1, 69.6], "panels": [421, 575, 771, 1018, 1324, 1696, 2141, 2666, 3272, 3961], "poas": ["6280", "6281", "6282", "6284", "6285", "6286"]}}, {"type": "Feature", "geometry": {"type": "Point", "coordinates": [146.4264, -38.25421]}, "properties": {"rank": 55, "id": "WASTVIC564", "name": "Morwell Transfer Station", "owner": "Latrobe City Council", "type": "TRANSFER STATION", "state": "VIC", "suburb": "Hazelwood North", "in_capital": false, "tonnes": [7.2, 9.9, 13.3, 17.7, 23.1, 29.7, 37.6, 47.0, 57.7, 70.0], "panels": [433, 594, 798, 1053, 1368, 1748, 2201, 2729, 3334, 4013], "poas": ["3824", "3835", "3840", "3842", "3844", "3854", "3856", "3869", "3870", "3871", "3873"]}}, {"type": "Feature", "geometry": {"type": "Point", "coordinates": [145.16298, -37.27395]}, "properties": {"rank": 56, "id": "WASTVIC641", "name": "Kinglake Resource Recovery Centre", "owner": "Murrindindi Shire Council", "type": "TRANSFER STATION", "state": "VIC", "suburb": "Reedy Creek", "in_capital": false, "tonnes": [6.2, 8.5, 11.6, 15.5, 20.4, 26.4, 33.6, 42.3, 52.4, 64.0], "panels": [371, 511, 690, 916, 1197, 1539, 1950, 2435, 2996, 3635], "poas": ["3658", "3659", "3660", "3717", "3753", "3756", "3757", "3758", "3762", "3764"]}}, {"type": "Feature", "geometry": {"type": "Point", "coordinates": [147.26058, -35.1897]}, "properties": {"rank": 57, "id": "WASTNSW1579", "name": "Uranquinty Rural Transfer Station", "owner": "Wagga Wagga City Council", "type": "TRANSFER STATION", "state": "NSW", "suburb": "Uranquinty", "in_capital": false, "tonnes": [6.2, 8.5, 11.5, 15.4, 20.1, 26.1, 33.2, 41.7, 51.7, 63.2], "panels": [372, 510, 687, 909, 1185, 1522, 1926, 2402, 2954, 3582], "poas": ["2650", "2651", "2655", "2661", "2678"]}}, {"type": "Feature", "geometry": {"type": "Point", "coordinates": [144.45793, -37.2254]}, "properties": {"rank": 58, "id": "WASTVIC651", "name": "Kyneton Transfer Station", "owner": "Macedon Ranges Shire Council", "type": "TRANSFER STATION", "state": "VIC", "suburb": "Kyneton", "in_capital": false, "tonnes": [6.6, 9.2, 12.4, 16.5, 21.6, 27.9, 35.4, 44.3, 54.7, 66.6], "panels": [401, 549, 739, 978, 1273, 1631, 2059, 2561, 3140, 3795], "poas": ["3434", "3435", "3440", "3441", "3442", "3444", "3446", "3447", "3448", "3450", "3451", "3458", "3461"]}}, {"type": "Feature", "geometry": {"type": "Point", "coordinates": [140.55661, -37.68104]}, "properties": {"rank": 59, "id": "WASTSA231", "name": "Glencoe Transfer Station\u00a0", "owner": "Wattle Range Council", "type": "TRANSFER STATION", "state": "SA", "suburb": "Tantanoola", "in_capital": false, "tonnes": [6.0, 8.3, 11.2, 14.9, 19.4, 25.0, 31.5, 39.3, 48.2, 58.3], "panels": [361, 496, 667, 881, 1144, 1462, 1839, 2278, 2779, 3341], "poas": ["5278", "5279", "5280", "5290", "5291"]}}, {"type": "Feature", "geometry": {"type": "Point", "coordinates": [146.20825, -36.46571]}, "properties": {"rank": 60, "id": "WASTVIC527", "name": "Glenrowan Transfer Station", "owner": "Wangaratta Rural City Council", "type": "TRANSFER STATION", "state": "VIC", "suburb": "Glenrowan", "in_capital": false, "tonnes": [5.9, 8.1, 11.0, 14.6, 19.1, 24.6, 31.1, 38.9, 47.9, 58.1], "panels": [358, 490, 659, 870, 1131, 1446, 1822, 2261, 2766, 3334], "poas": ["3672", "3673", "3675", "3677", "3678", "3725", "3726", "3732"]}}, {"type": "Feature", "geometry": {"type": "Point", "coordinates": [150.92679, -31.06325]}, "properties": {"rank": 61, "id": "WASTNSW1442", "name": "Tamworth Landfill", "owner": "Tamworth Regional Council", "type": "TRANSFER STATION; LANDFILL \u2013 PUTRESCIBLE", "state": "NSW", "suburb": "North Tamworth", "in_capital": false, "tonnes": [5.7, 7.9, 10.8, 14.4, 19.0, 24.7, 31.6, 39.9, 49.6, 60.9], "panels": [343, 472, 639, 850, 1113, 1436, 1824, 2285, 2821, 3434], "poas": ["2340", "2344", "2345", "2352", "2353"]}}, {"type": "Feature", "geometry": {"type": "Point", "coordinates": [144.9782, -38.3438]}, "properties": {"rank": 62, "id": "WASTVIC412", "name": "Dromana Hopper", "owner": "Mornington Peninsula Shire Council", "type": "TRANSFER STATION", "state": "VIC", "suburb": "Dromana", "in_capital": true, "tonnes": [12.8, 17.7, 24.0, 32.0, 42.1, 54.4, 69.5, 87.4, 108.3, 132.5], "panels": [772, 1059, 1428, 1893, 2471, 3177, 4025, 5025, 6186, 7508], "poas": ["3915", "3916", "3918", "3919", "3920", "3922", "3926", "3927", "3928", "3929", "3931", "3934", "3936", "3937", "3938", "3939", "3940", "3941", "3942", "3943", "3944"]}}, {"type": "Feature", "geometry": {"type": "Point", "coordinates": [152.23822, -28.08029]}, "properties": {"rank": 63, "id": "WASTQLD822", "name": "Maryvale Transfer Station", "owner": "Southern Downs Regional Council", "type": "TRANSFER STATION", "state": "QLD", "suburb": "Maryvale", "in_capital": false, "tonnes": [5.8, 8.0, 10.7, 14.0, 18.1, 23.1, 28.9, 35.7, 43.5, 52.1], "panels": [355, 483, 643, 842, 1084, 1373, 1712, 2103, 2545, 3034], "poas": ["4309", "4362", "4370", "4371", "4372", "4373"]}}, {"type": "Feature", "geometry": {"type": "Point", "coordinates": [137.76135, -32.9827]}, "properties": {"rank": 64, "id": "WASTSA578", "name": "Santos Landfill", "owner": "Santos Limited", "type": "LANDFILL \u2013 PUTRESCIBLE", "state": "SA", "suburb": "Port Bonython", "in_capital": false, "tonnes": [5.7, 7.8, 10.3, 13.5, 17.2, 21.7, 27.0, 32.9, 39.6, 46.9], "panels": [349, 471, 623, 809, 1033, 1297, 1603, 1951, 2337, 2756], "poas": ["5495", "5600", "5601", "5608", "5609"]}}, {"type": "Feature", "geometry": {"type": "Point", "coordinates": [149.246, -33.55675]}, "properties": {"rank": 65, "id": "WASTNSW188", "name": "Blayney Waste Disposal Facility", "owner": "Blayney Shire Council", "type": "LANDFILL \u2013 PUTRESCIBLE", "state": "NSW", "suburb": "Blayney", "in_capital": false, "tonnes": [5.2, 7.3, 9.9, 13.2, 17.4, 22.6, 28.9, 36.4, 45.3, 55.5], "panels": [316, 434, 586, 779, 1019, 1313, 1667, 2087, 2575, 3134], "poas": ["2791", "2792", "2795", "2797", "2798", "2799"]}}, {"type": "Feature", "geometry": {"type": "Point", "coordinates": [148.90361, -33.05691]}, "properties": {"rank": 66, "id": "WASTNSW995", "name": "Euchareena Road Resource Recovery Centre", "owner": "Orange City Council", "type": "LANDFILL \u2013 PUTRESCIBLE", "state": "NSW", "suburb": "Molong", "in_capital": false, "tonnes": [5.1, 7.1, 9.8, 13.1, 17.4, 22.6, 29.0, 36.7, 45.8, 56.4], "panels": [308, 425, 577, 770, 1011, 1308, 1667, 2094, 2593, 3166], "poas": ["2800", "2865", "2866"]}}, {"type": "Feature", "geometry": {"type": "Point", "coordinates": [147.83629, -37.69604]}, "properties": {"rank": 67, "id": "WASTVIC174", "name": "Bruthen Transfer Station", "owner": "East Gippsland Shire Council", "type": "TRANSFER STATION", "state": "VIC", "suburb": "Bruthen", "in_capital": false, "tonnes": [5.2, 7.2, 9.8, 13.0, 17.0, 21.8, 27.6, 34.5, 42.4, 51.4], "panels": [315, 433, 583, 771, 1002, 1282, 1615, 2003, 2448, 2948], "poas": ["3875", "3878", "3880", "3882", "3887", "3893", "3902", "3903", "3904", "3909"]}}, {"type": "Feature", "geometry": {"type": "Point", "coordinates": [152.95546, -27.11798]}, "properties": {"rank": 68, "id": "WASTQLD878", "name": "Officeworks", "owner": "Officeworks", "type": "E-WASTE DROP-OFF FACILITY", "state": "QLD", "suburb": "Morayfield", "in_capital": true, "tonnes": [68.2, 93.7, 126.4, 167.6, 218.5, 280.3, 354.3, 441.2, 541.4, 654.8], "panels": [4115, 5632, 7561, 9971, 12930, 16502, 20739, 25672, 31312, 37631], "poas": ["4017", "4019", "4020", "4021", "4022", "4036", "4500", "4501", "4502", "4503", "4504", "4505", "4506", "4508", "4509", "4510", "4512", "4514", "4520", "4521"]}}, {"type": "Feature", "geometry": {"type": "Point", "coordinates": [152.92238, -29.76722]}, "properties": {"rank": 69, "id": "WASTNSW1351", "name": "Grafton Resource Recovery Facility", "owner": "Clarence Valley Council", "type": "TRANSFER STATION; LANDFILL \u2013 PUTRESCIBLE", "state": "NSW", "suburb": "Elland", "in_capital": false, "tonnes": [5.2, 7.0, 9.5, 12.5, 16.3, 20.8, 26.3, 32.7, 40.2, 48.6], "panels": [314, 427, 570, 748, 966, 1230, 1542, 1906, 2323, 2791], "poas": ["2460", "2462"]}}, {"type": "Feature", "geometry": {"type": "Point", "coordinates": [138.24213, -33.33319]}, "properties": {"rank": 70, "id": "WASTSA144", "name": "Crystal Brooke Transfer Station", "owner": "Port Pirie Regional Council", "type": "TRANSFER STATION", "state": "SA", "suburb": "Crystal Brook", "in_capital": false, "tonnes": [5.3, 7.1, 9.5, 12.4, 15.9, 20.1, 25.0, 30.6, 36.8, 43.7], "panels": [321, 434, 575, 748, 957, 1203, 1489, 1815, 2177, 2570], "poas": ["5471", "5472", "5473", "5480", "5490", "5521", "5523", "5540"]}}, {"type": "Feature", "geometry": {"type": "Point", "coordinates": [142.07795, -34.09023]}, "properties": {"rank": 71, "id": "WASTNSW399", "name": "Dareton Transfer Station", "owner": "Wentworth Shire Council", "type": "TRANSFER STATION", "state": "NSW", "suburb": "Coomealla", "in_capital": false, "tonnes": [4.7, 6.7, 9.3, 12.6, 16.8, 22.1, 28.6, 36.4, 45.6, 56.3], "panels": [280, 393, 540, 730, 970, 1266, 1627, 2058, 2565, 3148], "poas": ["2717", "2739", "3498", "3500", "3505"]}}, {"type": "Feature", "geometry": {"type": "Point", "coordinates": [144.37574, -35.96159]}, "properties": {"rank": 72, "id": "WASTVIC539", "name": "Gunbower Resource Recovery Centre", "owner": "Campaspe Shire Council", "type": "TRANSFER STATION", "state": "VIC", "suburb": "Gunbower", "in_capital": false, "tonnes": [4.7, 6.6, 9.0, 12.1, 15.9, 20.7, 26.4, 33.2, 41.2, 50.3], "panels": [281, 390, 530, 708, 928, 1198, 1522, 1904, 2347, 2849], "poas": ["2731", "3562", "3564", "3565", "3566", "3567", "3568", "3573", "3575"]}}, {"type": "Feature", "geometry": {"type": "Point", "coordinates": [137.59914, -34.06352]}, "properties": {"rank": 73, "id": "WASTSA438", "name": "Copper Coast Recycling", "owner": "Copper Coast Recycling Pty Ltd", "type": "TRANSFER STATION", "state": "SA", "suburb": "North Moonta", "in_capital": false, "tonnes": [5.0, 6.7, 9.0, 11.7, 15.1, 19.1, 23.8, 29.3, 35.4, 42.3], "panels": [302, 408, 541, 705, 903, 1139, 1414, 1728, 2082, 2471], "poas": ["5552", "5554", "5556", "5558", "5572"]}}, {"type": "Feature", "geometry": {"type": "Point", "coordinates": [150.38261, -35.5372]}, "properties": {"rank": 74, "id": "WASTNSW126", "name": "Kioloa Transfer Station", "owner": "Shoalhaven City Council", "type": "TRANSFER STATION", "state": "NSW", "suburb": "Bawley Point", "in_capital": false, "tonnes": [4.6, 6.3, 8.5, 11.3, 14.8, 19.1, 24.4, 30.7, 38.2, 46.8], "panels": [280, 381, 510, 673, 875, 1123, 1421, 1773, 2183, 2653], "poas": ["2536", "2538", "2539"]}}, {"type": "Feature", "geometry": {"type": "Point", "coordinates": [146.10109, -41.15558]}, "properties": {"rank": 75, "id": "WASTTAS162", "name": "Lobster Creek Resource Recovery Centre", "owner": "Central Coast Council", "type": "TRANSFER STATION; LANDFILL \u2013 PUTRESCIBLE", "state": "TAS", "suburb": "West Ulverstone", "in_capital": false, "tonnes": [4.4, 6.1, 8.3, 11.1, 14.6, 18.9, 24.0, 30.0, 37.0, 44.9], "panels": [260, 360, 489, 650, 850, 1092, 1382, 1721, 2111, 2550], "poas": ["7310", "7315", "7316", "7320", "7322"]}}, {"type": "Feature", "geometry": {"type": "Point", "coordinates": [145.69608, -35.95531]}, "properties": {"rank": 76, "id": "WASTVIC267", "name": "Cobram Transfer Station", "owner": "Moira Shire Council", "type": "TRANSFER STATION; LANDFILL \u2013 PUTRESCIBLE", "state": "VIC", "suburb": "Cobram East", "in_capital": false, "tonnes": [5.3, 7.4, 10.0, 13.4, 17.5, 22.6, 28.7, 35.9, 44.2, 53.6], "panels": [320, 441, 595, 790, 1030, 1321, 1668, 2073, 2538, 3062], "poas": ["3636", "3640", "3641", "3644", "3649", "3730"]}}, {"type": "Feature", "geometry": {"type": "Point", "coordinates": [150.59547, -34.27635]}, "properties": {"rank": 77, "id": "WASTNSW98", "name": "Bargo Waste Management Centre", "owner": "Wollondilly Shire Council", "type": "TRANSFER STATION; E-WASTE DROP-OFF FACILITY", "state": "NSW", "suburb": "Bargo", "in_capital": true, "tonnes": [13.5, 18.7, 25.6, 34.6, 46.0, 60.5, 78.3, 100.1, 126.2, 157.1], "panels": [815, 1124, 1526, 2042, 2694, 3504, 4496, 5691, 7108, 8761], "poas": ["2560", "2563", "2568", "2569", "2570", "2571", "2572", "2573", "2574", "2575"]}}, {"type": "Feature", "geometry": {"type": "Point", "coordinates": [145.97864, -34.59301]}, "properties": {"rank": 78, "id": "WASTNSW443", "name": "Darlington Point Waste Depot", "owner": "Murrumbidgee Council", "type": "LANDFILL \u2013 PUTRESCIBLE", "state": "NSW", "suburb": "Darlington Point", "in_capital": false, "tonnes": [4.1, 5.7, 7.8, 10.4, 13.7, 17.7, 22.6, 28.4, 35.1, 42.8], "panels": [248, 342, 463, 614, 803, 1032, 1307, 1631, 2005, 2430], "poas": ["2680", "2706", "2707"]}}, {"type": "Feature", "geometry": {"type": "Point", "coordinates": [149.93041, -36.76202]}, "properties": {"rank": 79, "id": "WASTNSW1615", "name": "Wallagoot Waste Transfer Depot", "owner": "Bega Valley Shire Council", "type": "TRANSFER STATION", "state": "NSW", "suburb": "Wallagoot", "in_capital": false, "tonnes": [4.4, 5.9, 7.9, 10.3, 13.2, 16.7, 20.9, 25.8, 31.4, 37.7], "panels": [271, 362, 477, 619, 790, 995, 1235, 1513, 1827, 2177], "poas": ["2548", "2549", "2550"]}}, {"type": "Feature", "geometry": {"type": "Point", "coordinates": [151.81992, -26.44569]}, "properties": {"rank": 80, "id": "WASTQLD830", "name": "Memerambi Transfer Station", "owner": "South Burnett Regional Council", "type": "TRANSFER STATION", "state": "QLD", "suburb": "Memerambi", "in_capital": false, "tonnes": [4.3, 5.8, 7.8, 10.3, 13.3, 16.9, 21.2, 26.2, 32.0, 38.4], "panels": [262, 354, 471, 616, 793, 1004, 1253, 1540, 1866, 2228], "poas": ["4606", "4608", "4610", "4615"]}}, {"type": "Feature", "geometry": {"type": "Point", "coordinates": [114.66946, -28.80378]}, "properties": {"rank": 81, "id": "WASTWA791", "name": "Veolia Transfer Station Meru", "owner": "Veolia", "type": "TRANSFER STATION", "state": "WA", "suburb": "Narngulu", "in_capital": false, "tonnes": [4.1, 5.6, 7.6, 10.0, 13.0, 16.7, 21.0, 26.1, 31.9, 38.5], "panels": [250, 341, 456, 599, 775, 985, 1234, 1523, 1852, 2218], "poas": ["6528", "6530"]}}, {"type": "Feature", "geometry": {"type": "Point", "coordinates": [150.05199, -33.63712]}, "properties": {"rank": 82, "id": "WASTNSW689", "name": "Hampton Transfer Station", "owner": "Lithgow City Council", "type": "TRANSFER STATION", "state": "NSW", "suburb": "Hampton", "in_capital": false, "tonnes": [4.0, 5.5, 7.4, 9.7, 12.6, 16.2, 20.5, 25.7, 31.6, 38.5], "panels": [247, 334, 444, 582, 752, 958, 1203, 1490, 1822, 2198], "poas": ["2780", "2785", "2786", "2787", "2790", "2845"]}}, {"type": "Feature", "geometry": {"type": "Point", "coordinates": [147.0909, -37.95992]}, "properties": {"rank": 83, "id": "WASTVIC1103", "name": "Stratford Transfer Station", "owner": "Wellington Shire Council", "type": "TRANSFER STATION", "state": "VIC", "suburb": "Stratford", "in_capital": false, "tonnes": [4.0, 5.5, 7.4, 9.7, 12.7, 16.2, 20.5, 25.5, 31.2, 37.6], "panels": [241, 329, 441, 581, 752, 958, 1202, 1486, 1809, 2169], "poas": ["3850", "3851", "3852", "3859", "3860", "3864"]}}, {"type": "Feature", "geometry": {"type": "Point", "coordinates": [138.5043, -34.27815]}, "properties": {"rank": 84, "id": "WASTSA529", "name": "Owen Transfer Station", "owner": "Wakefield Regional Council", "type": "TRANSFER STATION", "state": "SA", "suburb": "Owen", "in_capital": false, "tonnes": [4.5, 6.1, 8.2, 10.8, 14.0, 17.9, 22.5, 27.9, 34.1, 41.1], "panels": [274, 371, 494, 647, 834, 1058, 1323, 1631, 1981, 2373], "poas": ["5401", "5410", "5411", "5412", "5460", "5461", "5501", "5502"]}}, {"type": "Feature", "geometry": {"type": "Point", "coordinates": [151.38565, -32.81998]}, "properties": {"rank": 85, "id": "WASTNSW341", "name": "Cessnock Waste And Reuse Centre", "owner": "Cessnock City Council", "type": "TRANSFER STATION; LANDFILL \u2013 PUTRESCIBLE", "state": "NSW", "suburb": "Cessnock", "in_capital": false, "tonnes": [10.5, 14.7, 20.1, 27.2, 36.2, 47.5, 61.3, 78.1, 98.1, 121.6], "panels": [633, 876, 1193, 1599, 2110, 2743, 3515, 4441, 5533, 6800], "poas": ["2320", "2323", "2325", "2326", "2327", "2331", "2334", "2335"]}}, {"type": "Feature", "geometry": {"type": "Point", "coordinates": [153.5121, -28.59013]}, "properties": {"rank": 86, "id": "WASTNSW1066", "name": "Myocum Resource Recovery Centre", "owner": "Byron Shire Council", "type": "TRANSFER STATION; LANDFILL \u2013 PUTRESCIBLE", "state": "NSW", "suburb": "Myocum", "in_capital": false, "tonnes": [6.9, 9.3, 12.5, 16.5, 21.5, 27.5, 34.7, 43.3, 53.2, 64.5], "panels": [419, 567, 755, 989, 1277, 1624, 2037, 2518, 3072, 3696], "poas": ["2479", "2481", "2482", "2483"]}}, {"type": "Feature", "geometry": {"type": "Point", "coordinates": [145.60713, -17.33007]}, "properties": {"rank": 87, "id": "WASTQLD789", "name": "Malanda Transfer Station", "owner": "Tablelands Regional Council", "type": "TRANSFER STATION", "state": "QLD", "suburb": "Kureen", "in_capital": false, "tonnes": [3.7, 5.2, 7.0, 9.4, 12.3, 15.9, 20.3, 25.4, 31.5, 38.4], "panels": [225, 310, 419, 556, 727, 934, 1182, 1474, 1811, 2194], "poas": ["4860", "4882", "4883", "4884", "4885", "4886"]}}, {"type": "Feature", "geometry": {"type": "Point", "coordinates": [137.78229, -32.48289]}, "properties": {"rank": 88, "id": "WASTSA572", "name": "Ga Carn", "owner": "Graeme Albert Carn", "type": "TRANSFER STATION", "state": "SA", "suburb": "Port Augusta", "in_capital": false, "tonnes": [4.0, 5.4, 7.1, 9.2, 11.8, 14.8, 18.3, 22.3, 26.8, 31.7], "panels": [244, 327, 430, 555, 706, 884, 1089, 1322, 1581, 1862], "poas": ["5700", "5710"]}}, {"type": "Feature", "geometry": {"type": "Point", "coordinates": [152.44468, -31.62863]}, "properties": {"rank": 89, "id": "WASTNSW382", "name": "Comboyne Transfer Station", "owner": "Port Macquarie Hastings Council", "type": "TRANSFER STATION", "state": "NSW", "suburb": "Comboyne", "in_capital": false, "tonnes": [3.9, 5.3, 7.1, 9.4, 12.2, 15.6, 19.7, 24.5, 30.1, 36.4], "panels": [240, 324, 431, 565, 729, 926, 1159, 1432, 1743, 2093], "poas": ["2426", "2429", "2446"]}}, {"type": "Feature", "geometry": {"type": "Point", "coordinates": [152.50245, -30.81306]}, "properties": {"rank": 90, "id": "WASTNSW135", "name": "Bellbrook Waste Transfer Station", "owner": "Kempsey Shire Council", "type": "TRANSFER STATION", "state": "NSW", "suburb": "Bellbrook", "in_capital": false, "tonnes": [3.7, 5.1, 6.9, 9.2, 12.0, 15.5, 19.7, 24.6, 30.4, 37.0], "panels": [226, 308, 414, 546, 710, 909, 1146, 1425, 1746, 2109], "poas": ["2440", "2447"]}}, {"type": "Feature", "geometry": {"type": "Point", "coordinates": [143.97413, -38.23905]}, "properties": {"rank": 91, "id": "WASTVIC1267", "name": "Winchelsea Transfer Station", "owner": "Surf Coast Shire Council", "type": "TRANSFER STATION", "state": "VIC", "suburb": "Winchelsea", "in_capital": false, "tonnes": [4.7, 6.4, 8.7, 11.5, 15.0, 19.3, 24.5, 30.6, 37.8, 45.9], "panels": [284, 388, 520, 685, 889, 1137, 1432, 1778, 2176, 2626], "poas": ["3221", "3228", "3230", "3231", "3235", "3240", "3241", "3242", "3243", "3251", "3321", "3328", "3329"]}}, {"type": "Feature", "geometry": {"type": "Point", "coordinates": [145.92222, -38.55833]}, "properties": {"rank": 92, "id": "WASTVIC644", "name": "Koonwarra Landfill", "owner": "South Gippsland Shire Council", "type": "LANDFILL \u2013 PUTRESCIBLE", "state": "VIC", "suburb": "Koonwarra", "in_capital": false, "tonnes": [5.7, 7.8, 10.5, 14.0, 18.3, 23.5, 29.8, 37.2, 45.8, 55.6], "panels": [342, 469, 630, 832, 1081, 1382, 1741, 2160, 2642, 3184], "poas": ["3946", "3950", "3951", "3953", "3954", "3956", "3957", "3958", "3959", "3979", "3992", "3995", "3996"]}}, {"type": "Feature", "geometry": {"type": "Point", "coordinates": [146.429, -35.95044]}, "properties": {"rank": 93, "id": "WASTNSW417", "name": "Corowa Waste Management Centre", "owner": "Federation Council", "type": "TRANSFER STATION; LANDFILL \u2013 PUTRESCIBLE", "state": "NSW", "suburb": "Hopefield", "in_capital": false, "tonnes": [3.8, 5.2, 6.9, 9.1, 11.7, 14.8, 18.6, 22.8, 27.7, 33.1], "panels": [231, 313, 416, 543, 698, 881, 1096, 1343, 1620, 1925], "poas": ["2643", "2646", "3682", "3685", "3687"]}}, {"type": "Feature", "geometry": {"type": "Point", "coordinates": [147.29422, -19.73685]}, "properties": {"rank": 94, "id": "WASTQLD617", "name": "Kirknie Road Landfill", "owner": "Burdekin Shire Council", "type": "LANDFILL \u2013 PUTRESCIBLE", "state": "QLD", "suburb": "Kirknie", "in_capital": false, "tonnes": [3.4, 4.8, 6.6, 8.8, 11.6, 15.1, 19.3, 24.3, 30.1, 36.9], "panels": [206, 286, 388, 518, 679, 876, 1114, 1394, 1719, 2089], "poas": ["4806", "4807", "4808"]}}, {"type": "Feature", "geometry": {"type": "Point", "coordinates": [149.99571, -34.71603]}, "properties": {"rank": 95, "id": "WASTNSW933", "name": "Marulan Waste Management Centre", "owner": "Goulburn Mulwaree Shire Council", "type": "TRANSFER STATION; LANDFILL \u2013 PUTRESCIBLE", "state": "NSW", "suburb": "Marulan", "in_capital": false, "tonnes": [3.5, 4.8, 6.5, 8.7, 11.4, 14.8, 18.8, 23.6, 29.3, 35.9], "panels": [214, 292, 392, 517, 673, 863, 1091, 1361, 1675, 2033], "poas": ["2579", "2580"]}}, {"type": "Feature", "geometry": {"type": "Point", "coordinates": [142.64384, -38.30621]}, "properties": {"rank": 96, "id": "WASTVIC500", "name": "Framlingham Transfer Station", "owner": "Framlingham Aboriginal Trust", "type": "TRANSFER STATION", "state": "VIC", "suburb": "Framlingham", "in_capital": false, "tonnes": [3.2, 4.4, 6.1, 8.1, 10.8, 14.0, 17.9, 22.5, 28.0, 34.3], "panels": [192, 265, 360, 481, 631, 814, 1036, 1297, 1601, 1948], "poas": ["3264", "3265", "3275", "3276", "3277", "3278", "3279", "3280", "3281", "3282"]}}, {"type": "Feature", "geometry": {"type": "Point", "coordinates": [148.67401, -20.28391]}, "properties": {"rank": 97, "id": "WASTQLD262", "name": "Cannonvale Transfer Station", "owner": "Whitsunday Regional Council", "type": "TRANSFER STATION; E-WASTE DROP-OFF FACILITY", "state": "QLD", "suburb": "Cannonvale", "in_capital": false, "tonnes": [3.1, 4.4, 6.0, 8.1, 10.8, 14.1, 18.2, 23.2, 29.0, 35.8], "panels": [185, 257, 352, 473, 626, 814, 1043, 1317, 1638, 2008], "poas": ["4800", "4802"]}}, {"type": "Feature", "geometry": {"type": "Point", "coordinates": [135.86049, -34.7314]}, "properties": {"rank": 98, "id": "WASTSA586", "name": "Harvey Norman", "owner": "Harvey Norman", "type": "E-WASTE DROP-OFF FACILITY", "state": "SA", "suburb": "Port Lincoln", "in_capital": false, "tonnes": [3.2, 4.4, 5.9, 7.7, 9.9, 12.5, 15.6, 19.1, 23.1, 27.4], "panels": [196, 266, 353, 460, 590, 743, 922, 1127, 1355, 1605], "poas": ["5606"]}}, {"type": "Feature", "geometry": {"type": "Point", "coordinates": [153.35758, -29.38721]}, "properties": {"rank": 99, "id": "WASTNSW730", "name": "Iluka Waste Transfer Station", "owner": "Clarence Valley Council", "type": "TRANSFER STATION", "state": "NSW", "suburb": "Iluka", "in_capital": false, "tonnes": [3.1, 4.3, 5.8, 7.6, 9.9, 12.8, 16.1, 20.2, 24.8, 30.1], "panels": [192, 261, 348, 457, 592, 754, 947, 1174, 1434, 1727], "poas": ["2463", "2464", "2465", "2466", "2472"]}}, {"type": "Feature", "geometry": {"type": "Point", "coordinates": [152.8911, -30.45916]}, "properties": {"rank": 100, "id": "WASTNSW136", "name": "Bellingen Transfer Station", "owner": "Bellingen Shire Council", "type": "TRANSFER STATION", "state": "NSW", "suburb": "Bellingen", "in_capital": false, "tonnes": [3.6, 4.9, 6.5, 8.5, 11.0, 13.9, 17.4, 21.5, 26.2, 31.5], "panels": [224, 301, 397, 516, 660, 832, 1033, 1266, 1530, 1824], "poas": ["2448", "2449", "2454", "2455"]}}]}
