{"type": "FeatureCollection", "years": [2026, 2027, 2028, 2029, 2030, 2031, 2032, 2033, 2034, 2035], "features": [{"type": "Feature", "geometry": {"type": "Point", "coordinates": [149.08881, -35.35056]}, "properties": {"rank": 1, "id": "WASTACT61", "name": "Philip Recycling Drop Off Centre", "owner": "Act Government", "type": "TRANSFER STATION", "state": "ACT", "suburb": "Phillip", "in_capital": true, "tonnes": [172.6, 208.8, 247.8, 288.8, 331.1, 374.0, 416.9, 459.3, 500.7, 540.5], "panels": [9536, 11379, 13352, 15409, 17517, 19644, 21763, 23844, 25863, 27794], "poas": ["2601", "2603", "2605", "2606", "2607", "2611", "2614", "2615", "2617", "2618", "2620", "2900", "2902", "2903", "2904", "2905", "2906"]}}, {"type": "Feature", "geometry": {"type": "Point", "coordinates": [149.1799, -35.33068]}, "properties": {"rank": 2, "id": "WASTACT18", "name": "Domayne Fyshwick", "owner": "Domayne", "type": "E-WASTE DROP-OFF FACILITY", "state": "ACT", "suburb": "Fyshwick", "in_capital": true, "tonnes": [78.9, 96.8, 116.2, 136.6, 157.8, 179.4, 201.0, 222.5, 243.5, 263.8], "panels": [4301, 5205, 6178, 7199, 8250, 9315, 10380, 11431, 12455, 13439], "poas": ["2600", "2602", "2604", "2609", "2612", "2619", "2621", "2911", "2912", "2913", "2914"]}}, {"type": "Feature", "geometry": {"type": "Point", "coordinates": [150.98444, -33.86979]}, "properties": {"rank": 3, "id": "WASTNSW1146", "name": "Officeworks", "owner": "Officeworks", "type": "E-WASTE DROP-OFF FACILITY", "state": "NSW", "suburb": "Old Guildford", "in_capital": true, "tonnes": [1063.9, 1295.3, 1546.5, 1811.1, 2084.7, 2363.2, 2642.7, 2919.5, 3190.1, 3451.1], "panels": [58608, 70380, 83045, 96304, 109933, 123731, 137509, 151088, 164294, 176963], "poas": ["2000", "2007", "2008", "2009", "2010", "2011", "2015", "2016", "2017", "2018", "2019", "2020", "2021", "2022", "2023", "2024", "2025", "2026", "2027", "2028", "2029", "2030", "2031", "2032", "2033", "2034", "2035", "2036", "2037", "2038", "2039", "2040", "2041", "2042", "2043", "2044", "2045", "2046", "2047", "2048", "2049", "2050", "2060", "2061", "2062", "2063", "2064", "2065", "2066", "2067", "2068", "2069", "2070", "2071", "2072", "2073", "2074", "2075", "2076", "2077", "2086", "2087", "2088", "2089", "2090", "2092", "2093", "2094", "2095", "2096", "2100", "2110", "2111", "2112", "2113", "2114", "2115", "2116", "2117", "2118", "2119", "2120", "2121", "2122", "2125", "2126", "2127", "2128", "2130", "2131", "2132", "2133", "2134", "2135", "2136", "2137", "2138", "2140", "2141", "2142", "2143", "2144", "2145", "2146", "2147", "2148", "2150", "2151", "2152", "2153", "2154", "2155", "2156", "2158", "2160", "2161", "2162", "2163", "2164", "2165", "2166", "2167", "2168", "2170", "2171", "2172", "2173", "2174", "2175", "2176", "2177", "2179", "2190", "2191", "2192", "2193", "2194", "2195", "2196", "2197", "2198", "2199", "2200", "2203", "2204", "2205", "2206", "2207", "2208", "2209", "2210", "2211", "2212", "2213", "2214", "2216", "2217", "2218", "2219", "2220", "2221", "2222", "2223", "2224", "2225", "2226", "2227", "2228", "2229", "2230", "2231", "2232", "2233", "2234", "2558", "2559", "2564", "2565", "2566", "2762", "2763", "2766", "2767", "2768", "2769"]}}, {"type": "Feature", "geometry": {"type": "Point", "coordinates": [153.48421, -28.24641]}, "properties": {"rank": 4, "id": "WASTNSW1480", "name": "Walls Quarry", "owner": "Walls Quarry", "type": "TRANSFER STATION", "state": "NSW", "suburb": "Bungalora", "in_capital": false, "tonnes": [266.1, 310.8, 357.9, 406.4, 455.4, 504.3, 552.4, 599.1, 643.8, 685.9], "panels": [15029, 17383, 19839, 22345, 24864, 27360, 29799, 32150, 34384, 36474], "poas": ["2484", "2485", "2486", "2487", "2488", "2489", "2490", "4213", "4218", "4220", "4221", "4223", "4224", "4225", "4226", "4227", "4228"]}}, {"type": "Feature", "geometry": {"type": "Point", "coordinates": [131.0151, -12.49683]}, "properties": {"rank": 5, "id": "WASTNT87", "name": "Howard Springs Transfer Station", "owner": "Litchfield Council", "type": "TRANSFER STATION", "state": "NT", "suburb": "Howard Springs", "in_capital": true, "tonnes": [75.5, 90.3, 105.9, 121.9, 138.1, 154.4, 170.5, 186.1, 201.1, 215.3], "panels": [4077, 4845, 5649, 6474, 7309, 8141, 8959, 9753, 10513, 11230], "poas": ["0800", "0810", "0812", "0820", "0828", "0829", "0830", "0832", "0834", "0835", "0836", "0838", "0839"]}}, {"type": "Feature", "geometry": {"type": "Point", "coordinates": [133.87852, -23.69809]}, "properties": {"rank": 6, "id": "WASTNT13", "name": "Igear", "owner": "Igear", "type": "E-WASTE DROP-OFF FACILITY", "state": "NT", "suburb": "Alice Springs", "in_capital": false, "tonnes": [18.5, 21.3, 24.2, 27.1, 30.0, 32.8, 35.6, 38.2, 40.6, 42.9], "panels": [1036, 1186, 1339, 1492, 1644, 1792, 1934, 2069, 2195, 2311], "poas": ["0870", "0873", "0874", "0875"]}}, {"type": "Feature", "geometry": {"type": "Point", "coordinates": [153.02631, -27.54612]}, "properties": {"rank": 7, "id": "WASTQLD1159", "name": "Kartaway Salisbury", "owner": "Kartaway Mini Skips", "type": "TRANSFER STATION", "state": "QLD", "suburb": "Salisbury", "in_capital": true, "tonnes": [1404.4, 1642.7, 1894.4, 2154.0, 2417.2, 2680.1, 2939.3, 3191.4, 3433.2, 3661.8], "panels": [79347, 91860, 104953, 118351, 131838, 145223, 158328, 170982, 183028, 194318], "poas": ["4000", "4005", "4006", "4007", "4008", "4009", "4010", "4011", "4012", "4013", "4014", "4018", "4030", "4031", "4032", "4034", "4035", "4037", "4051", "4053", "4054", "4055", "4059", "4060", "4061", "4064", "4065", "4066", "4067", "4068", "4069", "4070", "4073", "4074", "4075", "4076", "4077", "4078", "4101", "4102", "4103", "4104", "4105", "4106", "4107", "4108", "4109", "4110", "4111", "4112", "4113", "4114", "4115", "4116", "4117", "4118", "4119", "4120", "4121", "4122", "4123", "4124", "4125", "4127", "4128", "4129", "4130", "4131", "4132", "4133", "4151", "4152", "4153", "4154", "4155", "4156", "4157", "4158", "4159", "4160", "4161", "4163", "4164", "4165", "4169", "4170", "4171", "4172", "4173", "4174", "4178", "4179", "4205", "4300", "4301", "4303", "4304", "4305", "4306"]}}, {"type": "Feature", "geometry": {"type": "Point", "coordinates": [153.03705, -27.03107]}, "properties": {"rank": 8, "id": "WASTQLD1297", "name": "Toorbul Transfer Station", "owner": "Moreton Bay Regional Council", "type": "TRANSFER STATION", "state": "QLD", "suburb": "Toorbul", "in_capital": true, "tonnes": [137.6, 160.8, 185.2, 210.4, 235.9, 261.3, 286.3, 310.6, 333.9, 355.9], "panels": [7795, 9015, 10288, 11588, 12895, 14191, 15458, 16680, 17842, 18929], "poas": ["4507", "4511", "4516", "4517", "4518", "4519", "4550", "4551"]}}, {"type": "Feature", "geometry": {"type": "Point", "coordinates": [138.66036, -34.93922]}, "properties": {"rank": 9, "id": "WASTSA83", "name": "Burnside Council Depot", "owner": "Burnside City Council", "type": "E-WASTE DROP-OFF FACILITY", "state": "SA", "suburb": "Burnside", "in_capital": true, "tonnes": [956.7, 1111.4, 1273.8, 1440.3, 1608.3, 1775.4, 1939.4, 2098.2, 2249.7, 2392.1], "panels": [54367, 62551, 71055, 79710, 88380, 96944, 105287, 113304, 120895, 127966], "poas": ["5000", "5006", "5007", "5008", "5009", "5010", "5011", "5012", "5013", "5014", "5015", "5016", "5017", "5018", "5019", "5020", "5021", "5022", "5023", "5024", "5025", "5031", "5032", "5033", "5034", "5035", "5037", "5038", "5039", "5040", "5041", "5042", "5043", "5044", "5045", "5046", "5047", "5048", "5049", "5050", "5051", "5052", "5061", "5062", "5063", "5064", "5065", "5066", "5067", "5068", "5069", "5070", "5072", "5073", "5074", "5075", "5076", "5081", "5082", "5083", "5084", "5085", "5086", "5087", "5088", "5089", "5090", "5091", "5092", "5093", "5094", "5095", "5096", "5097", "5098", "5106", "5107", "5108", "5109", "5110", "5126", "5127", "5131", "5132", "5133", "5134", "5136", "5137", "5138", "5139", "5140", "5141", "5142", "5144", "5150", "5151", "5152", "5154", "5155", "5156", "5158", "5159", "5160", "5161", "5166", "5232", "5240", "5241", "5242", "5243", "5244", "5950"]}}, {"type": "Feature", "geometry": {"type": "Point", "coordinates": [138.79969, -34.62177]}, "properties": {"rank": 10, "id": "WASTSA287", "name": "Rocla Limited Waste Facility", "owner": "Rocla Limited", "type": "LANDFILL \u2013 PUTRESCIBLE", "state": "SA", "suburb": "Kalbeeba", "in_capital": true, "tonnes": [194.3, 227.3, 262.1, 298.1, 334.5, 371.0, 407.0, 442.0, 475.6, 507.4], "panels": [11009, 12739, 14551, 16406, 18275, 20130, 21948, 23704, 25377, 26946], "poas": ["5111", "5112", "5113", "5114", "5115", "5116", "5117", "5118", "5120", "5121", "5125", "5231", "5233", "5234", "5235", "5350", "5351", "5352", "5355", "5360", "5371", "5372", "5400"]}}, {"type": "Feature", "geometry": {"type": "Point", "coordinates": [147.40085, -42.86079]}, "properties": {"rank": 11, "id": "GA-OBJECTID-6248", "name": "Mornington Park Waste Transfer Station", "owner": "Clarence City Council", "type": "TRANSFER STATION", "state": "TAS", "suburb": "Mornington", "in_capital": true, "tonnes": [79.2, 92.8, 107.4, 122.5, 137.9, 153.5, 168.9, 184.0, 198.6, 212.4], "panels": [4470, 5179, 5929, 6703, 7487, 8270, 9040, 9788, 10505, 11181], "poas": ["7000", "7004", "7005", "7007", "7008", "7009", "7010", "7011", "7012", "7015", "7016", "7017", "7018", "7019", "7020", "7021", "7022", "7023", "7024", "7025", "7026", "7050", "7052", "7053", "7054", "7055", "7170", "7171", "7172", "7173", "7186"]}}, {"type": "Feature", "geometry": {"type": "Point", "coordinates": [146.94885, -41.30208]}, "properties": {"rank": 12, "id": "WASTTAS47", "name": "Exeter Transfer Station", "owner": "West Tamar Council", "type": "TRANSFER STATION; E-WASTE DROP-OFF FACILITY", "state": "TAS", "suburb": "Exeter", "in_capital": false, "tonnes": [50.1, 58.5, 67.4, 76.6, 85.9, 95.1, 104.3, 113.1, 121.7, 129.7], "panels": [2818, 3260, 3722, 4195, 4671, 5143, 5605, 6051, 6475, 6872], "poas": ["7248", "7249", "7250", "7252", "7253", "7267", "7268", "7270", "7275", "7276", "7277", "7290", "7291", "7292", "7303"]}}, {"type": "Feature", "geometry": {"type": "Point", "coordinates": [145.01093, -37.81999]}, "properties": {"rank": 13, "id": "WASTVIC988", "name": "Officeworks", "owner": "Officeworks", "type": "E-WASTE DROP-OFF FACILITY", "state": "VIC", "suburb": "Richmond", "in_capital": true, "tonnes": [792.7, 947.0, 1111.9, 1283.7, 1459.5, 1636.7, 1813.1, 1986.2, 2153.9, 2314.0], "panels": [43916, 51874, 60306, 69031, 77908, 86809, 95615, 104211, 112489, 120346], "poas": ["3000", "3002", "3003", "3004", "3006", "3008", "3011", "3012", "3013", "3015", "3016", "3018", "3019", "3020", "3022", "3025", "3026", "3028", "3031", "3032", "3033", "3034", "3039", "3040", "3041", "3042", "3043", "3044", "3046", "3047", "3048", "3049", "3051", "3052", "3053", "3054", "3055", "3056", "3057", "3058", "3059", "3060", "3061", "3062", "3064", "3065", "3066", "3067", "3068", "3070", "3071", "3072", "3073", "3074", "3075", "3076", "3078", "3079", "3081", "3082", "3083", "3084", "3085", "3087", "3088", "3089", "3090", "3091", "3093", "3094", "3095", "3101", "3102", "3103", "3104", "3105", "3106", "3107", "3108", "3109", "3111", "3121", "3122", "3123", "3124", "3125", "3126", "3127", "3128", "3129", "3130", "3131", "3132", "3133", "3141", "3142", "3143", "3144", "3145", "3146", "3147", "3148", "3149", "3150", "3151", "3152", "3161", "3162", "3163", "3165", "3166", "3167", "3168", "3169", "3170", "3171", "3178", "3179", "3181", "3182", "3183", "3184", "3185", "3186", "3187", "3188", "3189", "3190", "3191", "3192", "3193", "3194", "3202", "3204", "3205", "3206", "3207", "3750", "3752", "3754"]}}, {"type": "Feature", "geometry": {"type": "Point", "coordinates": [145.1987, -38.14064]}, "properties": {"rank": 14, "id": "WASTVIC669", "name": "Glen Landfill Pty Ltd", "owner": "Glen Landfill Pty Ltd", "type": "LANDFILL \u2013 PUTRESCIBLE", "state": "VIC", "suburb": "Langwarrin", "in_capital": true, "tonnes": [401.7, 479.4, 562.0, 647.9, 735.6, 823.8, 911.4, 997.3, 1080.2, 1159.3], "panels": [22205, 26222, 30463, 34841, 39288, 43738, 48133, 52416, 56532, 60431], "poas": ["3172", "3173", "3174", "3175", "3177", "3195", "3196", "3197", "3198", "3199", "3200", "3201", "3802", "3803", "3804", "3805", "3806", "3807", "3808", "3809", "3810", "3910", "3911", "3912", "3913", "3921", "3930", "3933", "3975", "3976", "3977", "3978", "3980"]}}, {"type": "Feature", "geometry": {"type": "Point", "coordinates": [115.93502, -32.0198]}, "properties": {"rank": 15, "id": "WASTWA224", "name": "Harvey Norman", "owner": "Harvey Norman", "type": "E-WASTE DROP-OFF FACILITY", "state": "WA", "suburb": "Cannington", "in_capital": true, "tonnes": [876.8, 1030.4, 1192.5, 1359.6, 1529.1, 1698.5, 1865.5, 2027.9, 2183.8, 2331.1], "panels": [49001, 57039, 65454, 74071, 82754, 91380, 99835, 108009, 115800, 123112], "poas": ["6000", "6003", "6004", "6005", "6006", "6007", "6008", "6009", "6010", "6011", "6012", "6014", "6015", "6016", "6017", "6018", "6019", "6021", "6050", "6051", "6052", "6053", "6054", "6055", "6056", "6057", "6058", "6059", "6060", "6061", "6062", "6063", "6070", "6071", "6072", "6073", "6076", "6081", "6090", "6100", "6101", "6102", "6103", "6104", "6105", "6106", "6107", "6108", "6109", "6110", "6111", "6112", "6121", "6122", "6123", "6147", "6148", "6149", "6150", "6151", "6152", "6153", "6154", "6155", "6156", "6157", "6158", "6159", "6160", "6162", "6163", "6164", "6165", "6166", "6167"]}}, {"type": "Feature", "geometry": {"type": "Point", "coordinates": [115.76058, -32.50438]}, "properties": {"rank": 16, "id": "WASTWA915", "name": "Gordon Road Transfer Station", "owner": "Cleanaway", "type": "TRANSFER STATION; LANDFILL \u2013 PUTRESCIBLE", "state": "WA", "suburb": "Parklands", "in_capital": true, "tonnes": [229.3, 267.5, 307.7, 349.0, 390.7, 432.2, 472.9, 512.4, 550.2, 585.7], "panels": [12896, 14911, 17009, 19147, 21293, 23417, 25489, 27484, 29376, 31143], "poas": ["6125", "6126", "6168", "6169", "6170", "6171", "6172", "6173", "6174", "6175", "6176", "6180", "6181", "6182", "6207", "6208", "6209", "6210", "6211", "6214"]}}, {"type": "Feature", "geometry": {"type": "Point", "coordinates": [152.94155, -26.54831]}, "properties": {"rank": 17, "id": "WASTQLD1435", "name": "Yandina Transfer Station", "owner": "Sunshine Coast Regoinal Council", "type": "TRANSFER STATION", "state": "QLD", "suburb": "Bridges", "in_capital": false, "tonnes": [310.4, 362.7, 417.9, 474.8, 532.3, 589.8, 646.4, 701.4, 754.0, 803.8], "panels": [17557, 20310, 23185, 26124, 29080, 32011, 34877, 37643, 40273, 42735], "poas": ["4552", "4553", "4554", "4555", "4556", "4557", "4558", "4559", "4560", "4561", "4562", "4563", "4564", "4565", "4566", "4567", "4568", "4569", "4572", "4573", "4574", "4575"]}}, {"type": "Feature", "geometry": {"type": "Point", "coordinates": [151.55094, -33.02332]}, "properties": {"rank": 18, "id": "WASTNSW69", "name": "Awaba Waste Management Facility", "owner": "Lake Macquarie City Council/Civilake", "type": "TRANSFER STATION; LANDFILL \u2013 PUTRESCIBLE; E-WASTE DROP-OFF FACILITY", "state": "NSW", "suburb": "Awaba", "in_capital": false, "tonnes": [221.0, 265.3, 312.9, 362.5, 413.5, 465.1, 516.5, 567.1, 616.2, 663.3], "panels": [12268, 14546, 16969, 19484, 22049, 24628, 27186, 29690, 32108, 34410], "poas": ["2259", "2262", "2263", "2264", "2265", "2267", "2278", "2280", "2281", "2282", "2283", "2284", "2285", "2286", "2287", "2289", "2290", "2291", "2292", "2299", "2303", "2305", "2306"]}}, {"type": "Feature", "geometry": {"type": "Point", "coordinates": [153.18086, -27.9087]}, "properties": {"rank": 19, "id": "WASTQLD1264", "name": "Tamborine Mountain Transfer Station", "owner": "Scenic Rim Regional Council", "type": "TRANSFER STATION", "state": "QLD", "suburb": "Tamborine Mountain", "in_capital": false, "tonnes": [433.5, 511.0, 593.0, 677.8, 763.9, 850.2, 935.5, 1018.7, 1098.7, 1174.5], "panels": [24262, 28305, 32549, 36904, 41302, 45680, 49981, 54149, 58130, 61878], "poas": ["4207", "4208", "4209", "4210", "4211", "4212", "4214", "4215", "4216", "4217", "4270", "4272", "4275", "4280", "4285"]}}, {"type": "Feature", "geometry": {"type": "Point", "coordinates": [144.38607, -38.0517]}, "properties": {"rank": 20, "id": "WASTVIC298", "name": "Suez Corio", "owner": "Suez Australia Pty Ltd", "type": "TRANSFER STATION", "state": "VIC", "suburb": "Corio", "in_capital": false, "tonnes": [133.0, 157.1, 182.6, 209.1, 235.9, 262.9, 289.6, 315.6, 340.7, 364.5], "panels": [7439, 8693, 10011, 11365, 12734, 14099, 15441, 16743, 17988, 19162], "poas": ["3211", "3212", "3213", "3214", "3215", "3216", "3217", "3218", "3219", "3220", "3222", "3223", "3224", "3226", "3227", "3331", "3332"]}}, {"type": "Feature", "geometry": {"type": "Point", "coordinates": [150.79828, -34.46363]}, "properties": {"rank": 21, "id": "WASTNSW785", "name": "Whytes Gully Waste Disposal Facility", "owner": "Wollongong City Council", "type": "TRANSFER STATION; LANDFILL \u2013 PUTRESCIBLE; E-WASTE DROP-OFF FACILITY", "state": "NSW", "suburb": "Kembla Grange", "in_capital": false, "tonnes": [130.1, 156.9, 185.6, 215.6, 246.5, 277.7, 308.8, 339.5, 369.3, 397.8], "panels": [7184, 8559, 10022, 11542, 13094, 14656, 16206, 17725, 19193, 20592], "poas": ["2500", "2502", "2505", "2506", "2515", "2516", "2517", "2518", "2519", "2525", "2526", "2527", "2528", "2529", "2530", "2533"]}}, {"type": "Feature", "geometry": {"type": "Point", "coordinates": [146.6983, -19.2762]}, "properties": {"rank": 22, "id": "WASTQLD1168", "name": "E-Waste Recycling Australia", "owner": "E-Waste Recycling Australia", "type": "E-WASTE DROP-OFF FACILITY", "state": "QLD", "suburb": "Shaw", "in_capital": false, "tonnes": [186.5, 217.5, 250.2, 283.8, 317.9, 352.0, 385.5, 418.0, 449.2, 478.6], "panels": [10561, 12194, 13900, 15643, 17395, 19132, 20829, 22466, 24021, 25476], "poas": ["4810", "4811", "4812", "4814", "4815", "4817", "4818", "4819"]}}, {"type": "Feature", "geometry": {"type": "Point", "coordinates": [151.29178, -33.50396]}, "properties": {"rank": 23, "id": "WASTNSW1723", "name": "Woy Woy Landfill", "owner": "Central Coast Council", "type": "LANDFILL \u2013 PUTRESCIBLE", "state": "NSW", "suburb": "Woy Woy", "in_capital": true, "tonnes": [165.2, 199.4, 236.5, 275.3, 315.4, 356.1, 396.8, 436.9, 476.1, 513.8], "panels": [9154, 10907, 12783, 14740, 16744, 18766, 20779, 22757, 24674, 26506], "poas": ["2079", "2080", "2081", "2082", "2083", "2084", "2085", "2097", "2099", "2101", "2102", "2103", "2104", "2105", "2106", "2107", "2108", "2157", "2159", "2250", "2251", "2256", "2257", "2258", "2260", "2261"]}}, {"type": "Feature", "geometry": {"type": "Point", "coordinates": [115.7989, -31.68263]}, "properties": {"rank": 24, "id": "WASTWA820", "name": "Alkina Holdings", "owner": "Alkina Holdings Pty Ltd", "type": "TRANSFER STATION", "state": "WA", "suburb": "Neerabup", "in_capital": true, "tonnes": [368.2, 431.2, 497.6, 565.7, 634.6, 703.3, 770.9, 836.5, 899.2, 958.3], "panels": [20610, 23922, 27378, 30905, 34450, 37963, 41398, 44709, 47856, 50800], "poas": ["6020", "6022", "6023", "6024", "6025", "6026", "6027", "6028", "6029", "6030", "6031", "6032", "6033", "6034", "6035", "6036", "6037", "6038", "6064", "6065", "6066", "6067", "6068", "6069", "6077", "6078", "6079", "6084", "6501"]}}, {"type": "Feature", "geometry": {"type": "Point", "coordinates": [145.58408, -16.86977]}, "properties": {"rank": 25, "id": "WASTQLD726", "name": "Kuranda Transfer Station", "owner": "Mareeba Shire Council", "type": "TRANSFER STATION", "state": "QLD", "suburb": "Koah", "in_capital": false, "tonnes": [141.8, 169.0, 198.2, 228.6, 259.7, 291.1, 322.3, 352.9, 382.6, 411.0], "panels": [7878, 9287, 10782, 12330, 13905, 15484, 17046, 18570, 20038, 21431], "poas": ["4868", "4869", "4870", "4878", "4879", "4880", "4881"]}}, {"type": "Feature", "geometry": {"type": "Point", "coordinates": [150.6603, -33.80743]}, "properties": {"rank": 26, "id": "WASTNSW1040", "name": "Penrith Waste Services Pty Ltd", "owner": "Penrith Waste Services Pty Ltd", "type": "LANDFILL \u2013 PUTRESCIBLE", "state": "NSW", "suburb": "Mulgoa", "in_capital": true, "tonnes": [267.0, 327.9, 394.0, 463.8, 536.0, 609.6, 683.6, 756.9, 828.7, 898.1], "panels": [14559, 17643, 20966, 24451, 28040, 31680, 35322, 38918, 42422, 45790], "poas": ["2178", "2555", "2556", "2557", "2567", "2745", "2747", "2748", "2749", "2750", "2752", "2753", "2754", "2757", "2759", "2760", "2761", "2765", "2770", "2773", "2774", "2776", "2777", "2778", "2779", "2782", "2783", "2784"]}}, {"type": "Feature", "geometry": {"type": "Point", "coordinates": [151.92681, -27.76413]}, "properties": {"rank": 27, "id": "WASTQLD558", "name": "Greenmount Waste Management Facility", "owner": "Toowoomba Regional Council", "type": "TRANSFER STATION; LANDFILL \u2013 PUTRESCIBLE", "state": "QLD", "suburb": "East Greenmount", "in_capital": false, "tonnes": [115.2, 135.0, 156.1, 177.8, 199.8, 221.9, 243.7, 264.9, 285.3, 304.6], "panels": [6510, 7553, 8647, 9768, 10898, 12021, 13122, 14187, 15203, 16157], "poas": ["4350", "4352", "4358", "4359", "4360", "4361", "4363"]}}, {"type": "Feature", "geometry": {"type": "Point", "coordinates": [152.61997, -25.53289]}, "properties": {"rank": 28, "id": "WASTQLD1455", "name": "Yengarie Transfer Station", "owner": "Fraser Coast Regional Council", "type": "TRANSFER STATION", "state": "QLD", "suburb": "Oakhurst", "in_capital": false, "tonnes": [116.0, 135.7, 156.6, 178.3, 200.3, 222.3, 244.1, 265.3, 285.7, 305.0], "panels": [6581, 7617, 8704, 9820, 10945, 12064, 13161, 14223, 15236, 16187], "poas": ["4650", "4655", "4659", "4662"]}}, {"type": "Feature", "geometry": {"type": "Point", "coordinates": [144.60331, -37.70008]}, "properties": {"rank": 29, "id": "WASTVIC746", "name": "Melton Recycling Centre", "owner": "Melton Shire Council", "type": "TRANSFER STATION", "state": "VIC", "suburb": "Cobblebank", "in_capital": true, "tonnes": [326.8, 393.1, 464.4, 538.9, 615.4, 692.8, 770.1, 846.2, 920.1, 991.0], "panels": [18054, 21459, 25086, 28855, 32703, 36576, 40420, 44186, 47826, 51294], "poas": ["3021", "3023", "3024", "3027", "3029", "3030", "3036", "3037", "3038", "3045", "3063", "3335", "3336", "3337", "3338", "3340", "3341", "3427", "3428", "3429", "3430", "3431", "3437", "3438"]}}, {"type": "Feature", "geometry": {"type": "Point", "coordinates": [153.26188, -28.82292]}, "properties": {"rank": 30, "id": "WASTNSW877", "name": "Cleanaway Lismore", "owner": "Cleanaway", "type": "TRANSFER STATION", "state": "NSW", "suburb": "South Lismore", "in_capital": false, "tonnes": [106.1, 124.2, 143.2, 162.7, 182.4, 202.1, 221.5, 240.2, 258.2, 275.2], "panels": [5996, 6946, 7937, 8947, 9962, 10968, 11951, 12899, 13800, 14643], "poas": ["2470", "2471", "2477", "2478", "2480"]}}, {"type": "Feature", "geometry": {"type": "Point", "coordinates": [152.20627, -24.98703]}, "properties": {"rank": 31, "id": "WASTQLD1180", "name": "Bundaberg Regional Landfill", "owner": "Bundaberg Regional Council", "type": "LANDFILL \u2013 PUTRESCIBLE", "state": "QLD", "suburb": "South Bingera", "in_capital": false, "tonnes": [98.9, 115.0, 132.1, 149.6, 167.2, 184.9, 202.2, 219.0, 235.1, 250.2], "panels": [5628, 6483, 7373, 8281, 9192, 10093, 10973, 11820, 12623, 13372], "poas": ["4660", "4670"]}}, {"type": "Feature", "geometry": {"type": "Point", "coordinates": [148.96509, -21.35801]}, "properties": {"rank": 32, "id": "WASTQLD468", "name": "Hogans Pocket Landfill", "owner": "Mackay Regional Council", "type": "LANDFILL \u2013 PUTRESCIBLE", "state": "QLD", "suburb": "Eton", "in_capital": false, "tonnes": [90.7, 107.6, 125.8, 144.6, 163.9, 183.3, 202.6, 221.5, 239.8, 257.2], "panels": [5060, 5941, 6873, 7835, 8813, 9792, 10758, 11699, 12603, 13460], "poas": ["4737", "4740", "4751", "4753", "4754"]}}, {"type": "Feature", "geometry": {"type": "Point", "coordinates": [151.74589, -32.73106]}, "properties": {"rank": 33, "id": "WASTNSW1244", "name": "Suez Raymond Terrace Landfill", "owner": "Suez Australia Pty Ltd", "type": "LANDFILL \u2013 PUTRESCIBLE", "state": "NSW", "suburb": "Raymond Terrace", "in_capital": false, "tonnes": [95.4, 115.1, 136.2, 158.3, 181.0, 204.0, 227.0, 249.6, 271.6, 292.7], "panels": [5256, 6265, 7339, 8457, 9599, 10748, 11890, 13009, 14092, 15124], "poas": ["2293", "2294", "2295", "2296", "2297", "2298", "2300", "2302", "2304", "2307", "2308", "2316", "2318", "2319", "2321", "2322", "2324", "2421"]}}, {"type": "Feature", "geometry": {"type": "Point", "coordinates": [146.90611, -36.11802]}, "properties": {"rank": 34, "id": "WASTVIC1272", "name": "Wodonga Transfer Station", "owner": "Wodonga Council", "type": "TRANSFER STATION; E-WASTE DROP-OFF FACILITY", "state": "VIC", "suburb": "Wodonga", "in_capital": false, "tonnes": [82.1, 97.5, 114.0, 131.1, 148.5, 166.1, 183.5, 200.5, 217.0, 232.7], "panels": [4563, 5364, 6210, 7082, 7967, 8852, 9725, 10574, 11390, 12162], "poas": ["2640", "2641", "3683", "3688", "3690", "3691", "3695", "3749"]}}, {"type": "Feature", "geometry": {"type": "Point", "coordinates": [138.76119, -35.18183]}, "properties": {"rank": 35, "id": "WASTSA406", "name": "Meadows Waste Depot", "owner": "Mount Barker District Council", "type": "TRANSFER STATION", "state": "SA", "suburb": "Meadows", "in_capital": true, "tonnes": [197.3, 228.4, 261.1, 294.6, 328.3, 361.9, 394.8, 426.6, 456.9, 485.3], "panels": [11265, 12918, 14633, 16376, 18119, 19839, 21512, 23117, 24634, 26045], "poas": ["5153", "5157", "5162", "5163", "5164", "5165", "5167", "5168", "5169", "5170", "5171", "5172", "5173", "5201", "5245", "5250", "5251", "5252", "5255"]}}, {"type": "Feature", "geometry": {"type": "Point", "coordinates": [150.50289, -34.72519]}, "properties": {"rank": 36, "id": "WASTNSW769", "name": "Kangaroo Valley Transfer Station", "owner": "Shoalhaven City Council", "type": "TRANSFER STATION", "state": "NSW", "suburb": "Kangaroo Valley", "in_capital": false, "tonnes": [84.4, 101.4, 119.5, 138.5, 157.9, 177.5, 197.1, 216.3, 234.9, 252.8], "panels": [4668, 5541, 6468, 7428, 8406, 9389, 10364, 11317, 12236, 13111], "poas": ["2534", "2535", "2540", "2541", "2576", "2577", "2578"]}}, {"type": "Feature", "geometry": {"type": "Point", "coordinates": [144.24664, -36.72781]}, "properties": {"rank": 37, "id": "WASTVIC432", "name": "Eaglehawk Transfer Station", "owner": "Greater Bendigo City Council", "type": "TRANSFER STATION; LANDFILL \u2013 PUTRESCIBLE", "state": "VIC", "suburb": "Eaglehawk", "in_capital": false, "tonnes": [77.3, 90.7, 104.7, 119.2, 133.8, 148.5, 162.8, 176.8, 190.2, 202.8], "panels": [4341, 5043, 5774, 6521, 7273, 8018, 8747, 9451, 10120, 10747], "poas": ["3453", "3515", "3516", "3550", "3551", "3555", "3556", "3557", "3570"]}}, {"type": "Feature", "geometry": {"type": "Point", "coordinates": [150.70424, -23.15472]}, "properties": {"rank": 38, "id": "WASTQLD80", "name": "Yeppoon Landfill", "owner": "Livingstone Shire Council", "type": "TRANSFER STATION; LANDFILL \u2013 PUTRESCIBLE", "state": "QLD", "suburb": "Barmaryee", "in_capital": false, "tonnes": [73.9, 86.6, 100.1, 113.9, 128.0, 142.1, 155.9, 169.4, 182.4, 194.6], "panels": [4177, 4846, 5545, 6261, 6982, 7697, 8398, 9076, 9721, 10326], "poas": ["4700", "4701", "4703", "4710", "4711"]}}, {"type": "Feature", "geometry": {"type": "Point", "coordinates": [143.88606, -37.41473]}, "properties": {"rank": 39, "id": "WASTVIC325", "name": "Creswick Transfer Station", "owner": "Hepburn Shire Council", "type": "TRANSFER STATION", "state": "VIC", "suburb": "Creswick", "in_capital": false, "tonnes": [65.8, 78.3, 91.6, 105.3, 119.4, 133.5, 147.5, 161.2, 174.4, 187.0], "panels": [3652, 4300, 4983, 5686, 6399, 7111, 7814, 8498, 9155, 9775], "poas": ["3345", "3350", "3352", "3355", "3356", "3357", "3358", "3363", "3364", "3370", "3460"]}}, {"type": "Feature", "geometry": {"type": "Point", "coordinates": [115.7895, -33.42634]}, "properties": {"rank": 40, "id": "WASTWA310", "name": "Dardanup Waste Transfer Station", "owner": "Dardanup Shire Council", "type": "TRANSFER STATION", "state": "WA", "suburb": "Crooked Brook", "in_capital": false, "tonnes": [70.7, 82.6, 95.1, 107.9, 120.9, 133.8, 146.5, 158.8, 170.5, 181.6], "panels": [3982, 4607, 5258, 5922, 6588, 7247, 7891, 8511, 9100, 9650], "poas": ["6223", "6224", "6226", "6227", "6228", "6229", "6230", "6232", "6233", "6236", "6237", "6239", "6240", "6271"]}}, {"type": "Feature", "geometry": {"type": "Point", "coordinates": [145.38834, -36.34767]}, "properties": {"rank": 41, "id": "WASTVIC1042", "name": "Shepparton Resource Recovery Centre", "owner": "Greater Shepparton City Council", "type": "TRANSFER STATION", "state": "VIC", "suburb": "Shepparton", "in_capital": false, "tonnes": [60.5, 71.1, 82.1, 93.5, 105.0, 116.4, 127.7, 138.6, 149.0, 158.9], "panels": [3379, 3932, 4508, 5096, 5686, 6272, 6844, 7396, 7920, 8411], "poas": ["3614", "3616", "3617", "3618", "3620", "3629", "3630", "3631", "3633", "3634", "3635", "3647"]}}, {"type": "Feature", "geometry": {"type": "Point", "coordinates": [145.86402, -38.22054]}, "properties": {"rank": 42, "id": "WASTVIC673", "name": "Lardner Transfer Station", "owner": "Baw Baw Shire Council", "type": "TRANSFER STATION", "state": "VIC", "suburb": "Lardner", "in_capital": false, "tonnes": [49.5, 58.4, 67.9, 77.6, 87.5, 97.4, 107.2, 116.7, 125.9, 134.6], "panels": [2767, 3231, 3718, 4218, 4723, 5225, 5719, 6198, 6655, 7085], "poas": ["3813", "3814", "3815", "3816", "3818", "3820", "3821", "3822", "3823", "3831", "3945", "3981", "3984", "3987", "3988"]}}, {"type": "Feature", "geometry": {"type": "Point", "coordinates": [152.72457, -31.6191]}, "properties": {"rank": 43, "id": "WASTNSW803", "name": "Kew Transfer Station", "owner": "Port Macquarie Hastings Council", "type": "TRANSFER STATION", "state": "NSW", "suburb": "Kew", "in_capital": false, "tonnes": [59.4, 70.1, 81.5, 93.2, 105.2, 117.1, 129.0, 140.5, 151.7, 162.3], "panels": [3346, 3905, 4491, 5093, 5702, 6309, 6905, 7484, 8037, 8558], "poas": ["2427", "2439", "2443", "2444", "2445"]}}, {"type": "Feature", "geometry": {"type": "Point", "coordinates": [152.36315, -27.62807]}, "properties": {"rank": 44, "id": "WASTQLD744", "name": "Laidley Transfer Station", "owner": "Lockyer Valley Regional Council", "type": "TRANSFER STATION", "state": "QLD", "suburb": "Laidley Heights", "in_capital": true, "tonnes": [66.3, 77.6, 89.5, 101.8, 114.3, 126.8, 139.1, 151.1, 162.6, 173.5], "panels": [3752, 4344, 4965, 5600, 6240, 6875, 7497, 8098, 8671, 9208], "poas": ["4311", "4340", "4341", "4342", "4343", "4344", "4346", "4347"]}}, {"type": "Feature", "geometry": {"type": "Point", "coordinates": [153.07985, -30.3224]}, "properties": {"rank": 45, "id": "WASTNSW372", "name": "Coffs Coast Resource Recovery Facility", "owner": "Coffs Harbour City Council", "type": "TRANSFER STATION; LANDFILL \u2013 PUTRESCIBLE", "state": "NSW", "suburb": "North Boambee Valley", "in_capital": false, "tonnes": [57.3, 67.9, 79.2, 91.0, 102.9, 114.8, 126.7, 138.2, 149.4, 160.0], "panels": [3190, 3744, 4327, 4927, 5534, 6139, 6735, 7314, 7869, 8392], "poas": ["2450", "2452", "2455", "2456"]}}, {"type": "Feature", "geometry": {"type": "Point", "coordinates": [152.43592, -26.19801]}, "properties": {"rank": 46, "id": "WASTQLD1387", "name": "Widgee Transfer Station", "owner": "Gympie Regional Council", "type": "TRANSFER STATION", "state": "QLD", "suburb": "Widgee", "in_capital": false, "tonnes": [56.1, 65.7, 75.8, 86.2, 96.7, 107.3, 117.7, 127.8, 137.5, 146.7], "panels": [3179, 3680, 4205, 4742, 5283, 5820, 6346, 6853, 7337, 7790], "poas": ["4570", "4600"]}}, {"type": "Feature", "geometry": {"type": "Point", "coordinates": [145.39501, -37.73826]}, "properties": {"rank": 47, "id": "WASTVIC288", "name": "Coldstream Recovery And Waste Transfer Station", "owner": "Yarra Ranges Shire Council", "type": "TRANSFER STATION", "state": "VIC", "suburb": "Lilydale", "in_capital": true, "tonnes": [176.0, 207.7, 241.2, 275.8, 311.1, 346.4, 381.3, 415.4, 448.2, 479.3], "panels": [9847, 11496, 13227, 15005, 16801, 18590, 20349, 22054, 23684, 25218], "poas": ["3096", "3097", "3099", "3113", "3114", "3115", "3116", "3134", "3135", "3136", "3137", "3138", "3139", "3140", "3153", "3154", "3155", "3156", "3158", "3159", "3160", "3180", "3759", "3760", "3761", "3763", "3765", "3766", "3767", "3770", "3775", "3777", "3778", "3781", "3782", "3785", "3786", "3787", "3788", "3789", "3791", "3792", "3793", "3795", "3796", "3797"]}}, {"type": "Feature", "geometry": {"type": "Point", "coordinates": [138.64799, -35.52291]}, "properties": {"rank": 48, "id": "WASTSA275", "name": "Mr Nottle And Ne Deluca-Cardillo", "owner": "Mr Nottle And Ne Deluca-Cardillo", "type": "TRANSFER STATION", "state": "SA", "suburb": "Hindmarsh Valley", "in_capital": false, "tonnes": [58.2, 66.8, 75.8, 85.0, 94.1, 103.2, 112.0, 120.5, 128.6, 136.1], "panels": [3354, 3815, 4290, 4770, 5247, 5715, 6167, 6599, 7004, 7377], "poas": ["5174", "5202", "5203", "5210", "5211", "5212", "5213", "5214"]}}, {"type": "Feature", "geometry": {"type": "Point", "coordinates": [151.35578, -24.02228]}, "properties": {"rank": 49, "id": "WASTQLD97", "name": "Benaraby Landfill", "owner": "Gladstone Regional Council", "type": "TRANSFER STATION; LANDFILL \u2013 PUTRESCIBLE", "state": "QLD", "suburb": "Benaraby", "in_capital": false, "tonnes": [52.3, 61.0, 70.1, 79.5, 89.1, 98.7, 108.1, 117.3, 126.0, 134.4], "panels": [2991, 3448, 3925, 4414, 4906, 5394, 5871, 6331, 6769, 7178], "poas": ["4678", "4680"]}}, {"type": "Feature", "geometry": {"type": "Point", "coordinates": [148.84485, -32.38884]}, "properties": {"rank": 50, "id": "WASTNSW588", "name": "Geurie Transfer Station", "owner": "Dubbo Regional Council", "type": "TRANSFER STATION", "state": "NSW", "suburb": "Geurie", "in_capital": false, "tonnes": [48.0, 56.3, 65.1, 74.1, 83.3, 92.4, 101.4, 110.2, 118.6, 126.5], "panels": [2702, 3138, 3594, 4061, 4530, 4995, 5451, 5892, 6311, 6705], "poas": ["2818", "2820", "2830"]}}, {"type": "Feature", "geometry": {"type": "Point", "coordinates": [152.49355, -32.12861]}, "properties": {"rank": 51, "id": "WASTNSW1543", "name": "Tuncurry Waste Management Centre", "owner": "Mid-Coast Council", "type": "LANDFILL \u2013 PUTRESCIBLE", "state": "NSW", "suburb": "Darawank", "in_capital": false, "tonnes": [47.2, 55.6, 64.5, 73.7, 83.1, 92.5, 101.8, 110.9, 119.6, 127.9], "panels": [2651, 3091, 3552, 4025, 4503, 4979, 5447, 5900, 6333, 6740], "poas": ["2312", "2428", "2430"]}}, {"type": "Feature", "geometry": {"type": "Point", "coordinates": [115.08929, -33.86565]}, "properties": {"rank": 52, "id": "WASTWA289", "name": "Cowaramup Transfer Station", "owner": "Augusta Margaret River Shire Council", "type": "TRANSFER STATION", "state": "WA", "suburb": "Cowaramup", "in_capital": false, "tonnes": [44.4, 52.6, 61.3, 70.4, 79.6, 88.8, 98.0, 106.9, 115.6, 123.8], "panels": [2481, 2906, 3355, 3818, 4286, 4754, 5215, 5663, 6092, 6498], "poas": ["6280", "6281", "6282", "6284", "6285", "6286"]}}, {"type": "Feature", "geometry": {"type": "Point", "coordinates": [140.60506, -34.2572]}, "properties": {"rank": 53, "id": "WASTSA432", "name": "Riverland Resource Recovery Facility", "owner": "Berri Barmera Council", "type": "TRANSFER STATION; LANDFILL \u2013 PUTRESCIBLE", "state": "SA", "suburb": "Monash", "in_capital": false, "tonnes": [47.3, 53.9, 60.7, 67.6, 74.4, 81.0, 87.5, 93.6, 99.3, 104.5], "panels": [2712, 3070, 3435, 3800, 4159, 4508, 4842, 5157, 5449, 5715], "poas": ["5331", "5332", "5333", "5340", "5341", "5342", "5343", "5344", "5345", "5346"]}}, {"type": "Feature", "geometry": {"type": "Point", "coordinates": [145.16298, -37.27395]}, "properties": {"rank": 54, "id": "WASTVIC641", "name": "Kinglake Resource Recovery Centre", "owner": "Murrindindi Shire Council", "type": "TRANSFER STATION", "state": "VIC", "suburb": "Reedy Creek", "in_capital": false, "tonnes": [40.5, 47.9, 55.8, 64.0, 72.4, 80.8, 89.1, 97.2, 105.1, 112.5], "panels": [2262, 2648, 3055, 3475, 3899, 4323, 4741, 5147, 5536, 5904], "poas": ["3658", "3659", "3660", "3717", "3753", "3756", "3757", "3758", "3762", "3764"]}}, {"type": "Feature", "geometry": {"type": "Point", "coordinates": [147.26058, -35.1897]}, "properties": {"rank": 55, "id": "WASTNSW1579", "name": "Uranquinty Rural Transfer Station", "owner": "Wagga Wagga City Council", "type": "TRANSFER STATION", "state": "NSW", "suburb": "Uranquinty", "in_capital": false, "tonnes": [40.3, 47.8, 55.8, 64.0, 72.5, 81.0, 89.4, 97.6, 105.5, 113.0], "panels": [2241, 2631, 3041, 3464, 3892, 4319, 4740, 5150, 5543, 5914], "poas": ["2650", "2651", "2655", "2661", "2678"]}}, {"type": "Feature", "geometry": {"type": "Point", "coordinates": [150.92679, -31.06325]}, "properties": {"rank": 56, "id": "WASTNSW1442", "name": "Tamworth Landfill", "owner": "Tamworth Regional Council", "type": "TRANSFER STATION; LANDFILL \u2013 PUTRESCIBLE", "state": "NSW", "suburb": "North Tamworth", "in_capital": false, "tonnes": [39.4, 46.7, 54.5, 62.6, 70.8, 79.1, 87.2, 95.2, 102.9, 110.2], "panels": [2182, 2565, 2966, 3380, 3798, 4215, 4626, 5025, 5408, 5769], "poas": ["2340", "2344", "2345", "2352", "2353"]}}, {"type": "Feature", "geometry": {"type": "Point", "coordinates": [144.9782, -38.3438]}, "properties": {"rank": 57, "id": "WASTVIC412", "name": "Dromana Hopper", "owner": "Mornington Peninsula Shire Council", "type": "TRANSFER STATION", "state": "VIC", "suburb": "Dromana", "in_capital": true, "tonnes": [84.8, 100.5, 117.1, 134.3, 151.9, 169.4, 186.8, 203.9, 220.2, 235.8], "panels": [4721, 5536, 6392, 7272, 8164, 9053, 9928, 10778, 11591, 12359], "poas": ["3915", "3916", "3918", "3919", "3920", "3922", "3926", "3927", "3928", "3929", "3931", "3934", "3936", "3937", "3938", "3939", "3940", "3941", "3942", "3943", "3944"]}}, {"type": "Feature", "geometry": {"type": "Point", "coordinates": [146.4264, -38.25421]}, "properties": {"rank": 58, "id": "WASTVIC564", "name": "Morwell Transfer Station", "owner": "Latrobe City Council", "type": "TRANSFER STATION", "state": "VIC", "suburb": "Hazelwood North", "in_capital": false, "tonnes": [43.5, 50.8, 58.4, 66.3, 74.2, 82.1, 89.9, 97.4, 104.6, 111.3], "panels": [2454, 2838, 3237, 3644, 4052, 4455, 4849, 5229, 5588, 5924], "poas": ["3824", "3835", "3840", "3842", "3844", "3854", "3856", "3869", "3870", "3871", "3873"]}}, {"type": "Feature", "geometry": {"type": "Point", "coordinates": [148.79979, -33.42864]}, "properties": {"rank": 59, "id": "WASTNSW306", "name": "Cargo Waste Management Facility", "owner": "Cabonne Shire Council", "type": "TRANSFER STATION; LANDFILL \u2013 PUTRESCIBLE", "state": "NSW", "suburb": "Cargo", "in_capital": false, "tonnes": [36.7, 43.8, 51.4, 59.3, 67.3, 75.5, 83.5, 91.4, 99.1, 106.4], "panels": [2018, 2386, 2775, 3177, 3585, 3994, 4398, 4793, 5172, 5531], "poas": ["2800", "2804", "2864"]}}, {"type": "Feature", "geometry": {"type": "Point", "coordinates": [144.45793, -37.2254]}, "properties": {"rank": 60, "id": "WASTVIC651", "name": "Kyneton Transfer Station", "owner": "Macedon Ranges Shire Council", "type": "TRANSFER STATION", "state": "VIC", "suburb": "Kyneton", "in_capital": false, "tonnes": [42.0, 49.4, 57.1, 65.1, 73.2, 81.2, 89.2, 96.9, 104.4, 111.4], "panels": [2354, 2738, 3139, 3550, 3963, 4374, 4776, 5165, 5536, 5883], "poas": ["3434", "3435", "3440", "3441", "3442", "3444", "3446", "3447", "3448", "3450", "3451", "3458", "3461"]}}, {"type": "Feature", "geometry": {"type": "Point", "coordinates": [142.07795, -34.09023]}, "properties": {"rank": 61, "id": "WASTNSW399", "name": "Dareton Transfer Station", "owner": "Wentworth Shire Council", "type": "TRANSFER STATION", "state": "NSW", "suburb": "Coomealla", "in_capital": false, "tonnes": [37.4, 44.2, 51.4, 58.7, 66.1, 73.5, 80.8, 87.8, 94.6, 100.9], "panels": [2059, 2415, 2786, 3165, 3546, 3924, 4294, 4651, 4992, 5311], "poas": ["2717", "2739", "3498", "3500", "3505"]}}, {"type": "Feature", "geometry": {"type": "Point", "coordinates": [139.29499, -34.92695]}, "properties": {"rank": 62, "id": "WASTSA387", "name": "Mannum Transfer Station", "owner": "Mid Murray Council", "type": "TRANSFER STATION", "state": "SA", "suburb": "Mannum", "in_capital": false, "tonnes": [38.6, 44.5, 50.6, 56.8, 63.1, 69.2, 75.3, 81.1, 86.6, 91.8], "panels": [2210, 2522, 2844, 3170, 3495, 3815, 4124, 4419, 4697, 4953], "poas": ["5236", "5237", "5238", "5253", "5254"]}}, {"type": "Feature", "geometry": {"type": "Point", "coordinates": [149.246, -33.55675]}, "properties": {"rank": 63, "id": "WASTNSW188", "name": "Blayney Waste Disposal Facility", "owner": "Blayney Shire Council", "type": "LANDFILL \u2013 PUTRESCIBLE", "state": "NSW", "suburb": "Blayney", "in_capital": false, "tonnes": [35.8, 42.6, 49.9, 57.3, 65.0, 72.7, 80.3, 87.7, 95.0, 101.8], "panels": [1985, 2336, 2706, 3088, 3475, 3863, 4244, 4616, 4973, 5310], "poas": ["2791", "2792", "2795", "2797", "2798", "2799"]}}, {"type": "Feature", "geometry": {"type": "Point", "coordinates": [146.20825, -36.46571]}, "properties": {"rank": 64, "id": "WASTVIC527", "name": "Glenrowan Transfer Station", "owner": "Wangaratta Rural City Council", "type": "TRANSFER STATION", "state": "VIC", "suburb": "Glenrowan", "in_capital": false, "tonnes": [36.1, 42.3, 48.9, 55.7, 62.6, 69.5, 76.3, 82.9, 89.3, 95.3], "panels": [2037, 2365, 2707, 3058, 3411, 3762, 4106, 4439, 4755, 5053], "poas": ["3672", "3673", "3675", "3677", "3678", "3725", "3726", "3732"]}}, {"type": "Feature", "geometry": {"type": "Point", "coordinates": [140.55661, -37.68104]}, "properties": {"rank": 65, "id": "WASTSA231", "name": "Glencoe Transfer Station\u00a0", "owner": "Wattle Range Council", "type": "TRANSFER STATION", "state": "SA", "suburb": "Tantanoola", "in_capital": false, "tonnes": [36.0, 41.7, 47.7, 53.8, 60.0, 66.1, 72.1, 77.8, 83.3, 88.4], "panels": [2032, 2336, 2651, 2971, 3290, 3605, 3910, 4203, 4479, 4736], "poas": ["5278", "5279", "5280", "5290", "5291"]}}, {"type": "Feature", "geometry": {"type": "Point", "coordinates": [150.59547, -34.27635]}, "properties": {"rank": 66, "id": "WASTNSW98", "name": "Bargo Waste Management Centre", "owner": "Wollondilly Shire Council", "type": "TRANSFER STATION; E-WASTE DROP-OFF FACILITY", "state": "NSW", "suburb": "Bargo", "in_capital": true, "tonnes": [104.6, 127.8, 153.0, 179.6, 207.0, 234.8, 262.8, 290.5, 317.5, 343.6], "panels": [5716, 6899, 8170, 9499, 10865, 12247, 13628, 14989, 16312, 17581], "poas": ["2560", "2563", "2568", "2569", "2570", "2571", "2572", "2573", "2574", "2575"]}}, {"type": "Feature", "geometry": {"type": "Point", "coordinates": [144.37574, -35.96159]}, "properties": {"rank": 67, "id": "WASTVIC539", "name": "Gunbower Resource Recovery Centre", "owner": "Campaspe Shire Council", "type": "TRANSFER STATION", "state": "VIC", "suburb": "Gunbower", "in_capital": false, "tonnes": [32.1, 37.6, 43.4, 49.4, 55.4, 61.4, 67.3, 73.0, 78.4, 83.6], "panels": [1790, 2081, 2383, 2691, 3000, 3306, 3605, 3894, 4168, 4424], "poas": ["2731", "3562", "3564", "3565", "3566", "3567", "3568", "3573", "3575"]}}, {"type": "Feature", "geometry": {"type": "Point", "coordinates": [150.38261, -35.5372]}, "properties": {"rank": 68, "id": "WASTNSW126", "name": "Kioloa Transfer Station", "owner": "Shoalhaven City Council", "type": "TRANSFER STATION", "state": "NSW", "suburb": "Bawley Point", "in_capital": false, "tonnes": [30.3, 36.3, 42.8, 49.6, 56.5, 63.5, 70.5, 77.3, 84.0, 90.4], "panels": [1678, 1989, 2319, 2661, 3010, 3361, 3709, 4048, 4376, 4688], "poas": ["2536", "2538", "2539"]}}, {"type": "Feature", "geometry": {"type": "Point", "coordinates": [147.83629, -37.69604]}, "properties": {"rank": 69, "id": "WASTVIC174", "name": "Bruthen Transfer Station", "owner": "East Gippsland Shire Council", "type": "TRANSFER STATION", "state": "VIC", "suburb": "Bruthen", "in_capital": false, "tonnes": [31.9, 37.2, 42.7, 48.3, 54.0, 59.7, 65.2, 70.6, 75.7, 80.5], "panels": [1803, 2081, 2369, 2663, 2957, 3247, 3529, 3801, 4058, 4297], "poas": ["3875", "3878", "3880", "3882", "3887", "3893", "3902", "3903", "3904", "3909"]}}, {"type": "Feature", "geometry": {"type": "Point", "coordinates": [152.23822, -28.08029]}, "properties": {"rank": 70, "id": "WASTQLD822", "name": "Maryvale Transfer Station", "owner": "Southern Downs Regional Council", "type": "TRANSFER STATION", "state": "QLD", "suburb": "Maryvale", "in_capital": false, "tonnes": [31.2, 36.1, 41.1, 46.3, 51.5, 56.6, 61.7, 66.6, 71.2, 75.5], "panels": [1789, 2047, 2314, 2584, 2853, 3119, 3376, 3623, 3855, 4070], "poas": ["4309", "4362", "4370", "4371", "4372", "4373"]}}, {"type": "Feature", "geometry": {"type": "Point", "coordinates": [152.92238, -29.76722]}, "properties": {"rank": 71, "id": "WASTNSW1351", "name": "Grafton Resource Recovery Facility", "owner": "Clarence Valley Council", "type": "TRANSFER STATION; LANDFILL \u2013 PUTRESCIBLE", "state": "NSW", "suburb": "Elland", "in_capital": false, "tonnes": [30.4, 35.6, 41.0, 46.5, 52.1, 57.7, 63.1, 68.5, 73.5, 78.3], "panels": [1715, 1985, 2266, 2553, 2841, 3126, 3404, 3673, 3927, 4165], "poas": ["2460", "2462"]}}, {"type": "Feature", "geometry": {"type": "Point", "coordinates": [151.38565, -32.81998]}, "properties": {"rank": 72, "id": "WASTNSW341", "name": "Cessnock Waste And Reuse Centre", "owner": "Cessnock City Council", "type": "TRANSFER STATION; LANDFILL \u2013 PUTRESCIBLE", "state": "NSW", "suburb": "Cessnock", "in_capital": false, "tonnes": [80.5, 97.2, 115.1, 133.8, 153.0, 172.4, 191.7, 210.8, 229.3, 247.1], "panels": [4422, 5277, 6187, 7133, 8099, 9071, 10035, 10981, 11895, 12766], "poas": ["2320", "2323", "2325", "2326", "2327", "2331", "2334", "2335"]}}, {"type": "Feature", "geometry": {"type": "Point", "coordinates": [152.95546, -27.11798]}, "properties": {"rank": 73, "id": "WASTQLD878", "name": "Officeworks", "owner": "Officeworks", "type": "E-WASTE DROP-OFF FACILITY", "state": "QLD", "suburb": "Morayfield", "in_capital": true, "tonnes": [403.3, 470.1, 540.2, 612.3, 685.2, 757.8, 829.1, 898.2, 964.3, 1026.6], "panels": [22803, 26321, 29985, 33720, 37468, 41177, 44797, 48282, 51588, 54674], "poas": ["4017", "4019", "4020", "4021", "4022", "4036", "4500", "4501", "4502", "4503", "4504", "4505", "4506", "4508", "4509", "4510", "4512", "4514", "4520", "4521"]}}, {"type": "Feature", "geometry": {"type": "Point", "coordinates": [146.10109, -41.15558]}, "properties": {"rank": 74, "id": "WASTTAS162", "name": "Lobster Creek Resource Recovery Centre", "owner": "Central Coast Council", "type": "TRANSFER STATION; LANDFILL \u2013 PUTRESCIBLE", "state": "TAS", "suburb": "West Ulverstone", "in_capital": false, "tonnes": [27.6, 32.2, 37.1, 42.1, 47.2, 52.3, 57.3, 62.2, 66.9, 71.3], "panels": [1548, 1790, 2043, 2303, 2564, 2822, 3076, 3320, 3553, 3770], "poas": ["7310", "7315", "7316", "7320", "7322"]}}, {"type": "Feature", "geometry": {"type": "Point", "coordinates": [145.97864, -34.59301]}, "properties": {"rank": 75, "id": "WASTNSW443", "name": "Darlington Point Waste Depot", "owner": "Murrumbidgee Council", "type": "LANDFILL \u2013 PUTRESCIBLE", "state": "NSW", "suburb": "Darlington Point", "in_capital": false, "tonnes": [27.2, 32.0, 37.0, 42.1, 47.4, 52.6, 57.7, 62.7, 67.5, 72.0], "panels": [1518, 1767, 2027, 2293, 2561, 2827, 3087, 3339, 3579, 3803], "poas": ["2680", "2706", "2707"]}}, {"type": "Feature", "geometry": {"type": "Point", "coordinates": [145.69608, -35.95531]}, "properties": {"rank": 76, "id": "WASTVIC267", "name": "Cobram Transfer Station", "owner": "Moira Shire Council", "type": "TRANSFER STATION; LANDFILL \u2013 PUTRESCIBLE", "state": "VIC", "suburb": "Cobram East", "in_capital": false, "tonnes": [33.5, 38.9, 44.5, 50.3, 56.0, 61.7, 67.3, 72.7, 77.8, 82.6], "panels": [1886, 2172, 2468, 2767, 3066, 3361, 3646, 3919, 4177, 4416], "poas": ["3636", "3640", "3641", "3644", "3649", "3730"]}}, {"type": "Feature", "geometry": {"type": "Point", "coordinates": [143.97413, -38.23905]}, "properties": {"rank": 77, "id": "WASTVIC1267", "name": "Winchelsea Transfer Station", "owner": "Surf Coast Shire Council", "type": "TRANSFER STATION", "state": "VIC", "suburb": "Winchelsea", "in_capital": false, "tonnes": [28.8, 34.0, 39.5, 45.2, 51.0, 56.8, 62.5, 68.1, 73.5, 78.6], "panels": [1619, 1889, 2173, 2464, 2759, 3052, 3340, 3620, 3887, 4139], "poas": ["3221", "3228", "3230", "3231", "3235", "3240", "3241", "3242", "3243", "3251", "3321", "3328", "3329"]}}, {"type": "Feature", "geometry": {"type": "Point", "coordinates": [137.76135, -32.9827]}, "properties": {"rank": 78, "id": "WASTSA578", "name": "Santos Landfill", "owner": "Santos Limited", "type": "LANDFILL \u2013 PUTRESCIBLE", "state": "SA", "suburb": "Port Bonython", "in_capital": false, "tonnes": [27.3, 30.8, 34.4, 38.0, 41.6, 45.0, 48.2, 51.3, 54.2, 56.8], "panels": [1582, 1775, 1969, 2162, 2350, 2531, 2703, 2863, 3009, 3141], "poas": ["5495", "5600", "5601", "5608", "5609"]}}, {"type": "Feature", "geometry": {"type": "Point", "coordinates": [150.05199, -33.63712]}, "properties": {"rank": 79, "id": "WASTNSW689", "name": "Hampton Transfer Station", "owner": "Lithgow City Council", "type": "TRANSFER STATION", "state": "NSW", "suburb": "Hampton", "in_capital": false, "tonnes": [24.3, 28.9, 33.9, 39.1, 44.4, 49.7, 55.1, 60.3, 65.4, 70.2], "panels": [1357, 1596, 1850, 2113, 2381, 2650, 2915, 3175, 3425, 3662], "poas": ["2780", "2785", "2786", "2787", "2790", "2845"]}}, {"type": "Feature", "geometry": {"type": "Point", "coordinates": [145.57955, -17.26069]}, "properties": {"rank": 80, "id": "WASTQLD1465", "name": "Yungaburra Transfer Station", "owner": "Tablelands Regional Council", "type": "TRANSFER STATION", "state": "QLD", "suburb": "Yungaburra", "in_capital": false, "tonnes": [24.1, 28.6, 33.3, 38.3, 43.4, 48.6, 53.7, 58.7, 63.6, 68.2], "panels": [1354, 1586, 1833, 2088, 2347, 2606, 2863, 3112, 3353, 3580], "poas": ["4865", "4882", "4883", "4884", "4885", "4886"]}}, {"type": "Feature", "geometry": {"type": "Point", "coordinates": [148.67401, -20.28391]}, "properties": {"rank": 81, "id": "WASTQLD262", "name": "Cannonvale Transfer Station", "owner": "Whitsunday Regional Council", "type": "TRANSFER STATION; E-WASTE DROP-OFF FACILITY", "state": "QLD", "suburb": "Cannonvale", "in_capital": false, "tonnes": [23.1, 27.7, 32.7, 37.9, 43.2, 48.6, 54.0, 59.3, 64.4, 69.4], "panels": [1278, 1515, 1768, 2031, 2300, 2570, 2838, 3100, 3354, 3595], "poas": ["4800", "4802"]}}, {"type": "Feature", "geometry": {"type": "Point", "coordinates": [137.59914, -34.06352]}, "properties": {"rank": 82, "id": "WASTSA438", "name": "Copper Coast Recycling", "owner": "Copper Coast Recycling Pty Ltd", "type": "TRANSFER STATION", "state": "SA", "suburb": "North Moonta", "in_capital": false, "tonnes": [25.1, 28.8, 32.7, 36.7, 40.7, 44.6, 48.4, 52.1, 55.6, 58.9], "panels": [1441, 1641, 1847, 2056, 2263, 2466, 2663, 2851, 3027, 3190], "poas": ["5552", "5554", "5556", "5558", "5572"]}}, {"type": "Feature", "geometry": {"type": "Point", "coordinates": [149.99571, -34.71603]}, "properties": {"rank": 83, "id": "WASTNSW933", "name": "Marulan Waste Management Centre", "owner": "Goulburn Mulwaree Shire Council", "type": "TRANSFER STATION; LANDFILL \u2013 PUTRESCIBLE", "state": "NSW", "suburb": "Marulan", "in_capital": false, "tonnes": [23.1, 27.5, 32.3, 37.3, 42.4, 47.5, 52.6, 57.7, 62.5, 67.2], "panels": [1280, 1510, 1754, 2007, 2264, 2523, 2778, 3027, 3267, 3495], "poas": ["2579", "2580"]}}, {"type": "Feature", "geometry": {"type": "Point", "coordinates": [147.23641, -19.7828]}, "properties": {"rank": 84, "id": "WASTQLD320", "name": "Clare Transfer Station", "owner": "Burdekin Shire Council", "type": "TRANSFER STATION", "state": "QLD", "suburb": "Clare", "in_capital": false, "tonnes": [23.5, 27.7, 32.2, 36.9, 41.6, 46.4, 51.1, 55.7, 60.1, 64.2], "panels": [1307, 1529, 1762, 2002, 2243, 2484, 2720, 2950, 3169, 3375], "poas": ["4806", "4807", "4809"]}}, {"type": "Feature", "geometry": {"type": "Point", "coordinates": [138.24213, -33.33319]}, "properties": {"rank": 85, "id": "WASTSA144", "name": "Crystal Brooke Transfer Station", "owner": "Port Pirie Regional Council", "type": "TRANSFER STATION", "state": "SA", "suburb": "Crystal Brook", "in_capital": false, "tonnes": [25.5, 28.9, 32.3, 35.8, 39.2, 42.5, 45.6, 48.6, 51.4, 54.0], "panels": [1481, 1664, 1851, 2035, 2216, 2391, 2557, 2713, 2856, 2984], "poas": ["5471", "5472", "5473", "5480", "5490", "5521", "5523", "5540"]}}, {"type": "Feature", "geometry": {"type": "Point", "coordinates": [152.50245, -30.81306]}, "properties": {"rank": 86, "id": "WASTNSW135", "name": "Bellbrook Waste Transfer Station", "owner": "Kempsey Shire Council", "type": "TRANSFER STATION", "state": "NSW", "suburb": "Bellbrook", "in_capital": false, "tonnes": [23.5, 27.6, 32.0, 36.5, 41.1, 45.6, 50.1, 54.5, 58.7, 62.7], "panels": [1314, 1531, 1758, 1990, 2224, 2457, 2685, 2905, 3115, 3312], "poas": ["2440", "2447"]}}, {"type": "Feature", "geometry": {"type": "Point", "coordinates": [114.66946, -28.80378]}, "properties": {"rank": 87, "id": "WASTWA791", "name": "Veolia Transfer Station Meru", "owner": "Veolia", "type": "TRANSFER STATION", "state": "WA", "suburb": "Narngulu", "in_capital": false, "tonnes": [23.8, 27.5, 31.4, 35.3, 39.2, 43.0, 46.8, 50.4, 53.8, 57.0], "panels": [1350, 1547, 1751, 1956, 2159, 2359, 2553, 2737, 2910, 3070], "poas": ["6528", "6530"]}}, {"type": "Feature", "geometry": {"type": "Point", "coordinates": [149.93041, -36.76202]}, "properties": {"rank": 88, "id": "WASTNSW1615", "name": "Wallagoot Waste Transfer Depot", "owner": "Bega Valley Shire Council", "type": "TRANSFER STATION", "state": "NSW", "suburb": "Wallagoot", "in_capital": false, "tonnes": [23.1, 27.0, 31.2, 35.5, 39.9, 44.2, 48.5, 52.7, 56.7, 60.5], "panels": [1307, 1513, 1728, 1949, 2171, 2392, 2608, 2817, 3017, 3204], "poas": ["2548", "2549", "2550"]}}, {"type": "Feature", "geometry": {"type": "Point", "coordinates": [145.92222, -38.55833]}, "properties": {"rank": 89, "id": "WASTVIC644", "name": "Koonwarra Landfill", "owner": "South Gippsland Shire Council", "type": "LANDFILL \u2013 PUTRESCIBLE", "state": "VIC", "suburb": "Koonwarra", "in_capital": false, "tonnes": [34.8, 40.7, 46.9, 53.3, 59.8, 66.2, 72.6, 78.7, 84.6, 90.2], "panels": [1956, 2268, 2592, 2923, 3255, 3585, 3907, 4217, 4513, 4789], "poas": ["3946", "3950", "3951", "3953", "3954", "3956", "3957", "3958", "3959", "3979", "3992", "3995", "3996"]}}, {"type": "Feature", "geometry": {"type": "Point", "coordinates": [153.5121, -28.59013]}, "properties": {"rank": 90, "id": "WASTNSW1066", "name": "Myocum Resource Recovery Centre", "owner": "Byron Shire Council", "type": "TRANSFER STATION; LANDFILL \u2013 PUTRESCIBLE", "state": "NSW", "suburb": "Myocum", "in_capital": false, "tonnes": [40.7, 47.9, 55.6, 63.6, 71.7, 79.7, 87.7, 95.6, 103.1, 110.2], "panels": [2285, 2663, 3061, 3469, 3881, 4292, 4695, 5087, 5461, 5813], "poas": ["2479", "2481", "2482", "2483"]}}, {"type": "Feature", "geometry": {"type": "Point", "coordinates": [151.81992, -26.44569]}, "properties": {"rank": 91, "id": "WASTQLD830", "name": "Memerambi Transfer Station", "owner": "South Burnett Regional Council", "type": "TRANSFER STATION", "state": "QLD", "suburb": "Memerambi", "in_capital": false, "tonnes": [23.2, 27.0, 31.0, 35.1, 39.2, 43.4, 47.5, 51.4, 55.2, 58.8], "panels": [1322, 1522, 1730, 1943, 2156, 2368, 2575, 2774, 2963, 3140], "poas": ["4606", "4608", "4610", "4615"]}}, {"type": "Feature", "geometry": {"type": "Point", "coordinates": [138.5043, -34.27815]}, "properties": {"rank": 92, "id": "WASTSA529", "name": "Owen Transfer Station", "owner": "Wakefield Regional Council", "type": "TRANSFER STATION", "state": "SA", "suburb": "Owen", "in_capital": false, "tonnes": [25.3, 29.5, 33.9, 38.5, 43.2, 47.8, 52.4, 56.9, 61.1, 65.1], "panels": [1432, 1654, 1887, 2125, 2364, 2601, 2833, 3057, 3269, 3469], "poas": ["5401", "5410", "5411", "5412", "5460", "5461", "5501", "5502"]}}, {"type": "Feature", "geometry": {"type": "Point", "coordinates": [147.0909, -37.95992]}, "properties": {"rank": 93, "id": "WASTVIC1103", "name": "Stratford Transfer Station", "owner": "Wellington Shire Council", "type": "TRANSFER STATION", "state": "VIC", "suburb": "Stratford", "in_capital": false, "tonnes": [23.2, 26.8, 30.7, 34.6, 38.5, 42.4, 46.3, 49.9, 53.4, 56.7], "panels": [1313, 1508, 1710, 1915, 2119, 2320, 2515, 2702, 2879, 3042], "poas": ["3850", "3851", "3852", "3859", "3860", "3864"]}}, {"type": "Feature", "geometry": {"type": "Point", "coordinates": [142.64384, -38.30621]}, "properties": {"rank": 94, "id": "WASTVIC500", "name": "Framlingham Transfer Station", "owner": "Framlingham Aboriginal Trust", "type": "TRANSFER STATION", "state": "VIC", "suburb": "Framlingham", "in_capital": false, "tonnes": [22.1, 26.1, 30.3, 34.7, 39.1, 43.5, 47.9, 52.2, 56.3, 60.2], "panels": [1231, 1441, 1660, 1885, 2112, 2337, 2559, 2774, 2978, 3171], "poas": ["3264", "3265", "3275", "3276", "3277", "3278", "3279", "3280", "3281", "3282"]}}, {"type": "Feature", "geometry": {"type": "Point", "coordinates": [152.44468, -31.62863]}, "properties": {"rank": 95, "id": "WASTNSW382", "name": "Comboyne Transfer Station", "owner": "Port Macquarie Hastings Council", "type": "TRANSFER STATION", "state": "NSW", "suburb": "Comboyne", "in_capital": false, "tonnes": [22.8, 26.8, 31.0, 35.4, 39.8, 44.2, 48.6, 52.8, 56.9, 60.7], "panels": [1284, 1494, 1712, 1937, 2162, 2387, 2607, 2820, 3022, 3213], "poas": ["2426", "2429", "2446"]}}, {"type": "Feature", "geometry": {"type": "Point", "coordinates": [153.35758, -29.38721]}, "properties": {"rank": 96, "id": "WASTNSW730", "name": "Iluka Waste Transfer Station", "owner": "Clarence Valley Council", "type": "TRANSFER STATION", "state": "NSW", "suburb": "Iluka", "in_capital": false, "tonnes": [19.0, 22.4, 26.0, 29.8, 33.6, 37.5, 41.3, 45.0, 48.6, 52.0], "panels": [1066, 1245, 1434, 1627, 1823, 2018, 2211, 2397, 2576, 2744], "poas": ["2463", "2464", "2465", "2466", "2472"]}}, {"type": "Feature", "geometry": {"type": "Point", "coordinates": [146.429, -35.95044]}, "properties": {"rank": 97, "id": "WASTNSW417", "name": "Corowa Waste Management Centre", "owner": "Federation Council", "type": "TRANSFER STATION; LANDFILL \u2013 PUTRESCIBLE", "state": "NSW", "suburb": "Hopefield", "in_capital": false, "tonnes": [19.7, 22.6, 25.6, 28.7, 31.7, 34.7, 37.6, 40.4, 43.1, 45.5], "panels": [1129, 1284, 1443, 1603, 1762, 1917, 2067, 2209, 2342, 2464], "poas": ["2643", "2646", "3682", "3685", "3687"]}}, {"type": "Feature", "geometry": {"type": "Point", "coordinates": [149.63127, -32.4176]}, "properties": {"rank": 98, "id": "WASTNSW712", "name": "Home Rule Transfer Station", "owner": "Mid-Western Regional Council", "type": "TRANSFER STATION", "state": "NSW", "suburb": "Home Rule", "in_capital": false, "tonnes": [18.4, 21.9, 25.5, 29.3, 33.2, 37.1, 40.9, 44.7, 48.3, 51.7], "panels": [1018, 1197, 1385, 1579, 1776, 1972, 2165, 2353, 2534, 2704], "poas": ["2850", "2852"]}}, {"type": "Feature", "geometry": {"type": "Point", "coordinates": [151.78437, -30.55431]}, "properties": {"rank": 99, "id": "WASTNSW968", "name": "Armidale Regional Landfill", "owner": "Armidale Regional Council", "type": "LANDFILL \u2013 PUTRESCIBLE", "state": "NSW", "suburb": "Metz", "in_capital": false, "tonnes": [17.8, 21.0, 24.4, 27.9, 31.4, 35.0, 38.6, 42.0, 45.3, 48.5], "panels": [990, 1157, 1332, 1512, 1694, 1875, 2053, 2226, 2392, 2547], "poas": ["2350"]}}, {"type": "Feature", "geometry": {"type": "Point", "coordinates": [143.79175, -37.06472]}, "properties": {"rank": 100, "id": "WASTVIC213", "name": "Carisbrook Transfer Station And Resource Recovery Ce", "owner": "Central Goldfields Shire Council", "type": "TRANSFER STATION", "state": "VIC", "suburb": "Carisbrook", "in_capital": false, "tonnes": [17.9, 20.6, 23.4, 26.3, 29.2, 32.0, 34.7, 37.3, 39.8, 42.0], "panels": [1014, 1160, 1310, 1460, 1609, 1755, 1896, 2030, 2155, 2270], "poas": ["3371", "3462", "3463", "3464", "3465", "3467", "3472"]}}]}
