{"type": "FeatureCollection", "years": [2026, 2027, 2028, 2029, 2030, 2031, 2032, 2033, 2034, 2035], "features": [{"type": "Feature", "geometry": {"type": "Point", "coordinates": [149.08881, -35.35056]}, "properties": {"rank": 1, "id": "WASTACT61", "name": "Philip Recycling Drop Off Centre", "owner": "Act Government", "type": "TRANSFER STATION", "state": "ACT", "suburb": "Phillip", "in_capital": true, "tonnes": [232.9, 280.9, 332.2, 385.6, 439.7, 493.8, 546.9, 598.0, 646.4, 691.3], "panels": [12832, 15257, 17828, 20477, 23151, 25801, 28383, 30854, 33175, 35308], "poas": ["2601", "2603", "2605", "2606", "2607", "2611", "2614", "2615", "2617", "2618", "2620", "2900", "2902", "2903", "2904", "2905", "2906"]}}, {"type": "Feature", "geometry": {"type": "Point", "coordinates": [149.1799, -35.33068]}, "properties": {"rank": 2, "id": "WASTACT18", "name": "Domayne Fyshwick", "owner": "Domayne", "type": "E-WASTE DROP-OFF FACILITY", "state": "ACT", "suburb": "Fyshwick", "in_capital": true, "tonnes": [106.9, 130.8, 156.5, 183.3, 210.7, 238.1, 265.2, 291.4, 316.3, 339.5], "panels": [5812, 7012, 8293, 9620, 10967, 12310, 13625, 14892, 16088, 17196], "poas": ["2600", "2602", "2604", "2609", "2612", "2619", "2621", "2911", "2912", "2913", "2914"]}}, {"type": "Feature", "geometry": {"type": "Point", "coordinates": [150.98444, -33.86979]}, "properties": {"rank": 3, "id": "WASTNSW1146", "name": "Officeworks", "owner": "Officeworks", "type": "E-WASTE DROP-OFF FACILITY", "state": "NSW", "suburb": "Old Guildford", "in_capital": true, "tonnes": [1438.7, 1746.5, 2077.8, 2423.2, 2775.6, 3128.5, 3475.8, 3811.7, 4130.8, 4428.0], "panels": [79023, 94570, 111147, 128302, 145685, 162979, 179888, 196133, 211452, 225603], "poas": ["2000", "2007", "2008", "2009", "2010", "2011", "2015", "2016", "2017", "2018", "2019", "2020", "2021", "2022", "2023", "2024", "2025", "2026", "2027", "2028", "2029", "2030", "2031", "2032", "2033", "2034", "2035", "2036", "2037", "2038", "2039", "2040", "2041", "2042", "2043", "2044", "2045", "2046", "2047", "2048", "2049", "2050", "2060", "2061", "2062", "2063", "2064", "2065", "2066", "2067", "2068", "2069", "2070", "2071", "2072", "2073", "2074", "2075", "2076", "2077", "2086", "2087", "2088", "2089", "2090", "2092", "2093", "2094", "2095", "2096", "2100", "2110", "2111", "2112", "2113", "2114", "2115", "2116", "2117", "2118", "2119", "2120", "2121", "2122", "2125", "2126", "2127", "2128", "2130", "2131", "2132", "2133", "2134", "2135", "2136", "2137", "2138", "2140", "2141", "2142", "2143", "2144", "2145", "2146", "2147", "2148", "2150", "2151", "2152", "2153", "2154", "2155", "2156", "2158", "2160", "2161", "2162", "2163", "2164", "2165", "2166", "2167", "2168", "2170", "2171", "2172", "2173", "2174", "2175", "2176", "2177", "2179", "2190", "2191", "2192", "2193", "2194", "2195", "2196", "2197", "2198", "2199", "2200", "2203", "2204", "2205", "2206", "2207", "2208", "2209", "2210", "2211", "2212", "2213", "2214", "2216", "2217", "2218", "2219", "2220", "2221", "2222", "2223", "2224", "2225", "2226", "2227", "2228", "2229", "2230", "2231", "2232", "2233", "2234", "2558", "2559", "2564", "2565", "2566", "2762", "2763", "2766", "2767", "2768", "2769"]}}, {"type": "Feature", "geometry": {"type": "Point", "coordinates": [153.48421, -28.24641]}, "properties": {"rank": 4, "id": "WASTNSW1480", "name": "Walls Quarry", "owner": "Walls Quarry", "type": "TRANSFER STATION", "state": "NSW", "suburb": "Bungalora", "in_capital": false, "tonnes": [357.5, 415.7, 476.1, 537.4, 598.2, 657.5, 714.4, 767.8, 817.0, 861.1], "panels": [20147, 23180, 26299, 29431, 32514, 35495, 38324, 40955, 43348, 45466], "poas": ["2484", "2485", "2486", "2487", "2488", "2489", "2490", "4213", "4218", "4220", "4221", "4223", "4224", "4225", "4226", "4227", "4228"]}}, {"type": "Feature", "geometry": {"type": "Point", "coordinates": [131.0151, -12.49683]}, "properties": {"rank": 5, "id": "WASTNT87", "name": "Howard Springs Transfer Station", "owner": "Litchfield Council", "type": "TRANSFER STATION", "state": "NT", "suburb": "Howard Springs", "in_capital": true, "tonnes": [103.0, 122.6, 143.0, 163.8, 184.4, 204.6, 224.0, 242.4, 259.3, 274.6], "panels": [5553, 6570, 7621, 8684, 9737, 10764, 11746, 12668, 13515, 14273], "poas": ["0800", "0810", "0812", "0820", "0828", "0829", "0830", "0832", "0834", "0835", "0836", "0838", "0839"]}}, {"type": "Feature", "geometry": {"type": "Point", "coordinates": [133.87852, -23.69809]}, "properties": {"rank": 6, "id": "WASTNT13", "name": "Igear", "owner": "Igear", "type": "E-WASTE DROP-OFF FACILITY", "state": "NT", "suburb": "Alice Springs", "in_capital": false, "tonnes": [24.9, 28.6, 32.2, 35.8, 39.3, 42.7, 45.8, 48.6, 51.1, 53.3], "panels": [1393, 1585, 1777, 1966, 2149, 2321, 2480, 2624, 2751, 2858], "poas": ["0870", "0873", "0874", "0875"]}}, {"type": "Feature", "geometry": {"type": "Point", "coordinates": [153.02631, -27.54612]}, "properties": {"rank": 7, "id": "WASTQLD1159", "name": "Kartaway Salisbury", "owner": "Kartaway Mini Skips", "type": "TRANSFER STATION", "state": "QLD", "suburb": "Salisbury", "in_capital": true, "tonnes": [1887.8, 2197.4, 2520.7, 2849.2, 3176.3, 3496.2, 3803.4, 4093.0, 4360.4, 4601.4], "panels": [106400, 122524, 139173, 155928, 172462, 188483, 203722, 217935, 230898, 242415], "poas": ["4000", "4005", "4006", "4007", "4008", "4009", "4010", "4011", "4012", "4013", "4014", "4018", "4030", "4031", "4032", "4034", "4035", "4037", "4051", "4053", "4054", "4055", "4059", "4060", "4061", "4064", "4065", "4066", "4067", "4068", "4069", "4070", "4073", "4074", "4075", "4076", "4077", "4078", "4101", "4102", "4103", "4104", "4105", "4106", "4107", "4108", "4109", "4110", "4111", "4112", "4113", "4114", "4115", "4116", "4117", "4118", "4119", "4120", "4121", "4122", "4123", "4124", "4125", "4127", "4128", "4129", "4130", "4131", "4132", "4133", "4151", "4152", "4153", "4154", "4155", "4156", "4157", "4158", "4159", "4160", "4161", "4163", "4164", "4165", "4169", "4170", "4171", "4172", "4173", "4174", "4178", "4179", "4205", "4300", "4301", "4303", "4304", "4305", "4306"]}}, {"type": "Feature", "geometry": {"type": "Point", "coordinates": [153.03705, -27.03107]}, "properties": {"rank": 8, "id": "WASTQLD1297", "name": "Toorbul Transfer Station", "owner": "Moreton Bay Regional Council", "type": "TRANSFER STATION", "state": "QLD", "suburb": "Toorbul", "in_capital": true, "tonnes": [184.8, 214.9, 246.3, 278.1, 309.7, 340.6, 370.2, 398.1, 423.7, 446.9], "panels": [10441, 12011, 13627, 15251, 16851, 18399, 19869, 21237, 22484, 23588], "poas": ["4507", "4511", "4516", "4517", "4518", "4519", "4550", "4551"]}}, {"type": "Feature", "geometry": {"type": "Point", "coordinates": [138.66036, -34.93922]}, "properties": {"rank": 9, "id": "WASTSA83", "name": "Burnside Council Depot", "owner": "Burnside City Council", "type": "E-WASTE DROP-OFF FACILITY", "state": "SA", "suburb": "Burnside", "in_capital": true, "tonnes": [1283.0, 1483.1, 1690.3, 1899.4, 2106.5, 2307.7, 2499.8, 2679.6, 2844.4, 2991.5], "panels": [72733, 83216, 93955, 104691, 115218, 125354, 134929, 143791, 151802, 158843], "poas": ["5000", "5006", "5007", "5008", "5009", "5010", "5011", "5012", "5013", "5014", "5015", "5016", "5017", "5018", "5019", "5020", "5021", "5022", "5023", "5024", "5025", "5031", "5032", "5033", "5034", "5035", "5037", "5038", "5039", "5040", "5041", "5042", "5043", "5044", "5045", "5046", "5047", "5048", "5049", "5050", "5051", "5052", "5061", "5062", "5063", "5064", "5065", "5066", "5067", "5068", "5069", "5070", "5072", "5073", "5074", "5075", "5076", "5081", "5082", "5083", "5084", "5085", "5086", "5087", "5088", "5089", "5090", "5091", "5092", "5093", "5094", "5095", "5096", "5097", "5098", "5106", "5107", "5108", "5109", "5110", "5126", "5127", "5131", "5132", "5133", "5134", "5136", "5137", "5138", "5139", "5140", "5141", "5142", "5144", "5150", "5151", "5152", "5154", "5155", "5156", "5158", "5159", "5160", "5161", "5166", "5232", "5240", "5241", "5242", "5243", "5244", "5950"]}}, {"type": "Feature", "geometry": {"type": "Point", "coordinates": [138.79969, -34.62177]}, "properties": {"rank": 10, "id": "WASTSA287", "name": "Rocla Limited Waste Facility", "owner": "Rocla Limited", "type": "LANDFILL \u2013 PUTRESCIBLE", "state": "SA", "suburb": "Kalbeeba", "in_capital": true, "tonnes": [260.9, 303.7, 348.4, 393.9, 439.2, 483.6, 526.3, 566.6, 603.9, 637.5], "panels": [14742, 16969, 19271, 21590, 23880, 26101, 28215, 30190, 31993, 33598], "poas": ["5111", "5112", "5113", "5114", "5115", "5116", "5117", "5118", "5120", "5121", "5125", "5231", "5233", "5234", "5235", "5350", "5351", "5352", "5355", "5360", "5371", "5372", "5400"]}}, {"type": "Feature", "geometry": {"type": "Point", "coordinates": [147.40085, -42.86079]}, "properties": {"rank": 11, "id": "GA-OBJECTID-6248", "name": "Mornington Park Waste Transfer Station", "owner": "Clarence City Council", "type": "TRANSFER STATION", "state": "TAS", "suburb": "Mornington", "in_capital": true, "tonnes": [106.3, 123.9, 142.6, 161.8, 181.1, 200.1, 218.5, 236.0, 252.3, 267.2], "panels": [5986, 6898, 7852, 8820, 9784, 10724, 11626, 12474, 13256, 13959], "poas": ["7000", "7004", "7005", "7007", "7008", "7009", "7010", "7011", "7012", "7015", "7016", "7017", "7018", "7019", "7020", "7021", "7022", "7023", "7024", "7025", "7026", "7050", "7052", "7053", "7054", "7055", "7170", "7171", "7172", "7173", "7186"]}}, {"type": "Feature", "geometry": {"type": "Point", "coordinates": [146.94885, -41.30208]}, "properties": {"rank": 12, "id": "WASTTAS47", "name": "Exeter Transfer Station", "owner": "West Tamar Council", "type": "TRANSFER STATION; E-WASTE DROP-OFF FACILITY", "state": "TAS", "suburb": "Exeter", "in_capital": false, "tonnes": [67.4, 78.4, 89.8, 101.3, 112.8, 124.1, 134.9, 145.0, 154.4, 162.8], "panels": [3784, 4354, 4941, 5532, 6115, 6678, 7214, 7713, 8168, 8571], "poas": ["7248", "7249", "7250", "7252", "7253", "7267", "7268", "7270", "7275", "7276", "7277", "7290", "7291", "7292", "7303"]}}, {"type": "Feature", "geometry": {"type": "Point", "coordinates": [145.01093, -37.81999]}, "properties": {"rank": 13, "id": "WASTVIC988", "name": "Officeworks", "owner": "Officeworks", "type": "E-WASTE DROP-OFF FACILITY", "state": "VIC", "suburb": "Richmond", "in_capital": true, "tonnes": [1070.9, 1274.4, 1489.8, 1711.3, 1934.5, 2155.3, 2370.1, 2575.3, 2767.5, 2943.8], "panels": [59183, 69607, 80530, 91676, 102826, 113780, 124355, 134376, 143683, 152132], "poas": ["3000", "3002", "3003", "3004", "3006", "3008", "3011", "3012", "3013", "3015", "3016", "3018", "3019", "3020", "3022", "3025", "3026", "3028", "3031", "3032", "3033", "3034", "3039", "3040", "3041", "3042", "3043", "3044", "3046", "3047", "3048", "3049", "3051", "3052", "3053", "3054", "3055", "3056", "3057", "3058", "3059", "3060", "3061", "3062", "3064", "3065", "3066", "3067", "3068", "3070", "3071", "3072", "3073", "3074", "3075", "3076", "3078", "3079", "3081", "3082", "3083", "3084", "3085", "3087", "3088", "3089", "3090", "3091", "3093", "3094", "3095", "3101", "3102", "3103", "3104", "3105", "3106", "3107", "3108", "3109", "3111", "3121", "3122", "3123", "3124", "3125", "3126", "3127", "3128", "3129", "3130", "3131", "3132", "3133", "3141", "3142", "3143", "3144", "3145", "3146", "3147", "3148", "3149", "3150", "3151", "3152", "3161", "3162", "3163", "3165", "3166", "3167", "3168", "3169", "3170", "3171", "3178", "3179", "3181", "3182", "3183", "3184", "3185", "3186", "3187", "3188", "3189", "3190", "3191", "3192", "3193", "3194", "3202", "3204", "3205", "3206", "3207", "3750", "3752", "3754"]}}, {"type": "Feature", "geometry": {"type": "Point", "coordinates": [145.1987, -38.14064]}, "properties": {"rank": 14, "id": "WASTVIC669", "name": "Glen Landfill Pty Ltd", "owner": "Glen Landfill Pty Ltd", "type": "LANDFILL \u2013 PUTRESCIBLE", "state": "VIC", "suburb": "Langwarrin", "in_capital": true, "tonnes": [543.4, 645.9, 753.8, 864.5, 975.7, 1085.4, 1191.8, 1293.2, 1387.8, 1474.2], "panels": [29970, 35236, 40733, 46326, 51907, 57377, 62644, 67621, 72230, 76397], "poas": ["3172", "3173", "3174", "3175", "3177", "3195", "3196", "3197", "3198", "3199", "3200", "3201", "3802", "3803", "3804", "3805", "3806", "3807", "3808", "3809", "3810", "3910", "3911", "3912", "3913", "3921", "3930", "3933", "3975", "3976", "3977", "3978", "3980"]}}, {"type": "Feature", "geometry": {"type": "Point", "coordinates": [115.93502, -32.0198]}, "properties": {"rank": 15, "id": "WASTWA224", "name": "Harvey Norman", "owner": "Harvey Norman", "type": "E-WASTE DROP-OFF FACILITY", "state": "WA", "suburb": "Cannington", "in_capital": true, "tonnes": [1182.2, 1382.8, 1592.2, 1804.8, 2016.6, 2223.8, 2422.7, 2610.3, 2783.4, 2939.5], "panels": [65908, 76336, 87110, 97965, 108690, 119096, 129009, 138268, 146728, 154257], "poas": ["6000", "6003", "6004", "6005", "6006", "6007", "6008", "6009", "6010", "6011", "6012", "6014", "6015", "6016", "6017", "6018", "6019", "6021", "6050", "6051", "6052", "6053", "6054", "6055", "6056", "6057", "6058", "6059", "6060", "6061", "6062", "6063", "6070", "6071", "6072", "6073", "6076", "6081", "6090", "6100", "6101", "6102", "6103", "6104", "6105", "6106", "6107", "6108", "6109", "6110", "6111", "6112", "6121", "6122", "6123", "6147", "6148", "6149", "6150", "6151", "6152", "6153", "6154", "6155", "6156", "6157", "6158", "6159", "6160", "6162", "6163", "6164", "6165", "6166", "6167"]}}, {"type": "Feature", "geometry": {"type": "Point", "coordinates": [115.76058, -32.50438]}, "properties": {"rank": 16, "id": "WASTWA915", "name": "Gordon Road Transfer Station", "owner": "Cleanaway", "type": "TRANSFER STATION; LANDFILL \u2013 PUTRESCIBLE", "state": "WA", "suburb": "Parklands", "in_capital": true, "tonnes": [308.5, 358.2, 409.8, 461.9, 513.6, 563.8, 611.9, 656.9, 698.2, 735.1], "panels": [17313, 19910, 22577, 25249, 27875, 30408, 32806, 35031, 37049, 38827], "poas": ["6125", "6126", "6168", "6169", "6170", "6171", "6172", "6173", "6174", "6175", "6176", "6180", "6181", "6182", "6207", "6208", "6209", "6210", "6211", "6214"]}}, {"type": "Feature", "geometry": {"type": "Point", "coordinates": [152.94155, -26.54831]}, "properties": {"rank": 17, "id": "WASTQLD1435", "name": "Yandina Transfer Station", "owner": "Sunshine Coast Regoinal Council", "type": "TRANSFER STATION", "state": "QLD", "suburb": "Bridges", "in_capital": false, "tonnes": [417.0, 485.0, 555.9, 627.7, 699.2, 769.0, 836.0, 899.0, 957.1, 1009.4], "panels": [23529, 27075, 30729, 34401, 38021, 41524, 44853, 47952, 50775, 53278], "poas": ["4552", "4553", "4554", "4555", "4556", "4557", "4558", "4559", "4560", "4561", "4562", "4563", "4564", "4565", "4566", "4567", "4568", "4569", "4572", "4573", "4574", "4575"]}}, {"type": "Feature", "geometry": {"type": "Point", "coordinates": [151.55094, -33.02332]}, "properties": {"rank": 18, "id": "WASTNSW69", "name": "Awaba Waste Management Facility", "owner": "Lake Macquarie City Council/Civilake", "type": "TRANSFER STATION; LANDFILL \u2013 PUTRESCIBLE; E-WASTE DROP-OFF FACILITY", "state": "NSW", "suburb": "Awaba", "in_capital": false, "tonnes": [298.3, 356.9, 419.2, 483.5, 548.5, 613.0, 676.0, 736.4, 793.3, 845.7], "panels": [16514, 19503, 22649, 25872, 29107, 32298, 35389, 38330, 41075, 43580], "poas": ["2259", "2262", "2263", "2264", "2265", "2267", "2278", "2280", "2281", "2282", "2283", "2284", "2285", "2286", "2287", "2289", "2290", "2291", "2292", "2299", "2303", "2305", "2306"]}}, {"type": "Feature", "geometry": {"type": "Point", "coordinates": [153.18086, -27.9087]}, "properties": {"rank": 19, "id": "WASTQLD1264", "name": "Tamborine Mountain Transfer Station", "owner": "Scenic Rim Regional Council", "type": "TRANSFER STATION", "state": "QLD", "suburb": "Tamborine Mountain", "in_capital": false, "tonnes": [584.2, 685.6, 791.7, 899.8, 1007.8, 1113.8, 1215.9, 1312.5, 1402.0, 1483.2], "panels": [32622, 37872, 43311, 48807, 54253, 59553, 64618, 69366, 73721, 77618], "poas": ["4207", "4208", "4209", "4210", "4211", "4212", "4214", "4215", "4216", "4217", "4270", "4272", "4275", "4280", "4285"]}}, {"type": "Feature", "geometry": {"type": "Point", "coordinates": [144.38607, -38.0517]}, "properties": {"rank": 20, "id": "WASTVIC298", "name": "Suez Corio", "owner": "Suez Australia Pty Ltd", "type": "TRANSFER STATION", "state": "VIC", "suburb": "Corio", "in_capital": false, "tonnes": [179.4, 210.9, 244.0, 277.7, 311.4, 344.6, 376.6, 407.0, 435.1, 460.7], "panels": [10006, 11636, 13327, 15039, 16738, 18393, 19978, 21466, 22834, 24061], "poas": ["3211", "3212", "3213", "3214", "3215", "3216", "3217", "3218", "3219", "3220", "3222", "3223", "3224", "3226", "3227", "3331", "3332"]}}, {"type": "Feature", "geometry": {"type": "Point", "coordinates": [150.79828, -34.46363]}, "properties": {"rank": 21, "id": "WASTNSW785", "name": "Whytes Gully Waste Disposal Facility", "owner": "Wollongong City Council", "type": "TRANSFER STATION; LANDFILL \u2013 PUTRESCIBLE; E-WASTE DROP-OFF FACILITY", "state": "NSW", "suburb": "Kembla Grange", "in_capital": false, "tonnes": [176.0, 211.5, 249.2, 288.2, 327.7, 366.9, 405.2, 441.9, 476.5, 508.4], "panels": [9691, 11502, 13410, 15365, 17331, 19271, 21153, 22946, 24621, 26152], "poas": ["2500", "2502", "2505", "2506", "2515", "2516", "2517", "2518", "2519", "2525", "2526", "2527", "2528", "2529", "2530", "2533"]}}, {"type": "Feature", "geometry": {"type": "Point", "coordinates": [146.6983, -19.2762]}, "properties": {"rank": 22, "id": "WASTQLD1168", "name": "E-Waste Recycling Australia", "owner": "E-Waste Recycling Australia", "type": "E-WASTE DROP-OFF FACILITY", "state": "QLD", "suburb": "Shaw", "in_capital": false, "tonnes": [250.6, 290.7, 332.6, 375.1, 417.3, 458.5, 498.0, 535.2, 569.4, 600.2], "panels": [14159, 16258, 18420, 20592, 22731, 24799, 26762, 28588, 30249, 31719], "poas": ["4810", "4811", "4812", "4814", "4815", "4817", "4818", "4819"]}}, {"type": "Feature", "geometry": {"type": "Point", "coordinates": [151.29178, -33.50396]}, "properties": {"rank": 23, "id": "WASTNSW1723", "name": "Woy Woy Landfill", "owner": "Central Coast Council", "type": "LANDFILL \u2013 PUTRESCIBLE", "state": "NSW", "suburb": "Woy Woy", "in_capital": true, "tonnes": [222.9, 268.3, 317.0, 367.5, 418.8, 470.0, 520.2, 568.6, 614.4, 656.8], "panels": [12318, 14622, 17066, 19584, 22124, 24641, 27091, 29435, 31635, 33656], "poas": ["2079", "2080", "2081", "2082", "2083", "2084", "2085", "2097", "2099", "2101", "2102", "2103", "2104", "2105", "2106", "2107", "2108", "2157", "2159", "2250", "2251", "2256", "2257", "2258", "2260", "2261"]}}, {"type": "Feature", "geometry": {"type": "Point", "coordinates": [115.7989, -31.68263]}, "properties": {"rank": 24, "id": "WASTWA820", "name": "Alkina Holdings", "owner": "Alkina Holdings Pty Ltd", "type": "TRANSFER STATION", "state": "WA", "suburb": "Neerabup", "in_capital": true, "tonnes": [496.3, 578.5, 664.0, 750.4, 836.2, 919.8, 999.8, 1074.9, 1144.0, 1205.9], "panels": [27718, 32007, 36419, 40848, 45208, 49424, 53425, 57147, 60530, 63525], "poas": ["6020", "6022", "6023", "6024", "6025", "6026", "6027", "6028", "6029", "6030", "6031", "6032", "6033", "6034", "6035", "6036", "6037", "6038", "6064", "6065", "6066", "6067", "6068", "6069", "6077", "6078", "6079", "6084", "6501"]}}, {"type": "Feature", "geometry": {"type": "Point", "coordinates": [145.58408, -16.86977]}, "properties": {"rank": 25, "id": "WASTQLD726", "name": "Kuranda Transfer Station", "owner": "Mareeba Shire Council", "type": "TRANSFER STATION", "state": "QLD", "suburb": "Koah", "in_capital": false, "tonnes": [191.6, 227.4, 265.4, 304.6, 344.0, 383.0, 421.0, 457.2, 491.2, 522.3], "panels": [10620, 12463, 14397, 16370, 18345, 20284, 22156, 23929, 25575, 27068], "poas": ["4868", "4869", "4870", "4878", "4879", "4880", "4881"]}}, {"type": "Feature", "geometry": {"type": "Point", "coordinates": [150.6603, -33.80743]}, "properties": {"rank": 26, "id": "WASTNSW1040", "name": "Penrith Waste Services Pty Ltd", "owner": "Penrith Waste Services Pty Ltd", "type": "LANDFILL \u2013 PUTRESCIBLE", "state": "NSW", "suburb": "Mulgoa", "in_capital": true, "tonnes": [362.1, 443.5, 531.1, 622.6, 716.1, 809.9, 902.3, 991.8, 1077.0, 1156.5], "panels": [19693, 23789, 28163, 32699, 37306, 41899, 46400, 50736, 54834, 58631], "poas": ["2178", "2555", "2556", "2557", "2567", "2745", "2747", "2748", "2749", "2750", "2752", "2753", "2754", "2757", "2759", "2760", "2761", "2765", "2770", "2773", "2774", "2776", "2777", "2778", "2779", "2782", "2783", "2784"]}}, {"type": "Feature", "geometry": {"type": "Point", "coordinates": [151.92681, -27.76413]}, "properties": {"rank": 27, "id": "WASTQLD558", "name": "Greenmount Waste Management Facility", "owner": "Toowoomba Regional Council", "type": "TRANSFER STATION; LANDFILL \u2013 PUTRESCIBLE", "state": "QLD", "suburb": "East Greenmount", "in_capital": false, "tonnes": [154.8, 180.7, 207.8, 235.3, 262.8, 289.8, 315.7, 340.2, 362.8, 383.3], "panels": [8733, 10080, 11473, 12879, 14268, 15617, 16904, 18106, 19206, 20187], "poas": ["4350", "4352", "4358", "4359", "4360", "4361", "4363"]}}, {"type": "Feature", "geometry": {"type": "Point", "coordinates": [144.60331, -37.70008]}, "properties": {"rank": 28, "id": "WASTVIC746", "name": "Melton Recycling Centre", "owner": "Melton Shire Council", "type": "TRANSFER STATION", "state": "VIC", "suburb": "Cobblebank", "in_capital": true, "tonnes": [442.1, 529.8, 623.2, 719.7, 817.4, 914.5, 1009.4, 1100.3, 1186.0, 1265.0], "panels": [24360, 28837, 33556, 38396, 43259, 48059, 52714, 57147, 61288, 65071], "poas": ["3021", "3023", "3024", "3027", "3029", "3030", "3036", "3037", "3038", "3045", "3063", "3335", "3336", "3337", "3338", "3340", "3341", "3427", "3428", "3429", "3430", "3431", "3437", "3438"]}}, {"type": "Feature", "geometry": {"type": "Point", "coordinates": [152.61997, -25.53289]}, "properties": {"rank": 29, "id": "WASTQLD1455", "name": "Yengarie Transfer Station", "owner": "Fraser Coast Regional Council", "type": "TRANSFER STATION", "state": "QLD", "suburb": "Oakhurst", "in_capital": false, "tonnes": [155.6, 181.3, 208.1, 235.5, 262.9, 289.8, 315.6, 340.1, 362.8, 383.3], "panels": [8812, 10144, 11526, 12921, 14300, 15641, 16920, 18116, 19211, 20188], "poas": ["4650", "4655", "4659", "4662"]}}, {"type": "Feature", "geometry": {"type": "Point", "coordinates": [153.26188, -28.82292]}, "properties": {"rank": 30, "id": "WASTNSW877", "name": "Cleanaway Lismore", "owner": "Cleanaway", "type": "TRANSFER STATION", "state": "NSW", "suburb": "South Lismore", "in_capital": false, "tonnes": [142.7, 166.2, 190.6, 215.3, 239.8, 263.8, 286.7, 308.2, 328.1, 345.8], "panels": [8037, 9263, 10524, 11789, 13035, 14240, 15383, 16447, 17415, 18272], "poas": ["2470", "2471", "2477", "2478", "2480"]}}, {"type": "Feature", "geometry": {"type": "Point", "coordinates": [152.20627, -24.98703]}, "properties": {"rank": 31, "id": "WASTQLD1180", "name": "Bundaberg Regional Landfill", "owner": "Bundaberg Regional Council", "type": "LANDFILL \u2013 PUTRESCIBLE", "state": "QLD", "suburb": "South Bingera", "in_capital": false, "tonnes": [132.7, 153.6, 175.3, 197.3, 219.2, 240.5, 260.8, 279.9, 297.5, 313.3], "panels": [7534, 8630, 9755, 10883, 11991, 13060, 14072, 15011, 15863, 16614], "poas": ["4660", "4670"]}}, {"type": "Feature", "geometry": {"type": "Point", "coordinates": [148.96509, -21.35801]}, "properties": {"rank": 32, "id": "WASTQLD468", "name": "Hogans Pocket Landfill", "owner": "Mackay Regional Council", "type": "LANDFILL \u2013 PUTRESCIBLE", "state": "QLD", "suburb": "Eton", "in_capital": false, "tonnes": [122.4, 144.6, 168.2, 192.4, 216.7, 240.8, 264.1, 286.3, 307.1, 326.1], "panels": [6814, 7962, 9163, 10386, 11606, 12801, 13952, 15039, 16045, 16955], "poas": ["4737", "4740", "4751", "4753", "4754"]}}, {"type": "Feature", "geometry": {"type": "Point", "coordinates": [151.74589, -32.73106]}, "properties": {"rank": 33, "id": "WASTNSW1244", "name": "Suez Raymond Terrace Landfill", "owner": "Suez Australia Pty Ltd", "type": "LANDFILL \u2013 PUTRESCIBLE", "state": "NSW", "suburb": "Raymond Terrace", "in_capital": false, "tonnes": [129.1, 155.2, 182.9, 211.7, 240.7, 269.6, 297.9, 325.0, 350.5, 374.1], "panels": [7092, 8421, 9823, 11261, 12708, 14137, 15524, 16847, 18083, 19214], "poas": ["2293", "2294", "2295", "2296", "2297", "2298", "2300", "2302", "2304", "2307", "2308", "2316", "2318", "2319", "2321", "2322", "2324", "2421"]}}, {"type": "Feature", "geometry": {"type": "Point", "coordinates": [146.90611, -36.11802]}, "properties": {"rank": 34, "id": "WASTVIC1272", "name": "Wodonga Transfer Station", "owner": "Wodonga Council", "type": "TRANSFER STATION; E-WASTE DROP-OFF FACILITY", "state": "VIC", "suburb": "Wodonga", "in_capital": false, "tonnes": [110.8, 131.1, 152.5, 174.5, 196.5, 218.3, 239.3, 259.4, 278.1, 295.2], "panels": [6144, 7190, 8281, 9391, 10496, 11579, 12620, 13602, 14510, 15330], "poas": ["2640", "2641", "3683", "3688", "3690", "3691", "3695", "3749"]}}, {"type": "Feature", "geometry": {"type": "Point", "coordinates": [138.76119, -35.18183]}, "properties": {"rank": 35, "id": "WASTSA406", "name": "Meadows Waste Depot", "owner": "Mount Barker District Council", "type": "TRANSFER STATION", "state": "SA", "suburb": "Meadows", "in_capital": true, "tonnes": [264.1, 304.2, 345.8, 387.7, 429.1, 469.3, 507.7, 543.5, 576.3, 605.5], "panels": [15044, 17152, 19308, 21459, 23565, 25588, 27496, 29257, 30845, 32237], "poas": ["5153", "5157", "5162", "5163", "5164", "5165", "5167", "5168", "5169", "5170", "5171", "5172", "5173", "5201", "5245", "5250", "5251", "5252", "5255"]}}, {"type": "Feature", "geometry": {"type": "Point", "coordinates": [150.50289, -34.72519]}, "properties": {"rank": 36, "id": "WASTNSW769", "name": "Kangaroo Valley Transfer Station", "owner": "Shoalhaven City Council", "type": "TRANSFER STATION", "state": "NSW", "suburb": "Kangaroo Valley", "in_capital": false, "tonnes": [114.0, 136.5, 160.3, 184.9, 209.6, 234.2, 258.1, 281.1, 302.6, 322.4], "panels": [6292, 7438, 8643, 9874, 11109, 12326, 13503, 14622, 15665, 16615], "poas": ["2534", "2535", "2540", "2541", "2576", "2577", "2578"]}}, {"type": "Feature", "geometry": {"type": "Point", "coordinates": [144.24664, -36.72781]}, "properties": {"rank": 37, "id": "WASTVIC432", "name": "Eaglehawk Transfer Station", "owner": "Greater Bendigo City Council", "type": "TRANSFER STATION; LANDFILL \u2013 PUTRESCIBLE", "state": "VIC", "suburb": "Eaglehawk", "in_capital": false, "tonnes": [104.2, 121.6, 139.7, 158.1, 176.3, 194.1, 211.2, 227.2, 242.0, 255.3], "panels": [5834, 6742, 7676, 8615, 9539, 10435, 11285, 12078, 12799, 13439], "poas": ["3453", "3515", "3516", "3550", "3551", "3555", "3556", "3557", "3570"]}}, {"type": "Feature", "geometry": {"type": "Point", "coordinates": [150.70424, -23.15472]}, "properties": {"rank": 38, "id": "WASTQLD80", "name": "Yeppoon Landfill", "owner": "Livingstone Shire Council", "type": "TRANSFER STATION; LANDFILL \u2013 PUTRESCIBLE", "state": "QLD", "suburb": "Barmaryee", "in_capital": false, "tonnes": [99.4, 116.0, 133.3, 150.9, 168.4, 185.5, 202.0, 217.5, 231.9, 244.9], "panels": [5604, 6468, 7358, 8255, 9141, 10000, 10818, 11581, 12278, 12898], "poas": ["4700", "4701", "4703", "4710", "4711"]}}, {"type": "Feature", "geometry": {"type": "Point", "coordinates": [143.88606, -37.41473]}, "properties": {"rank": 39, "id": "WASTVIC325", "name": "Creswick Transfer Station", "owner": "Hepburn Shire Council", "type": "TRANSFER STATION", "state": "VIC", "suburb": "Creswick", "in_capital": false, "tonnes": [88.9, 105.3, 122.6, 140.3, 158.1, 175.6, 192.5, 208.7, 223.7, 237.4], "panels": [4924, 5771, 6652, 7548, 8440, 9312, 10151, 10942, 11673, 12332], "poas": ["3345", "3350", "3352", "3355", "3356", "3357", "3358", "3363", "3364", "3370", "3460"]}}, {"type": "Feature", "geometry": {"type": "Point", "coordinates": [115.7895, -33.42634]}, "properties": {"rank": 40, "id": "WASTWA310", "name": "Dardanup Waste Transfer Station", "owner": "Dardanup Shire Council", "type": "TRANSFER STATION", "state": "WA", "suburb": "Crooked Brook", "in_capital": false, "tonnes": [95.1, 110.5, 126.6, 142.8, 158.9, 174.5, 189.5, 203.6, 216.5, 228.0], "panels": [5341, 6148, 6976, 7805, 8621, 9409, 10155, 10848, 11477, 12033], "poas": ["6223", "6224", "6226", "6227", "6228", "6229", "6230", "6232", "6233", "6236", "6237", "6239", "6240", "6271"]}}, {"type": "Feature", "geometry": {"type": "Point", "coordinates": [145.38834, -36.34767]}, "properties": {"rank": 41, "id": "WASTVIC1042", "name": "Shepparton Resource Recovery Centre", "owner": "Greater Shepparton City Council", "type": "TRANSFER STATION", "state": "VIC", "suburb": "Shepparton", "in_capital": false, "tonnes": [81.7, 95.4, 109.7, 124.2, 138.5, 152.4, 165.8, 178.3, 189.9, 200.2], "panels": [4548, 5267, 6004, 6743, 7471, 8176, 8844, 9466, 10032, 10533], "poas": ["3614", "3616", "3617", "3618", "3620", "3629", "3630", "3631", "3633", "3634", "3635", "3647"]}}, {"type": "Feature", "geometry": {"type": "Point", "coordinates": [145.86402, -38.22054]}, "properties": {"rank": 42, "id": "WASTVIC673", "name": "Lardner Transfer Station", "owner": "Baw Baw Shire Council", "type": "TRANSFER STATION", "state": "VIC", "suburb": "Lardner", "in_capital": false, "tonnes": [66.8, 78.5, 90.7, 103.1, 115.5, 127.7, 139.4, 150.5, 160.8, 170.1], "panels": [3723, 4326, 4951, 5583, 6208, 6817, 7399, 7945, 8445, 8893], "poas": ["3813", "3814", "3815", "3816", "3818", "3820", "3821", "3822", "3823", "3831", "3945", "3981", "3984", "3987", "3988"]}}, {"type": "Feature", "geometry": {"type": "Point", "coordinates": [152.72457, -31.6191]}, "properties": {"rank": 43, "id": "WASTNSW803", "name": "Kew Transfer Station", "owner": "Port Macquarie Hastings Council", "type": "TRANSFER STATION", "state": "NSW", "suburb": "Kew", "in_capital": false, "tonnes": [79.9, 93.9, 108.6, 123.6, 138.6, 153.3, 167.5, 181.0, 193.6, 204.9], "panels": [4487, 5212, 5963, 6724, 7478, 8213, 8917, 9578, 10186, 10731], "poas": ["2427", "2439", "2443", "2444", "2445"]}}, {"type": "Feature", "geometry": {"type": "Point", "coordinates": [152.36315, -27.62807]}, "properties": {"rank": 44, "id": "WASTQLD744", "name": "Laidley Transfer Station", "owner": "Lockyer Valley Regional Council", "type": "TRANSFER STATION", "state": "QLD", "suburb": "Laidley Heights", "in_capital": true, "tonnes": [89.1, 103.7, 119.1, 134.6, 150.2, 165.4, 180.0, 193.8, 206.5, 218.0], "panels": [5029, 5793, 6582, 7376, 8160, 8921, 9645, 10321, 10938, 11487], "poas": ["4311", "4340", "4341", "4342", "4343", "4344", "4346", "4347"]}}, {"type": "Feature", "geometry": {"type": "Point", "coordinates": [153.07985, -30.3224]}, "properties": {"rank": 45, "id": "WASTNSW372", "name": "Coffs Coast Resource Recovery Facility", "owner": "Coffs Harbour City Council", "type": "TRANSFER STATION; LANDFILL \u2013 PUTRESCIBLE", "state": "NSW", "suburb": "North Boambee Valley", "in_capital": false, "tonnes": [77.3, 91.3, 106.0, 121.0, 136.1, 150.8, 165.1, 178.7, 191.3, 202.7], "panels": [4292, 5016, 5768, 6529, 7286, 8025, 8734, 9401, 10015, 10568], "poas": ["2450", "2452", "2455", "2456"]}}, {"type": "Feature", "geometry": {"type": "Point", "coordinates": [152.43592, -26.19801]}, "properties": {"rank": 46, "id": "WASTQLD1387", "name": "Widgee Transfer Station", "owner": "Gympie Regional Council", "type": "TRANSFER STATION", "state": "QLD", "suburb": "Widgee", "in_capital": false, "tonnes": [75.4, 87.8, 100.7, 113.9, 127.0, 139.9, 152.2, 163.8, 174.6, 184.3], "panels": [4258, 4904, 5571, 6243, 6906, 7549, 8160, 8731, 9253, 9716], "poas": ["4570", "4600"]}}, {"type": "Feature", "geometry": {"type": "Point", "coordinates": [145.39501, -37.73826]}, "properties": {"rank": 47, "id": "WASTVIC288", "name": "Coldstream Recovery And Waste Transfer Station", "owner": "Yarra Ranges Shire Council", "type": "TRANSFER STATION", "state": "VIC", "suburb": "Lilydale", "in_capital": true, "tonnes": [237.2, 278.6, 322.0, 366.2, 410.5, 453.9, 495.7, 535.4, 572.2, 605.5], "panels": [13239, 15381, 17601, 19847, 22073, 24241, 26314, 28260, 30046, 31646], "poas": ["3096", "3097", "3099", "3113", "3114", "3115", "3116", "3134", "3135", "3136", "3137", "3138", "3139", "3140", "3153", "3154", "3155", "3156", "3158", "3159", "3160", "3180", "3759", "3760", "3761", "3763", "3765", "3766", "3767", "3770", "3775", "3777", "3778", "3781", "3782", "3785", "3786", "3787", "3788", "3789", "3791", "3792", "3793", "3795", "3796", "3797"]}}, {"type": "Feature", "geometry": {"type": "Point", "coordinates": [138.64799, -35.52291]}, "properties": {"rank": 48, "id": "WASTSA275", "name": "Mr Nottle And Ne Deluca-Cardillo", "owner": "Mr Nottle And Ne Deluca-Cardillo", "type": "TRANSFER STATION", "state": "SA", "suburb": "Hindmarsh Valley", "in_capital": false, "tonnes": [77.7, 88.7, 100.0, 111.3, 122.4, 133.1, 143.3, 152.7, 161.2, 168.7], "panels": [4465, 5046, 5637, 6221, 6789, 7330, 7836, 8298, 8710, 9065], "poas": ["5174", "5202", "5203", "5210", "5211", "5212", "5213", "5214"]}}, {"type": "Feature", "geometry": {"type": "Point", "coordinates": [151.35578, -24.02228]}, "properties": {"rank": 49, "id": "WASTQLD97", "name": "Benaraby Landfill", "owner": "Gladstone Regional Council", "type": "TRANSFER STATION; LANDFILL \u2013 PUTRESCIBLE", "state": "QLD", "suburb": "Benaraby", "in_capital": false, "tonnes": [70.1, 81.3, 93.0, 104.9, 116.8, 128.3, 139.5, 149.9, 159.6, 168.4], "panels": [4001, 4587, 5191, 5799, 6398, 6978, 7529, 8042, 8510, 8924], "poas": ["4678", "4680"]}}, {"type": "Feature", "geometry": {"type": "Point", "coordinates": [148.84485, -32.38884]}, "properties": {"rank": 50, "id": "WASTNSW588", "name": "Geurie Transfer Station", "owner": "Dubbo Regional Council", "type": "TRANSFER STATION", "state": "NSW", "suburb": "Geurie", "in_capital": false, "tonnes": [64.6, 75.4, 86.7, 98.2, 109.6, 120.8, 131.5, 141.6, 150.9, 159.3], "panels": [3625, 4189, 4771, 5357, 5934, 6494, 7027, 7524, 7978, 8382], "poas": ["2818", "2820", "2830"]}}, {"type": "Feature", "geometry": {"type": "Point", "coordinates": [152.49355, -32.12861]}, "properties": {"rank": 51, "id": "WASTNSW1543", "name": "Tuncurry Waste Management Centre", "owner": "Mid-Coast Council", "type": "LANDFILL \u2013 PUTRESCIBLE", "state": "NSW", "suburb": "Darawank", "in_capital": false, "tonnes": [63.4, 74.5, 86.0, 97.8, 109.5, 121.1, 132.2, 142.7, 152.5, 161.4], "panels": [3557, 4127, 4717, 5314, 5906, 6481, 7032, 7548, 8022, 8447], "poas": ["2312", "2428", "2430"]}}, {"type": "Feature", "geometry": {"type": "Point", "coordinates": [115.08929, -33.86565]}, "properties": {"rank": 52, "id": "WASTWA289", "name": "Cowaramup Transfer Station", "owner": "Augusta Margaret River Shire Council", "type": "TRANSFER STATION", "state": "WA", "suburb": "Cowaramup", "in_capital": false, "tonnes": [59.9, 70.7, 82.0, 93.5, 105.1, 116.6, 127.6, 138.1, 147.9, 156.8], "panels": [3336, 3891, 4468, 5055, 5638, 6209, 6756, 7271, 7747, 8175], "poas": ["6280", "6281", "6282", "6284", "6285", "6286"]}}, {"type": "Feature", "geometry": {"type": "Point", "coordinates": [140.60506, -34.2572]}, "properties": {"rank": 53, "id": "WASTSA432", "name": "Riverland Resource Recovery Facility", "owner": "Berri Barmera Council", "type": "TRANSFER STATION; LANDFILL \u2013 PUTRESCIBLE", "state": "SA", "suburb": "Monash", "in_capital": false, "tonnes": [63.3, 71.7, 80.2, 88.6, 96.7, 104.4, 111.6, 118.1, 123.9, 128.8], "panels": [3623, 4074, 4525, 4965, 5387, 5783, 6148, 6474, 6758, 6995], "poas": ["5331", "5332", "5333", "5340", "5341", "5342", "5343", "5344", "5345", "5346"]}}, {"type": "Feature", "geometry": {"type": "Point", "coordinates": [145.16298, -37.27395]}, "properties": {"rank": 54, "id": "WASTVIC641", "name": "Kinglake Resource Recovery Centre", "owner": "Murrindindi Shire Council", "type": "TRANSFER STATION", "state": "VIC", "suburb": "Reedy Creek", "in_capital": false, "tonnes": [54.6, 64.3, 74.6, 85.1, 95.6, 105.9, 116.0, 125.5, 134.3, 142.4], "panels": [3044, 3546, 4069, 4600, 5128, 5644, 6140, 6606, 7036, 7423], "poas": ["3658", "3659", "3660", "3717", "3753", "3756", "3757", "3758", "3762", "3764"]}}, {"type": "Feature", "geometry": {"type": "Point", "coordinates": [147.26058, -35.1897]}, "properties": {"rank": 55, "id": "WASTNSW1579", "name": "Uranquinty Rural Transfer Station", "owner": "Wagga Wagga City Council", "type": "TRANSFER STATION", "state": "NSW", "suburb": "Uranquinty", "in_capital": false, "tonnes": [54.3, 64.2, 74.6, 85.2, 95.8, 106.3, 116.4, 126.1, 135.1, 143.3], "panels": [3015, 3523, 4052, 4588, 5122, 5644, 6145, 6618, 7054, 7446], "poas": ["2650", "2651", "2655", "2661", "2678"]}}, {"type": "Feature", "geometry": {"type": "Point", "coordinates": [150.92679, -31.06325]}, "properties": {"rank": 56, "id": "WASTNSW1442", "name": "Tamworth Landfill", "owner": "Tamworth Regional Council", "type": "TRANSFER STATION; LANDFILL \u2013 PUTRESCIBLE", "state": "NSW", "suburb": "North Tamworth", "in_capital": false, "tonnes": [53.2, 62.9, 73.0, 83.4, 93.7, 103.9, 113.8, 123.1, 131.8, 139.7], "panels": [2941, 3440, 3959, 4485, 5007, 5517, 6005, 6465, 6889, 7270], "poas": ["2340", "2344", "2345", "2352", "2353"]}}, {"type": "Feature", "geometry": {"type": "Point", "coordinates": [144.9782, -38.3438]}, "properties": {"rank": 57, "id": "WASTVIC412", "name": "Dromana Hopper", "owner": "Mornington Peninsula Shire Council", "type": "TRANSFER STATION", "state": "VIC", "suburb": "Dromana", "in_capital": true, "tonnes": [114.4, 135.0, 156.6, 178.7, 200.8, 222.5, 243.4, 263.3, 281.8, 298.6], "panels": [6354, 7416, 8519, 9636, 10746, 11830, 12868, 13845, 14744, 15553], "poas": ["3915", "3916", "3918", "3919", "3920", "3922", "3926", "3927", "3928", "3929", "3931", "3934", "3936", "3937", "3938", "3939", "3940", "3941", "3942", "3943", "3944"]}}, {"type": "Feature", "geometry": {"type": "Point", "coordinates": [146.4264, -38.25421]}, "properties": {"rank": 58, "id": "WASTVIC564", "name": "Morwell Transfer Station", "owner": "Latrobe City Council", "type": "TRANSFER STATION", "state": "VIC", "suburb": "Hazelwood North", "in_capital": false, "tonnes": [58.5, 68.0, 77.8, 87.7, 97.5, 107.1, 116.2, 124.8, 132.6, 139.7], "panels": [3293, 3788, 4295, 4803, 5301, 5783, 6239, 6661, 7045, 7383], "poas": ["3824", "3835", "3840", "3842", "3844", "3854", "3856", "3869", "3870", "3871", "3873"]}}, {"type": "Feature", "geometry": {"type": "Point", "coordinates": [148.79979, -33.42864]}, "properties": {"rank": 59, "id": "WASTNSW306", "name": "Cargo Waste Management Facility", "owner": "Cabonne Shire Council", "type": "TRANSFER STATION; LANDFILL \u2013 PUTRESCIBLE", "state": "NSW", "suburb": "Cargo", "in_capital": false, "tonnes": [49.6, 59.0, 68.9, 79.1, 89.3, 99.5, 109.3, 118.6, 127.4, 135.4], "panels": [2724, 3207, 3711, 4225, 4739, 5242, 5728, 6187, 6612, 6998], "poas": ["2800", "2804", "2864"]}}, {"type": "Feature", "geometry": {"type": "Point", "coordinates": [142.07795, -34.09023]}, "properties": {"rank": 60, "id": "WASTNSW399", "name": "Dareton Transfer Station", "owner": "Wentworth Shire Council", "type": "TRANSFER STATION", "state": "NSW", "suburb": "Coomealla", "in_capital": false, "tonnes": [50.7, 59.6, 68.9, 78.3, 87.6, 96.7, 105.4, 113.5, 121.0, 127.8], "panels": [2784, 3251, 3730, 4210, 4684, 5144, 5581, 5988, 6359, 6689], "poas": ["2717", "2739", "3498", "3500", "3505"]}}, {"type": "Feature", "geometry": {"type": "Point", "coordinates": [144.45793, -37.2254]}, "properties": {"rank": 61, "id": "WASTVIC651", "name": "Kyneton Transfer Station", "owner": "Macedon Ranges Shire Council", "type": "TRANSFER STATION", "state": "VIC", "suburb": "Kyneton", "in_capital": false, "tonnes": [56.6, 66.2, 76.2, 86.3, 96.4, 106.3, 115.7, 124.7, 132.9, 140.3], "panels": [3164, 3661, 4174, 4690, 5200, 5695, 6166, 6605, 7007, 7364], "poas": ["3434", "3435", "3440", "3441", "3442", "3444", "3446", "3447", "3448", "3450", "3451", "3458", "3461"]}}, {"type": "Feature", "geometry": {"type": "Point", "coordinates": [139.29499, -34.92695]}, "properties": {"rank": 62, "id": "WASTSA387", "name": "Mannum Transfer Station", "owner": "Mid Murray Council", "type": "TRANSFER STATION", "state": "SA", "suburb": "Mannum", "in_capital": false, "tonnes": [51.7, 59.2, 66.9, 74.6, 82.2, 89.6, 96.5, 103.0, 108.8, 114.0], "panels": [2951, 3347, 3750, 4150, 4539, 4910, 5258, 5577, 5861, 6108], "poas": ["5236", "5237", "5238", "5253", "5254"]}}, {"type": "Feature", "geometry": {"type": "Point", "coordinates": [149.246, -33.55675]}, "properties": {"rank": 63, "id": "WASTNSW188", "name": "Blayney Waste Disposal Facility", "owner": "Blayney Shire Council", "type": "LANDFILL \u2013 PUTRESCIBLE", "state": "NSW", "suburb": "Blayney", "in_capital": false, "tonnes": [48.4, 57.3, 66.8, 76.4, 86.1, 95.6, 104.8, 113.6, 121.8, 129.2], "panels": [2674, 3133, 3612, 4098, 4583, 5057, 5512, 5942, 6340, 6698], "poas": ["2791", "2792", "2795", "2797", "2798", "2799"]}}, {"type": "Feature", "geometry": {"type": "Point", "coordinates": [146.20825, -36.46571]}, "properties": {"rank": 64, "id": "WASTVIC527", "name": "Glenrowan Transfer Station", "owner": "Wangaratta Rural City Council", "type": "TRANSFER STATION", "state": "VIC", "suburb": "Glenrowan", "in_capital": false, "tonnes": [48.6, 56.7, 65.2, 73.8, 82.4, 90.8, 98.9, 106.5, 113.5, 119.9], "panels": [2735, 3158, 3594, 4034, 4469, 4890, 5292, 5667, 6009, 6314], "poas": ["3672", "3673", "3675", "3677", "3678", "3725", "3726", "3732"]}}, {"type": "Feature", "geometry": {"type": "Point", "coordinates": [140.55661, -37.68104]}, "properties": {"rank": 65, "id": "WASTSA231", "name": "Glencoe Transfer Station\u00a0", "owner": "Wattle Range Council", "type": "TRANSFER STATION", "state": "SA", "suburb": "Tantanoola", "in_capital": false, "tonnes": [48.3, 55.8, 63.4, 71.1, 78.7, 86.0, 92.9, 99.4, 105.3, 110.5], "panels": [2725, 3116, 3514, 3910, 4297, 4668, 5016, 5338, 5626, 5878], "poas": ["5278", "5279", "5280", "5290", "5291"]}}, {"type": "Feature", "geometry": {"type": "Point", "coordinates": [150.59547, -34.27635]}, "properties": {"rank": 66, "id": "WASTNSW98", "name": "Bargo Waste Management Centre", "owner": "Wollondilly Shire Council", "type": "TRANSFER STATION; E-WASTE DROP-OFF FACILITY", "state": "NSW", "suburb": "Bargo", "in_capital": true, "tonnes": [141.8, 172.8, 206.2, 240.9, 276.3, 311.7, 346.5, 380.1, 412.0, 441.7], "panels": [7730, 9298, 10967, 12693, 14441, 16180, 17880, 19513, 21052, 22473], "poas": ["2560", "2563", "2568", "2569", "2570", "2571", "2572", "2573", "2574", "2575"]}}, {"type": "Feature", "geometry": {"type": "Point", "coordinates": [144.37574, -35.96159]}, "properties": {"rank": 67, "id": "WASTVIC539", "name": "Gunbower Resource Recovery Centre", "owner": "Campaspe Shire Council", "type": "TRANSFER STATION", "state": "VIC", "suburb": "Gunbower", "in_capital": false, "tonnes": [43.3, 50.6, 58.0, 65.6, 73.1, 80.3, 87.3, 93.8, 99.8, 105.2], "panels": [2411, 2788, 3174, 3560, 3941, 4309, 4657, 4981, 5275, 5535], "poas": ["2731", "3562", "3564", "3565", "3566", "3567", "3568", "3573", "3575"]}}, {"type": "Feature", "geometry": {"type": "Point", "coordinates": [150.38261, -35.5372]}, "properties": {"rank": 68, "id": "WASTNSW126", "name": "Kioloa Transfer Station", "owner": "Shoalhaven City Council", "type": "TRANSFER STATION", "state": "NSW", "suburb": "Bawley Point", "in_capital": false, "tonnes": [40.8, 48.9, 57.3, 66.1, 74.9, 83.7, 92.2, 100.4, 108.1, 115.2], "panels": [2258, 2666, 3095, 3534, 3974, 4408, 4827, 5226, 5598, 5936], "poas": ["2536", "2538", "2539"]}}, {"type": "Feature", "geometry": {"type": "Point", "coordinates": [147.83629, -37.69604]}, "properties": {"rank": 69, "id": "WASTVIC174", "name": "Bruthen Transfer Station", "owner": "East Gippsland Shire Council", "type": "TRANSFER STATION", "state": "VIC", "suburb": "Bruthen", "in_capital": false, "tonnes": [42.9, 49.8, 56.8, 63.9, 71.0, 77.8, 84.3, 90.4, 95.9, 100.9], "panels": [2419, 2778, 3144, 3509, 3867, 4212, 4537, 4838, 5110, 5348], "poas": ["3875", "3878", "3880", "3882", "3887", "3893", "3902", "3903", "3904", "3909"]}}, {"type": "Feature", "geometry": {"type": "Point", "coordinates": [151.38565, -32.81998]}, "properties": {"rank": 70, "id": "WASTNSW341", "name": "Cessnock Waste And Reuse Centre", "owner": "Cessnock City Council", "type": "TRANSFER STATION; LANDFILL \u2013 PUTRESCIBLE", "state": "NSW", "suburb": "Cessnock", "in_capital": false, "tonnes": [109.1, 131.2, 154.8, 179.0, 203.6, 228.0, 251.8, 274.6, 296.1, 315.9], "panels": [5977, 7105, 8294, 9512, 10737, 11946, 13118, 14235, 15279, 16233], "poas": ["2320", "2323", "2325", "2326", "2327", "2331", "2334", "2335"]}}, {"type": "Feature", "geometry": {"type": "Point", "coordinates": [152.92238, -29.76722]}, "properties": {"rank": 71, "id": "WASTNSW1351", "name": "Grafton Resource Recovery Facility", "owner": "Clarence Valley Council", "type": "TRANSFER STATION; LANDFILL \u2013 PUTRESCIBLE", "state": "NSW", "suburb": "Elland", "in_capital": false, "tonnes": [40.9, 47.6, 54.5, 61.5, 68.5, 75.2, 81.7, 87.8, 93.4, 98.4], "panels": [2300, 2648, 3006, 3365, 3718, 4059, 4382, 4682, 4955, 5195], "poas": ["2460", "2462"]}}, {"type": "Feature", "geometry": {"type": "Point", "coordinates": [152.23822, -28.08029]}, "properties": {"rank": 72, "id": "WASTQLD822", "name": "Maryvale Transfer Station", "owner": "Southern Downs Regional Council", "type": "TRANSFER STATION", "state": "QLD", "suburb": "Maryvale", "in_capital": false, "tonnes": [41.8, 48.0, 54.4, 60.9, 67.2, 73.4, 79.2, 84.7, 89.6, 94.0], "panels": [2391, 2719, 3053, 3385, 3709, 4019, 4310, 4578, 4818, 5027], "poas": ["4309", "4362", "4370", "4371", "4372", "4373"]}}, {"type": "Feature", "geometry": {"type": "Point", "coordinates": [152.95546, -27.11798]}, "properties": {"rank": 73, "id": "WASTQLD878", "name": "Officeworks", "owner": "Officeworks", "type": "E-WASTE DROP-OFF FACILITY", "state": "QLD", "suburb": "Morayfield", "in_capital": true, "tonnes": [542.0, 628.6, 718.4, 809.3, 899.4, 987.1, 1071.1, 1149.8, 1222.1, 1286.9], "panels": [30577, 35099, 39743, 44395, 48968, 53379, 57557, 61434, 64949, 68051], "poas": ["4017", "4019", "4020", "4021", "4022", "4036", "4500", "4501", "4502", "4503", "4504", "4505", "4506", "4508", "4509", "4510", "4512", "4514", "4520", "4521"]}}, {"type": "Feature", "geometry": {"type": "Point", "coordinates": [145.97864, -34.59301]}, "properties": {"rank": 74, "id": "WASTNSW443", "name": "Darlington Point Waste Depot", "owner": "Murrumbidgee Council", "type": "LANDFILL \u2013 PUTRESCIBLE", "state": "NSW", "suburb": "Darlington Point", "in_capital": false, "tonnes": [36.7, 42.9, 49.4, 55.9, 62.5, 68.8, 74.9, 80.7, 86.0, 90.8], "panels": [2043, 2366, 2698, 3033, 3364, 3684, 3989, 4274, 4533, 4764], "poas": ["2680", "2706", "2707"]}}, {"type": "Feature", "geometry": {"type": "Point", "coordinates": [146.10109, -41.15558]}, "properties": {"rank": 75, "id": "WASTTAS162", "name": "Lobster Creek Resource Recovery Centre", "owner": "Central Coast Council", "type": "TRANSFER STATION; LANDFILL \u2013 PUTRESCIBLE", "state": "TAS", "suburb": "West Ulverstone", "in_capital": false, "tonnes": [37.1, 43.1, 49.4, 55.7, 62.0, 68.2, 74.1, 79.7, 84.8, 89.5], "panels": [2079, 2391, 2713, 3036, 3355, 3664, 3958, 4231, 4480, 4701], "poas": ["7310", "7315", "7316", "7320", "7322"]}}, {"type": "Feature", "geometry": {"type": "Point", "coordinates": [145.69608, -35.95531]}, "properties": {"rank": 76, "id": "WASTVIC267", "name": "Cobram Transfer Station", "owner": "Moira Shire Council", "type": "TRANSFER STATION; LANDFILL \u2013 PUTRESCIBLE", "state": "VIC", "suburb": "Cobram East", "in_capital": false, "tonnes": [45.1, 52.1, 59.3, 66.5, 73.6, 80.4, 86.9, 92.9, 98.4, 103.2], "panels": [2534, 2902, 3276, 3648, 4011, 4359, 4685, 4985, 5254, 5489], "poas": ["3636", "3640", "3641", "3644", "3649", "3730"]}}, {"type": "Feature", "geometry": {"type": "Point", "coordinates": [143.97413, -38.23905]}, "properties": {"rank": 77, "id": "WASTVIC1267", "name": "Winchelsea Transfer Station", "owner": "Surf Coast Shire Council", "type": "TRANSFER STATION", "state": "VIC", "suburb": "Winchelsea", "in_capital": false, "tonnes": [38.8, 45.6, 52.7, 59.9, 67.2, 74.3, 81.2, 87.7, 93.7, 99.2], "panels": [2175, 2525, 2888, 3256, 3620, 3976, 4316, 4635, 4928, 5191], "poas": ["3221", "3228", "3230", "3231", "3235", "3240", "3241", "3242", "3243", "3251", "3321", "3328", "3329"]}}, {"type": "Feature", "geometry": {"type": "Point", "coordinates": [150.05199, -33.63712]}, "properties": {"rank": 78, "id": "WASTNSW689", "name": "Hampton Transfer Station", "owner": "Lithgow City Council", "type": "TRANSFER STATION", "state": "NSW", "suburb": "Hampton", "in_capital": false, "tonnes": [32.7, 38.8, 45.2, 51.9, 58.6, 65.3, 71.8, 78.0, 83.8, 89.2], "panels": [1821, 2133, 2461, 2796, 3131, 3460, 3779, 4081, 4361, 4617], "poas": ["2780", "2785", "2786", "2787", "2790", "2845"]}}, {"type": "Feature", "geometry": {"type": "Point", "coordinates": [137.76135, -32.9827]}, "properties": {"rank": 79, "id": "WASTSA578", "name": "Santos Landfill", "owner": "Santos Limited", "type": "LANDFILL \u2013 PUTRESCIBLE", "state": "SA", "suburb": "Port Bonython", "in_capital": false, "tonnes": [36.4, 40.8, 45.3, 49.6, 53.7, 57.5, 61.1, 64.3, 67.0, 69.3], "panels": [2104, 2344, 2581, 2809, 3024, 3224, 3404, 3563, 3697, 3806], "poas": ["5495", "5600", "5601", "5608", "5609"]}}, {"type": "Feature", "geometry": {"type": "Point", "coordinates": [145.57955, -17.26069]}, "properties": {"rank": 80, "id": "WASTQLD1465", "name": "Yungaburra Transfer Station", "owner": "Tablelands Regional Council", "type": "TRANSFER STATION", "state": "QLD", "suburb": "Yungaburra", "in_capital": false, "tonnes": [32.5, 38.3, 44.5, 50.9, 57.4, 63.7, 69.9, 75.8, 81.4, 86.4], "panels": [1820, 2123, 2440, 2763, 3086, 3403, 3708, 3996, 4263, 4505], "poas": ["4865", "4882", "4883", "4884", "4885", "4886"]}}, {"type": "Feature", "geometry": {"type": "Point", "coordinates": [148.67401, -20.28391]}, "properties": {"rank": 81, "id": "WASTQLD262", "name": "Cannonvale Transfer Station", "owner": "Whitsunday Regional Council", "type": "TRANSFER STATION; E-WASTE DROP-OFF FACILITY", "state": "QLD", "suburb": "Cannonvale", "in_capital": false, "tonnes": [31.3, 37.4, 43.9, 50.6, 57.4, 64.1, 70.7, 77.0, 83.0, 88.4], "panels": [1726, 2037, 2366, 2703, 3042, 3376, 3699, 4007, 4295, 4557], "poas": ["4800", "4802"]}}, {"type": "Feature", "geometry": {"type": "Point", "coordinates": [149.99571, -34.71603]}, "properties": {"rank": 82, "id": "WASTNSW933", "name": "Marulan Waste Management Centre", "owner": "Goulburn Mulwaree Shire Council", "type": "TRANSFER STATION; LANDFILL \u2013 PUTRESCIBLE", "state": "NSW", "suburb": "Marulan", "in_capital": false, "tonnes": [31.1, 37.0, 43.2, 49.7, 56.1, 62.5, 68.8, 74.7, 80.3, 85.5], "panels": [1722, 2024, 2340, 2662, 2985, 3303, 3609, 3900, 4170, 4415], "poas": ["2579", "2580"]}}, {"type": "Feature", "geometry": {"type": "Point", "coordinates": [147.23641, -19.7828]}, "properties": {"rank": 83, "id": "WASTQLD320", "name": "Clare Transfer Station", "owner": "Burdekin Shire Council", "type": "TRANSFER STATION", "state": "QLD", "suburb": "Clare", "in_capital": false, "tonnes": [31.7, 37.3, 43.1, 49.1, 55.0, 60.9, 66.5, 71.8, 76.8, 81.2], "panels": [1760, 2050, 2349, 2652, 2952, 3244, 3523, 3785, 4026, 4241], "poas": ["4806", "4807", "4809"]}}, {"type": "Feature", "geometry": {"type": "Point", "coordinates": [137.59914, -34.06352]}, "properties": {"rank": 84, "id": "WASTSA438", "name": "Copper Coast Recycling", "owner": "Copper Coast Recycling Pty Ltd", "type": "TRANSFER STATION", "state": "SA", "suburb": "North Moonta", "in_capital": false, "tonnes": [33.5, 38.3, 43.2, 48.1, 52.9, 57.6, 62.0, 66.1, 69.8, 73.1], "panels": [1922, 2175, 2431, 2686, 2933, 3168, 3389, 3590, 3769, 3925], "poas": ["5552", "5554", "5556", "5558", "5572"]}}, {"type": "Feature", "geometry": {"type": "Point", "coordinates": [152.50245, -30.81306]}, "properties": {"rank": 85, "id": "WASTNSW135", "name": "Bellbrook Waste Transfer Station", "owner": "Kempsey Shire Council", "type": "TRANSFER STATION", "state": "NSW", "suburb": "Bellbrook", "in_capital": false, "tonnes": [31.6, 37.0, 42.7, 48.4, 54.1, 59.7, 65.1, 70.2, 74.8, 79.0], "panels": [1765, 2048, 2338, 2631, 2920, 3201, 3469, 3718, 3947, 4150], "poas": ["2440", "2447"]}}, {"type": "Feature", "geometry": {"type": "Point", "coordinates": [138.24213, -33.33319]}, "properties": {"rank": 86, "id": "WASTSA144", "name": "Crystal Brooke Transfer Station", "owner": "Port Pirie Regional Council", "type": "TRANSFER STATION", "state": "SA", "suburb": "Crystal Brook", "in_capital": false, "tonnes": [34.0, 38.3, 42.5, 46.7, 50.7, 54.4, 57.9, 61.0, 63.7, 66.0], "panels": [1971, 2200, 2427, 2647, 2856, 3050, 3226, 3383, 3516, 3625], "poas": ["5471", "5472", "5473", "5480", "5490", "5521", "5523", "5540"]}}, {"type": "Feature", "geometry": {"type": "Point", "coordinates": [114.66946, -28.80378]}, "properties": {"rank": 87, "id": "WASTWA791", "name": "Veolia Transfer Station Meru", "owner": "Veolia", "type": "TRANSFER STATION", "state": "WA", "suburb": "Narngulu", "in_capital": false, "tonnes": [32.0, 36.8, 41.7, 46.5, 51.3, 55.9, 60.2, 64.2, 67.8, 71.0], "panels": [1809, 2062, 2317, 2570, 2816, 3050, 3269, 3469, 3647, 3800], "poas": ["6528", "6530"]}}, {"type": "Feature", "geometry": {"type": "Point", "coordinates": [145.92222, -38.55833]}, "properties": {"rank": 88, "id": "WASTVIC644", "name": "Koonwarra Landfill", "owner": "South Gippsland Shire Council", "type": "LANDFILL \u2013 PUTRESCIBLE", "state": "VIC", "suburb": "Koonwarra", "in_capital": false, "tonnes": [46.8, 54.5, 62.5, 70.6, 78.6, 86.5, 94.0, 101.1, 107.6, 113.4], "panels": [2627, 3028, 3441, 3856, 4264, 4658, 5033, 5381, 5698, 5978], "poas": ["3946", "3950", "3951", "3953", "3954", "3956", "3957", "3958", "3959", "3979", "3992", "3995", "3996"]}}, {"type": "Feature", "geometry": {"type": "Point", "coordinates": [153.5121, -28.59013]}, "properties": {"rank": 89, "id": "WASTNSW1066", "name": "Myocum Resource Recovery Centre", "owner": "Byron Shire Council", "type": "TRANSFER STATION; LANDFILL \u2013 PUTRESCIBLE", "state": "NSW", "suburb": "Myocum", "in_capital": false, "tonnes": [54.8, 64.2, 74.2, 84.3, 94.4, 104.4, 114.0, 123.0, 131.5, 139.1], "panels": [3066, 3556, 4065, 4580, 5091, 5588, 6064, 6510, 6920, 7287], "poas": ["2479", "2481", "2482", "2483"]}}, {"type": "Feature", "geometry": {"type": "Point", "coordinates": [149.93041, -36.76202]}, "properties": {"rank": 90, "id": "WASTNSW1615", "name": "Wallagoot Waste Transfer Depot", "owner": "Bega Valley Shire Council", "type": "TRANSFER STATION", "state": "NSW", "suburb": "Wallagoot", "in_capital": false, "tonnes": [31.0, 36.1, 41.4, 46.9, 52.3, 57.6, 62.7, 67.5, 72.0, 76.1], "panels": [1746, 2011, 2285, 2560, 2833, 3098, 3350, 3586, 3801, 3994], "poas": ["2548", "2549", "2550"]}}, {"type": "Feature", "geometry": {"type": "Point", "coordinates": [151.81992, -26.44569]}, "properties": {"rank": 91, "id": "WASTQLD830", "name": "Memerambi Transfer Station", "owner": "South Burnett Regional Council", "type": "TRANSFER STATION", "state": "QLD", "suburb": "Memerambi", "in_capital": false, "tonnes": [31.1, 36.0, 41.0, 46.2, 51.4, 56.4, 61.2, 65.7, 69.9, 73.6], "panels": [1767, 2023, 2286, 2549, 2809, 3060, 3298, 3520, 3721, 3899], "poas": ["4606", "4608", "4610", "4615"]}}, {"type": "Feature", "geometry": {"type": "Point", "coordinates": [138.5043, -34.27815]}, "properties": {"rank": 92, "id": "WASTSA529", "name": "Owen Transfer Station", "owner": "Wakefield Regional Council", "type": "TRANSFER STATION", "state": "SA", "suburb": "Owen", "in_capital": false, "tonnes": [33.9, 39.4, 45.1, 50.9, 56.7, 62.3, 67.7, 72.8, 77.5, 81.7], "panels": [1917, 2203, 2498, 2795, 3087, 3370, 3639, 3890, 4118, 4320], "poas": ["5401", "5410", "5411", "5412", "5460", "5461", "5501", "5502"]}}, {"type": "Feature", "geometry": {"type": "Point", "coordinates": [147.0909, -37.95992]}, "properties": {"rank": 93, "id": "WASTVIC1103", "name": "Stratford Transfer Station", "owner": "Wellington Shire Council", "type": "TRANSFER STATION", "state": "VIC", "suburb": "Stratford", "in_capital": false, "tonnes": [31.1, 35.9, 40.7, 45.7, 50.5, 55.2, 59.6, 63.7, 67.5, 70.8], "panels": [1760, 2010, 2264, 2517, 2765, 3001, 3224, 3429, 3612, 3772], "poas": ["3850", "3851", "3852", "3859", "3860", "3864"]}}, {"type": "Feature", "geometry": {"type": "Point", "coordinates": [142.64384, -38.30621]}, "properties": {"rank": 94, "id": "WASTVIC500", "name": "Framlingham Transfer Station", "owner": "Framlingham Aboriginal Trust", "type": "TRANSFER STATION", "state": "VIC", "suburb": "Framlingham", "in_capital": false, "tonnes": [29.8, 35.1, 40.6, 46.1, 51.7, 57.1, 62.4, 67.4, 71.9, 76.1], "panels": [1659, 1932, 2214, 2499, 2780, 3054, 3316, 3561, 3785, 3986], "poas": ["3264", "3265", "3275", "3276", "3277", "3278", "3279", "3280", "3281", "3282"]}}, {"type": "Feature", "geometry": {"type": "Point", "coordinates": [152.44468, -31.62863]}, "properties": {"rank": 95, "id": "WASTNSW382", "name": "Comboyne Transfer Station", "owner": "Port Macquarie Hastings Council", "type": "TRANSFER STATION", "state": "NSW", "suburb": "Comboyne", "in_capital": false, "tonnes": [30.7, 35.9, 41.3, 46.9, 52.4, 57.8, 63.0, 67.9, 72.4, 76.5], "panels": [1722, 1993, 2272, 2554, 2833, 3103, 3361, 3602, 3823, 4019], "poas": ["2426", "2429", "2446"]}}, {"type": "Feature", "geometry": {"type": "Point", "coordinates": [153.35758, -29.38721]}, "properties": {"rank": 96, "id": "WASTNSW730", "name": "Iluka Waste Transfer Station", "owner": "Clarence Valley Council", "type": "TRANSFER STATION", "state": "NSW", "suburb": "Iluka", "in_capital": false, "tonnes": [25.5, 30.0, 34.7, 39.5, 44.4, 49.1, 53.7, 58.0, 62.1, 65.8], "panels": [1431, 1664, 1905, 2150, 2393, 2630, 2857, 3071, 3268, 3444], "poas": ["2463", "2464", "2465", "2466", "2472"]}}, {"type": "Feature", "geometry": {"type": "Point", "coordinates": [149.63127, -32.4176]}, "properties": {"rank": 97, "id": "WASTNSW712", "name": "Home Rule Transfer Station", "owner": "Mid-Western Regional Council", "type": "TRANSFER STATION", "state": "NSW", "suburb": "Home Rule", "in_capital": false, "tonnes": [24.9, 29.4, 34.2, 39.1, 43.9, 48.7, 53.4, 57.8, 61.9, 65.6], "panels": [1372, 1606, 1850, 2097, 2343, 2583, 2813, 3030, 3230, 3410], "poas": ["2850", "2852"]}}, {"type": "Feature", "geometry": {"type": "Point", "coordinates": [146.429, -35.95044]}, "properties": {"rank": 98, "id": "WASTNSW417", "name": "Corowa Waste Management Centre", "owner": "Federation Council", "type": "TRANSFER STATION; LANDFILL \u2013 PUTRESCIBLE", "state": "NSW", "suburb": "Hopefield", "in_capital": false, "tonnes": [26.4, 30.1, 33.9, 37.6, 41.3, 44.8, 48.1, 51.2, 53.9, 56.3], "panels": [1507, 1703, 1901, 2096, 2284, 2463, 2629, 2780, 2913, 3027], "poas": ["2643", "2646", "3682", "3685", "3687"]}}, {"type": "Feature", "geometry": {"type": "Point", "coordinates": [151.78437, -30.55431]}, "properties": {"rank": 99, "id": "WASTNSW968", "name": "Armidale Regional Landfill", "owner": "Armidale Regional Council", "type": "LANDFILL \u2013 PUTRESCIBLE", "state": "NSW", "suburb": "Metz", "in_capital": false, "tonnes": [23.9, 28.1, 32.5, 37.0, 41.5, 45.9, 50.1, 54.2, 57.9, 61.3], "panels": [1331, 1547, 1772, 2000, 2226, 2446, 2656, 2854, 3036, 3198], "poas": ["2350"]}}, {"type": "Feature", "geometry": {"type": "Point", "coordinates": [143.79175, -37.06472]}, "properties": {"rank": 100, "id": "WASTVIC213", "name": "Carisbrook Transfer Station And Resource Recovery Ce", "owner": "Central Goldfields Shire Council", "type": "TRANSFER STATION", "state": "VIC", "suburb": "Carisbrook", "in_capital": false, "tonnes": [24.0, 27.5, 31.1, 34.7, 38.1, 41.5, 44.6, 47.5, 50.0, 52.3], "panels": [1360, 1546, 1734, 1918, 2097, 2267, 2425, 2568, 2695, 2804], "poas": ["3371", "3462", "3463", "3464", "3465", "3467", "3472"]}}]}
